# 2012 06 28 11 36 59.6  -09.75    112.97     10.0  4.7   0.0   0.0   0.791       104
 GMJI       26.20   1.000   P
 JAGI       29.20   1.000   P
 PWJI       33.60   1.000   P
 BYJI       35.00   1.000   P
 BLJI       35.40   1.000   P
 SWJI       37.60   1.000   P
 PCJI       37.90   1.000   P
 WOJI       43.80   1.000   P
 GRJI       46.00   1.000   P
 NGJI       46.60   1.000   P
 TBJI       49.60   1.000   P
 SMRI       58.20   1.000   P
 PWJI       63.70   1.000   S
 SCJI       64.30   1.000   P
 SWJI       68.20   1.000   S
 KPJI       70.30   1.000   P
 CMJI       72.00   1.000   P
 SWJI       76.70   1.000   S
  LEM       89.80   1.000   P
 CGJI      114.60   1.000   P
 GMJI     1552.60   1.000   P
 JAGI     1556.00   1.000   P
 PWJI     1561.40   1.000   P
 BLJI     1562.70   1.000   P
 SWJI     1565.80   1.000   P
 PCJI     1567.30   1.000   P
 NGJI     1573.50   1.000   P
 JAGI     1579.50   1.000   S
# 2012 06 28 12 10 03.1  -09.81    112.94     10.0  4.7   0.0   0.0   1.019       105
 GMJI       25.60   1.000   P
 JAGI       29.50   1.000   P
 PWJI       34.30   1.000   P
 BLJI       35.60   1.000   P
 PCJI       38.40   1.000   P
 SWJI       38.40   1.000   P
 WOJI       44.30   1.000   P
 GRJI       47.60   1.000   P
 NGJI       47.70   1.000   P
 TBJI       51.20   1.000   P
 SMRI       57.70   1.000   P
 SCJI       65.20   1.000   P
 KPJI       70.80   1.000   P
 CMJI       73.50   1.000   P
 CGJI      114.60   1.000   P
# 2012 06 28 12 20 07.2  -09.65    112.97     10.0  4.2   0.0   0.0   1.388       106
 GMJI       23.90   1.000   P
 JAGI       27.30   1.000   P
 PWJI       32.70   1.000   P
 BLJI       34.00   1.000   P
 PCJI       36.30   1.000   P
 WOJI       42.80   1.000   P
 GRJI       46.30   1.000   P
 NGJI       46.80   1.000   P
 PWJI       57.10   1.000   S
 SMRI       58.20   1.000   P
 PCJI       64.60   1.000   S
 WOJI       75.30   1.000   S
 JAGI    96683.60   1.000   P
 GMJI    96684.90   1.000   P
 BYJI    96688.30   1.000   P
 PWJI    96698.30   1.000   P
 JAGI    96700.50   1.000   S
 SWJI    96702.80   1.000   P
 GMJI    96703.10   1.000   S
 WOJI    96710.20   1.000   P
 KPJI    96738.90   1.000   P
 GMJI -2190768.40   1.000   P
 JAGI -2190764.50   1.000   P
 PWJI -2190760.00   1.000   P
 BYJI -2190759.60   1.000   P
 BLJI -2190758.80   1.000   P
 SWJI -2190755.00   1.000   P
 WOJI -2190750.30   1.000   P
 GMJI -2190749.20   1.000   S
 JAGI -2190742.60   1.000   S
 PWJI -2190736.10   1.000   S
 GMJI -2070375.50   1.000   P
 JAGI -2070371.20   1.000   P
 BLJI -2070369.10   1.000   P
 BYJI -2070366.80   1.000   P
 GMJI -2070360.90   1.000   S
 WOJI -2070356.40   1.000   P
 NGJI -2070355.80   1.000   P
 JAGI -2070354.10   1.000   S
 BLJI -2070351.00   1.000   S
 BYJI -2070344.90   1.000   S
 CGJI -2070285.30   1.000   P
 GMJI -1657210.40   1.000   P
 JAGI -1657206.90   1.000   P
 PWJI -1657202.70   1.000   P
 BLJI -1657201.30   1.000   P
 ABJI -1657197.70   1.000   P
 GMJI -1657191.10   1.000   S
 JAGI -1657186.00   1.000   S
 PWJI -1657179.10   1.000   S
# 2012 07 11 11 01 31.7  -08.93    112.15     99.0  3.2   0.0   0.0   0.680       107
 PWJI       19.70   1.000   P
 PCJI       21.80   1.000   P
 SWJI       23.90   1.000   P
 GMJI       25.90   1.000   P
 WOJI       27.90   1.000   P
 JAGI       33.80   1.000   P
 PWJI       34.80   1.000   S
 GMJI       45.50   1.000   S
 WOJI       49.90   1.000   S
 KPJI       52.90   1.000   P
 JAGI       58.00   1.000   S
 GMJI    15470.70   1.000   P
 JAGI    15474.60   1.000   P
 BLJI    15480.90   1.000   P
 GMJI    15482.40   1.000   S
 PWJI    15485.10   1.000   P
 JAGI    15488.50   1.000   S
 SWJI    15488.70   1.000   P
 PCJI    15491.00   1.000   P
 GRJI    15494.10   1.000   P
 NGJI    15496.10   1.000   P
 WOJI    15497.20   1.000   P
 SMRI    15509.70   1.000   P
 KPJI    15524.50   1.000   P
 CMJI    15527.50   1.000   P
# 2012 07 13 01 32 02.4  -09.66    112.97     10.0  4.4   0.0   0.0   0.723       108
 GMJI       24.50   1.000   P
 JAGI       28.40   1.000   P
 PWJI       32.30   1.000   P
 BLJI       34.60   1.000   P
 PCJI       37.70   1.000   P
 WOJI       43.60   1.000   P
 NGJI       44.80   1.000   P
 KPJI       69.40   1.000   P
# 2012 07 14 04 25 29.8  -09.71    112.97     10.0  4.7   0.0   0.0   0.649       109
 GMJI       25.10   1.000   P
 JAGI       28.90   1.000   P
 PWJI       33.90   1.000   P
 BLJI       35.20   1.000   P
 PCJI       37.70   1.000   P
 SWJI       37.90   1.000   P
 NGJI       44.40   1.000   P
 GRJI       45.00   1.000   P
 GMJI       47.20   1.000   S
 JAGI       51.90   1.000   S
 PWJI       56.30   1.000   S
 KPJI       70.10   1.000   P
 CMJI       73.40   1.000   P
 CGJI      114.50   1.000   P
# 2012 07 17 12 21 01.6  -07.73    111.96     14.0  2.6   0.0   0.0   0.939       110
 SWJI        6.30   1.000   P
 SWJI       10.20   1.000   S
 PWJI       10.80   1.000   P
 NGJI       13.10   1.000   P
 TBJI       17.00   1.000   P
 PCJI       17.40   1.000   P
 PWJI       17.70   1.000   S
 WOJI       19.80   1.000   P
 GRJI       20.30   1.000   P
 TBJI       28.70   1.000   S
# 2012 07 17 13 01 20.8  -07.78    112.07    187.0  3.8   0.0   0.0   1.097       111
 SWJI       25.40   1.000   P
 PWJI       25.70   1.000   P
 GRJI       26.90   1.000   P
 NGJI       27.10   1.000   P
 PCJI       29.60   1.000   P
 WOJI       29.90   1.000   P
 BLJI       32.70   1.000   P
 SMRI       34.90   1.000   P
 JAGI       39.70   1.000   P
 SWJI       45.30   1.000   S
 PWJI       46.30   1.000   S
 KPJI       52.10   1.000   P
 CMJI       55.40   1.000   P
 CGJI       92.90   1.000   P
# 2012 07 17 16 11 09.4  -10.59    112.75     10.0  4.0   0.0   0.0   0.867       112
 JAGI       41.20   1.000   P
 PCJI       44.60   1.000   P
 BLJI       48.40   1.000   P
 SWJI       48.40   1.000   P
 WOJI       51.50   1.000   P
 GRJI       57.70   1.000   P
 JAGI       72.10   1.000   S
 PWJI       74.60   1.000   P
 CMJI       76.10   1.000   P
 PCJI       79.50   1.000   S
 SWJI       84.00   1.000   S
 BLJI       84.20   1.000   S
# 2012 07 18 03 37 14.9  -09.43    112.61     16.0  3.5   0.0   0.0   0.606       113
 PWJI       26.20   1.000   P
 PCJI       30.50   1.000   P
 JAGI       30.80   1.000   P
 SWJI       32.10   1.000   P
 BLJI       33.10   1.000   P
 GRJI       40.70   1.000   P
 PWJI       44.40   1.000   S
 JAGI       53.00   1.000   S
 JAGI       59.40   1.000   S
# 2012 07 18 21 43 00.2  -10.22    112.59     18.0  4.3   0.0   0.0   0.526       114
 PWJI       35.00   1.000   P
 JAGI       37.20   1.000   P
 PCJI       38.30   1.000   P
 SWJI       40.40   1.000   P
 BLJI       42.30   1.000   P
 WOJI       45.00   1.000   P
 NGJI       47.20   1.000   P
 GRJI       50.80   1.000   P
 TBJI       52.70   1.000   P
 SMRI       57.30   1.000   P
 PWJI       61.60   1.000   S
 JAGI       64.40   1.000   S
 KPJI       68.30   1.000   P
 CTJI       68.40   1.000   P
 PCJI       69.80   1.000   S
 CMJI       70.70   1.000   P
 BLJI       74.10   1.000   S
 NGJI       84.50   1.000   S
  LEM       87.60   1.000   P
 JAGI   285525.60   1.000   P
 GMJI   285527.20   1.000   P
 BLJI   285534.80   1.000   P
 PWJI   285538.40   1.000   P
 WOJI   285549.80   1.000   P
 PWJI   285577.20   1.000   S
# 2012 07 22 13 00 32.7  -08.19    111.48    133.0  4.1   0.0   0.0   0.643       115
 PWJI       19.20   1.000   P
 PCJI       19.30   1.000   P
 SWJI       20.20   1.000   P
 WOJI       21.00   1.000   P
 NGJI       23.20   1.000   P
 TBJI       27.40   1.000   P
 SMRI       28.70   1.000   P
 GRJI       29.60   1.000   P
 GMJI       33.40   1.000   P
 PWJI       34.00   1.000   S
 PCJI       34.40   1.000   S
 BLJI       36.30   1.000   P
 SWJI       36.40   1.000   S
 WOJI       37.30   1.000   S
 JAGI       42.10   1.000   P
 KPJI       42.70   1.000   P
 GMJI       59.80   1.000   S
 JAGI       74.00   1.000   S
 CGJI       85.00   1.000   P
# 2012 07 28 03 11 57.4  -08.79    110.51     13.0  3.2   0.0   0.0   0.938       116
 PCJI       16.80   1.000   P
 WOJI       19.60   1.000   P
 PWJI       25.90   1.000   P
 NGJI       27.90   1.000   P
 SWJI       28.80   1.000   P
 PCJI       29.50   1.000   S
 WOJI       34.30   1.000   S
 KPJI       36.70   1.000   P
 PWJI       43.60   1.000   S
# 2012 07 31 13 59 17.1  -10.21    110.61     17.0  4.3   0.0   0.0   1.191       117
 PCJI       31.10   1.000   P
 WOJI       35.30   1.000   P
 PWJI       37.80   1.000   P
 SWJI       41.60   1.000   P
 NGJI       46.70   1.000   P
 SMRI       48.80   1.000   P
 CMJI       51.10   1.000   P
 KPJI       51.60   1.000   P
 GMJI       53.70   1.000   P
 CTJI       53.80   1.000   P
 GRJI       57.90   1.000   P
 BLJI       58.70   1.000   P
 JAGI       59.70   1.000   P
 PCJI       61.10   1.000   S
 WOJI       68.40   1.000   S
 WOJI       79.40   1.000   S
 GMJI     2682.00   1.000   P
 JAGI     2684.20   1.000   P
 BLJI     2691.60   1.000   P
 PWJI     2694.00   1.000   P
 SWJI     2697.90   1.000   P
 PCJI     2699.50   1.000   P
 GRJI     2703.10   1.000   P
 NGJI     2705.50   1.000   P
 WOJI     2706.10   1.000   P
 BLJI     2712.30   1.000   S
 PWJI     2716.20   1.000   S
 PWJI     2723.50   1.000   S
 KPJI     2734.40   1.000   P
# 2012 08 02 17 10 20.1  -09.10    111.27     12.0  3.9   0.0   0.0   0.870       118
 PCJI       16.40   1.000   P
 PWJI       21.30   1.000   P
 SWJI       25.30   1.000   P
 PWJI       35.00   1.000   S
 SMRI       37.10   1.000   P
 GMJI       37.10   1.000   P
 BLJI       43.20   1.000   P
 SWJI       44.20   1.000   S
 JAGI       45.60   1.000   P
 KPJI       45.90   1.000   P
 SMRI       65.40   1.000   S
 BLJI       75.90   1.000   S
 KPJI       82.00   1.000   S
# 2012 08 04 10 54 58.8  -05.86    110.56    549.0  4.6   0.0   0.0   0.549       119
 NGJI       68.70   1.000   P
 KPJI       70.70   1.000   P
 GRJI       70.90   1.000   P
 SWJI       71.10   1.000   P
 PCJI       71.60   1.000   P
 JCJI       71.90   1.000   P
 PWJI       72.60   1.000   P
 CMJI       73.10   1.000   P
 BLJI       77.90   1.000   P
 NGJI      125.30   1.000   S
 KPJI      128.60   1.000   S
 GRJI      128.70   1.000   S
 SWJI      129.10   1.000   S
# 2012 08 07 02 12 38.5  -08.67    111.04     38.0  3.4   0.0   0.0   0.588       120
 PCJI       11.10   1.000   P
 WOJI       15.20   1.000   P
 PWJI       16.40   1.000   P
 SWJI       19.20   1.000   P
 PCJI       20.80   1.000   S
 NGJI       22.60   1.000   P
 SMRI       27.30   1.000   P
 PWJI       29.40   1.000   S
 SWJI       34.60   1.000   S
 KPJI       38.10   1.000   P
 CMJI       40.90   1.000   P
 CMJI       72.20   1.000   S
# 2012 08 07 14 32 15.8  -09.38    112.28     38.0  4.8   0.0   0.0   0.811       121
 PWJI       22.80   1.000   P
 PCJI       24.90   1.000   P
 SWJI       26.80   1.000   P
 JAGI       30.40   1.000   P
 WOJI       31.30   1.000   P
 BLJI       32.40   1.000   P
 GRJI       37.90   1.000   P
 TBJI       39.90   1.000   P
 SMRI       45.00   1.000   P
 PCJI       45.50   1.000   S
 SWJI       49.40   1.000   S
 WOJI       56.90   1.000   S
 KPJI       57.00   1.000   P
 CTJI       57.10   1.000   P
 BLJI       57.90   1.000   S
 CMJI       58.70   1.000   P
 GRJI       67.20   1.000   S
 TBJI       70.60   1.000   S
  LEM       78.00   1.000   P
 SKJI       88.90   1.000   P
 JAGI   153043.30   1.000   P
 GMJI   153047.50   1.000   P
 JAGI   153058.20   1.000   S
 PWJI   153065.30   1.000   P
 GMJI   153066.50   1.000   S
 PCJI   153072.10   1.000   P
 WOJI   153077.30   1.000   P
# 2012 08 12 13 18 31.4  -10.39    110.98     16.0  4.5   0.0   0.0   0.902       122
 PCJI       34.00   1.000   P
 PWJI       38.40   1.000   P
 SWJI       42.50   1.000   P
 GMJI       48.70   1.000   P
 NGJI       49.50   1.000   P
 SMRI       52.50   1.000   P
 CMJI       54.40   1.000   P
 JAGI       55.70   1.000   P
 BLJI       56.60   1.000   P
 KPJI       57.10   1.000   P
# 2012 08 15 10 34 08.6  -08.66    110.54     11.0  3.1   0.0   0.0   0.381       123
 PCJI       14.50   1.000   P
 PWJI       24.40   1.000   P
 SWJI       27.00   1.000   P
 CMJI       36.90   1.000   P
 PWJI       41.80   1.000   S
 SWJI       46.90   1.000   S
# 2012 08 16 03 55 56.1  -09.58    112.86     15.0  3.2   0.0   0.0   1.094       124
 GMJI       24.70   1.000   P
 JAGI       27.80   1.000   P
 PWJI       30.30   1.000   P
 BLJI       34.40   1.000   P
 PCJI       36.00   1.000   P
 GMJI       42.10   1.000   S
 JAGI       50.40   1.000   S
 PWJI       52.40   1.000   S
 BLJI       59.10   1.000   S
# 2012 08 18 08 51 15.8  -08.65    111.44    114.0  3.7   0.0   0.0   0.436       125
 PCJI       18.30   1.000   P
 PWJI       19.00   1.000   P
 SWJI       21.70   1.000   P
 GRJI       33.00   1.000   P
 BLJI       37.40   1.000   P
 JAGI       42.50   1.000   P
 KPJI       44.00   1.000   P
 CMJI       46.80   1.000   P
# 2012 08 18 16 59 28.9  -08.55    112.71    127.0  2.8   0.0   0.0   0.469       126
 GMJI       20.70   1.000   P
 PWJI       22.70   1.000   P
 BLJI       24.60   1.000   P
 SWJI       24.90   1.000   P
 JAGI       27.50   1.000   P
 PCJI       28.70   1.000   P
 GRJI       29.40   1.000   P
 PWJI       40.40   1.000   S
 BLJI       44.10   1.000   S
 SWJI       44.70   1.000   S
 JAGI       47.80   1.000   S
 GMJI    17556.20   1.000   P
 JAGI    17559.60   1.000   P
 PWJI    17565.10   1.000   P
 BLJI    17565.80   1.000   P
 SWJI    17570.90   1.000   P
 NGJI    17578.80   1.000   P
 GMJI    18593.20   1.000   P
 JAGI    18596.90   1.000   P
 PWJI    18601.80   1.000   P
 BLJI    18603.00   1.000   P
 SWJI    18606.10   1.000   P
 GMJI    18612.90   1.000   S
 JAGI    18618.90   1.000   S
 PWJI    18625.10   1.000   S
# 2012 08 22 01 15 41.8  -09.10    112.39     88.0  3.7   0.0   0.0   0.622       127
 PWJI       21.40   1.000   P
 GMJI       23.20   1.000   P
 SWJI       25.20   1.000   P
 PCJI       25.40   1.000   P
 BLJI       29.70   1.000   P
 NGJI       33.00   1.000   P
 GRJI       34.10   1.000   P
 TBJI       36.10   1.000   P
 SMRI       42.90   1.000   P
 KPJI       57.80   1.000   P
 CMJI       59.90   1.000   P
 GMJI    58986.40   1.000   P
 JAGI    58990.80   1.000   P
 BLJI    58994.30   1.000   P
 PWJI    58995.10   1.000   P
 BYJI    58996.80   1.000   P
 SWJI    59000.00   1.000   P
 PCJI    59003.20   1.000   P
 KMMI    59006.20   1.000   P
 GRJI    59007.20   1.000   P
 NGJI    59008.00   1.000   P
 JAGI    59009.00   1.000   S
 TBJI    59010.90   1.000   P
 PWJI    59017.70   1.000   S
 BYJI    59018.20   1.000   S
 SMRI    59020.20   1.000   P
 PCJI    59030.90   1.000   S
 KPJI    59036.70   1.000   P
 GMJI    70886.60   1.000   P
 JAGI    70887.70   1.000   P
 BYJI    70892.90   1.000   P
 BLJI    70895.60   1.000   P
 PWJI    70901.30   1.000   P
 GMJI    70902.30   1.000   S
 JAGI    70903.00   1.000   S
 SWJI    70905.40   1.000   P
 PCJI    70909.00   1.000   P
 GRJI    70909.80   1.000   P
 BYJI    70911.80   1.000   S
 NGJI    70912.10   1.000   P
 TBJI    70914.70   1.000   P
 BLJI    70916.80   1.000   S
 SMRI    70926.30   1.000   P
 PWJI    70927.20   1.000   S
 BLJI   559987.60   1.000   P
 KMMI   559988.80   1.000   P
 JAGI   559988.90   1.000   P
 GMJI   559988.90   1.000   P
 BYJI   559989.50   1.000   P
 GRJI   559994.70   1.000   P
 PWJI   559999.50   1.000   P
 SWJI   559999.90   1.000   P
 PCJI   560004.00   1.000   P
 WOJI   560006.80   1.000   P
 JAGI   560015.70   1.000   S
 KPJI   560030.40   1.000   P
 PCJI   560044.40   1.000   S
# 2012 08 28 17 59 44.5  -08.19    112.04    122.0  3.1   0.0   0.0   0.406       128
 PWJI       17.80   1.000   P
 SWJI       18.60   1.000   P
 PCJI       21.80   1.000   P
 NGJI       22.10   1.000   P
 WOJI       24.10   1.000   P
 GMJI       26.20   1.000   P
 BLJI       28.90   1.000   P
 PWJI       31.10   1.000   S
 JAGI       34.80   1.000   P
 WOJI       42.80   1.000   S
# 2012 08 30 10 41 29.7  -09.15    111.21     10.0  2.8   0.0   0.0   0.653       129
 PCJI       17.90   1.000   P
 PWJI       20.70   1.000   P
 WOJI       23.50   1.000   P
 PCJI       30.60   1.000   S
 PWJI       36.40   1.000   S
 WOJI       42.50   1.000   S
