# 2012 09 15 09 35 37.2  -09.17    110.29     10.0  4.1   0.0   0.0   0.587       140
 WOJI       24.80   1.000   P
 PWJI       30.50   1.000   P
 SWJI       33.60   1.000   P
 NGJI       35.70   1.000   P
 SMRI       36.10   1.000   P
 CMJI       36.60   1.000   P
 KPJI       37.60   1.000   P
 CTJI       40.40   1.000   P
 GMJI       50.90   1.000   P
 BLJI       55.50   1.000   P
 JAGI       59.40   1.000   P
 JAGI    10680.20   1.000   P
 GMJI    10682.80   1.000   P
 BYJI    10684.10   1.000   P
 PWJI    10692.90   1.000   P
 SWJI    10698.00   1.000   P
 KMMI    10698.40   1.000   P
 PCJI    10698.50   1.000   P
 WOJI    10704.40   1.000   P
 JAGI    10708.90   1.000   S
 GMJI    10713.40   1.000   S
 PWJI    10730.80   1.000   S
 JAGI    24549.70   1.000   P
 GMJI    24551.90   1.000   P
 BLJI    24556.50   1.000   P
 PWJI    24561.90   1.000   P
 SWJI    24567.30   1.000   P
 GMJI    24576.20   1.000   S
 JAGI    25043.30   1.000   P
 GMJI    25045.20   1.000   P
 BYJI    25048.10   1.000   P
 BLJI    25054.40   1.000   P
 PWJI    25057.60   1.000   P
 SWJI    25061.60   1.000   P
 PCJI    25062.40   1.000   P
 KMMI    25063.90   1.000   P
 WOJI    25067.70   1.000   P
 GRJI    25068.00   1.000   P
 NGJI    25070.40   1.000   P
 TBJI    25073.00   1.000   P
 JAGI    25074.10   1.000   S
 GMJI    25078.10   1.000   S
 SMRI    25081.80   1.000   P
 BYJI    25082.10   1.000   S
 BLJI    25091.60   1.000   S
 CTJI    25092.50   1.000   P
 CMJI    25093.00   1.000   P
 KPJI    25093.00   1.000   P
 PWJI    25096.10   1.000   S
 JCJI    25105.90   1.000   P
 WOJI    25112.70   1.000   S
 SKJI    25124.10   1.000   P
 CGJI    25134.60   1.000   P
 SBJI    25134.70   1.000   P
 JAGI    26791.70   1.000   P
 BYJI    26796.40   1.000   P
 BLJI    26801.70   1.000   P
 PWJI    26803.70   1.000   P
 SWJI    26809.40   1.000   P
 PCJI    26809.80   1.000   P
 KMMI    26811.70   1.000   P
 WOJI    26814.70   1.000   P
 JAGI    27567.10   1.000   P
 GMJI    27570.00   1.000   P
 BYJI    27571.60   1.000   P
 BLJI    27578.40   1.000   P
 PWJI    27580.70   1.000   P
 KMMI    27584.80   1.000   P
 PCJI    27586.90   1.000   P
 WOJI    27592.60   1.000   P
 JAGI    27594.90   1.000   S
 GMJI    27599.70   1.000   S
 BYJI    27601.10   1.000   S
 KPJI    27618.70   1.000   P
 WOJI    27636.30   1.000   S
 JAGI    28247.00   1.000   P
 GMJI    28249.60   1.000   P
 BYJI    28251.90   1.000   P
 BLJI    28257.30   1.000   P
 PWJI    28260.60   1.000   P
 KMMI    28266.90   1.000   P
 WOJI    28271.20   1.000   P
 JAGI    28274.30   1.000   S
 BLJI    28294.20   1.000   S
 JAGI    28718.30   1.000   P
 GMJI    28720.80   1.000   P
 BLJI    28729.10   1.000   P
 PWJI    28732.90   1.000   P
 SWJI    28735.40   1.000   P
 WOJI    28743.60   1.000   P
 JAGI    28745.50   1.000   S
 GMJI    28750.60   1.000   S
 BLJI    28763.00   1.000   S
 KPJI    28771.10   1.000   P
 PWJI    28771.50   1.000   S
 SWJI    28780.20   1.000   S
 JAGI    28843.60   1.000   P
 GMJI    28845.30   1.000   P
 BYJI    28848.00   1.000   P
 BLJI    28854.10   1.000   P
 PWJI    28857.90   1.000   P
 PCJI    28862.20   1.000   P
 SWJI    28862.50   1.000   P
 KMMI    28864.40   1.000   P
 GRJI    28868.30   1.000   P
 WOJI    28868.30   1.000   P
 NGJI    28869.90   1.000   P
 JAGI    28872.70   1.000   S
 TBJI    28872.80   1.000   P
 GMJI    28877.70   1.000   S
 SMRI    28882.30   1.000   P
 BLJI    28891.00   1.000   S
 KPJI    28893.80   1.000   P
 CTJI    28894.20   1.000   P
 CMJI    28894.40   1.000   P
 PWJI    28896.60   1.000   S
 SWJI    28907.40   1.000   S
 GRJI    28914.70   1.000   S
 TBJI    28923.20   1.000   S
 CGJI    28934.40   1.000   P
 KPJI    28958.60   1.000   S
 BYJI    32546.10   1.000   P
 JAGI    32566.10   1.000   P
 GMJI    32569.30   1.000   P
 PWJI    32587.80   1.000   P
 JAGI    34547.60   1.000   P
 GMJI    34549.00   1.000   P
 BYJI    34550.70   1.000   P
 BLJI    34554.50   1.000   P
 PCJI    34565.00   1.000   P
 WOJI    34570.50   1.000   P
 JAGI    34573.60   1.000   S
 GMJI    34578.10   1.000   S
 PCJI    34605.60   1.000   S
 WOJI    34615.80   1.000   S
 JAGI    34830.00   1.000   P
 GMJI    34832.40   1.000   P
 BYJI    34834.70   1.000   P
 BLJI    34841.20   1.000   P
 PWJI    34844.20   1.000   P
 KMMI    34850.70   1.000   P
 PWJI    34882.80   1.000   S
 JAGI    35842.30   1.000   P
 GMJI    35844.20   1.000   P
 BLJI    35853.40   1.000   P
 PWJI    35856.40   1.000   P
 JAGI    51968.30   1.000   P
 GMJI    51970.10   1.000   P
 BYJI    51971.20   1.000   P
 BLJI    51977.10   1.000   P
 PWJI    51982.00   1.000   P
 KMMI    51988.60   1.000   P
 JAGI    51968.30   1.000   P
 GMJI    51970.80   1.000   P
 BLJI    51978.00   1.000   P
 PWJI    51982.00   1.000   P
 GMJI    51999.70   1.000   S
 BLJI    52012.10   1.000   S
 PWJI    52016.40   1.000   S
 JAGI    58092.60   1.000   P
 GMJI    58094.80   1.000   P
 BYJI    58097.70   1.000   P
 BLJI    58103.60   1.000   P
 PWJI    58107.10   1.000   P
 SWJI    58111.20   1.000   P
 PCJI    58112.30   1.000   P
 WOJI    58119.00   1.000   P
 PCJI    58150.90   1.000   S
 SWJI    58151.60   1.000   S
 WOJI    58161.20   1.000   S
 JAGI    60471.70   1.000   P
 GMJI    60475.00   1.000   P
 BYJI    60476.70   1.000   P
 BLJI    60483.10   1.000   P
 PWJI    60487.50   1.000   P
 SWJI    60491.80   1.000   P
 KMMI    60492.90   1.000   P
 JAGI    60501.20   1.000   S
 BLJI    60519.70   1.000   S
 PWJI    60526.50   1.000   S
 JAGI    80654.70   1.000   P
 GMJI    80657.30   1.000   P
 BLJI    80664.10   1.000   P
 PWJI    80668.90   1.000   P
 JAGI    80683.80   1.000   S
 GMJI    80686.90   1.000   S
 JAGI    99513.80   1.000   P
 GMJI    99515.70   1.000   P
 BYJI    99518.30   1.000   P
 BLJI    99524.20   1.000   P
 PWJI    99526.70   1.000   P
 SWJI    99532.40   1.000   P
 PCJI    99532.90   1.000   P
 WOJI    99535.70   1.000   P
 GRJI    99537.60   1.000   P
 JAGI    99542.30   1.000   S
 GMJI    99544.70   1.000   S
 KPJI    99562.10   1.000   P
 PWJI    99564.60   1.000   S
 GRJI    99584.20   1.000   S
 CGJI    99603.20   1.000   P
 JAGI   104735.10   1.000   P
 GMJI   104736.70   1.000   P
 PWJI   104748.90   1.000   P
 SWJI   104753.40   1.000   P
 JAGI   104763.60   1.000   S
 GMJI   104765.80   1.000   S
 PWJI   104785.50   1.000   S
 SWJI   104795.40   1.000   S
 JAGI   107876.10   1.000   P
 GMJI   107877.70   1.000   P
 BYJI   107881.20   1.000   P
 BLJI   107886.90   1.000   P
 PWJI   107889.60   1.000   P
 SWJI   107893.50   1.000   P
 PCJI   107893.70   1.000   P
 KMMI   107896.90   1.000   P
 WOJI   107899.90   1.000   P
 GRJI   107901.00   1.000   P
 JAGI   107904.40   1.000   S
 GMJI   107908.10   1.000   S
 BLJI   107922.90   1.000   S
 CMJI   107924.90   1.000   P
 KPJI   107925.10   1.000   P
 PWJI   107928.30   1.000   S
 SWJI   107936.60   1.000   S
 KMMI   107939.00   1.000   S
  LEM   107944.30   1.000   P
 GRJI   107947.50   1.000   S
 SKJI   107953.40   1.000   P
 CGJI   107966.20   1.000   P
 JAGI   176178.70   1.000   P
 GMJI   176180.60   1.000   P
 BLJI   176188.00   1.000   P
 ABJI   176189.80   1.000   P
 PWJI   176193.00   1.000   P
 PCJI   176198.00   1.000   P
 WOJI   176203.70   1.000   P
 JAGI   176208.80   1.000   S
 GMJI   176212.70   1.000   S
 PWJI   176231.90   1.000   S
 KPJI   176295.50   1.000   P
 JAGI   184778.10   1.000   P
 GMJI   184781.70   1.000   P
 BYJI   184783.20   1.000   P
 ABJI   184788.80   1.000   P
 PWJI   184793.40   1.000   P
 KMMI   184799.80   1.000   P
 JAGI   186747.30   1.000   P
 GMJI   186750.20   1.000   P
 BYJI   186752.00   1.000   P
 ABJI   186758.30   1.000   P
 BLJI   186758.30   1.000   P
 PWJI   186761.70   1.000   P
 PCJI   186765.30   1.000   P
 SWJI   186767.10   1.000   P
 KMMI   186767.80   1.000   P
 WOJI   186771.90   1.000   P
 GRJI   186772.60   1.000   P
 JAGI   186775.90   1.000   S
 GMJI   186780.80   1.000   S
 CMJI   186797.80   1.000   P
 KPJI   186797.80   1.000   P
 CTJI   186799.20   1.000   P
 PWJI   186800.60   1.000   S
 GRJI   186819.20   1.000   S
 CGJI   186838.70   1.000   P
 JAGI   189865.80   1.000   P
 GMJI   189868.20   1.000   P
 BYJI   189870.60   1.000   P
 BLJI   189876.70   1.000   P
 PWJI   189879.00   1.000   P
 SWJI   189883.80   1.000   P
 KMMI   189886.40   1.000   P
 GRJI   189890.80   1.000   P
 JAGI   189894.80   1.000   S
 KPJI   189917.80   1.000   P
 PWJI   189918.30   1.000   S
 CGJI   189958.80   1.000   P
 JAGI   198017.80   1.000   P
 GMJI   198020.30   1.000   P
 BLJI   198025.90   1.000   P
 JAGI   203324.90   1.000   P
 GMJI   203327.80   1.000   P
 BLJI   203336.20   1.000   P
 PCJI   203343.20   1.000   P
 SWJI   203343.90   1.000   P
 WOJI   203350.40   1.000   P
 JAGI   203353.20   1.000   S
 GMJI   203356.70   1.000   S
 BYJI   203361.10   1.000   P
 KPJI   203375.20   1.000   P
 CMJI   203376.00   1.000   P
 JAGI   203324.60   1.000   P
 GMJI   203327.20   1.000   P
 BYJI   203329.10   1.000   P
 BLJI   203336.00   1.000   P
 PWJI   203339.30   1.000   P
 SWJI   203343.80   1.000   P
 PCJI   203344.30   1.000   P
 WOJI   203350.50   1.000   P
 GRJI   203350.60   1.000   P
 JAGI   203351.30   1.000   S
 KPJI   203376.90   1.000   P
 PWJI   203379.30   1.000   S
 JAGI   212010.70   1.000   P
 GMJI   212014.40   1.000   P
 BYJI   212015.40   1.000   P
 BLJI   212022.40   1.000   P
 PWJI   212025.80   1.000   P
 KMMI   212030.90   1.000   P
 SWJI   212032.00   1.000   P
 WOJI   212036.00   1.000   P
 BYJI   212046.50   1.000   S
 BLJI   212056.80   1.000   S
 KPJI   212063.20   1.000   P
 PWJI   212065.20   1.000   S
 JCJI   212074.70   1.000   P
 JAGI   214714.90   1.000   P
 GMJI   214718.30   1.000   P
 BLJI   214726.20   1.000   P
 PWJI   214730.80   1.000   P
 SWJI   214732.80   1.000   P
 WOJI   214739.90   1.000   P
 JAGI   214742.20   1.000   S
 GMJI   214748.80   1.000   S
 KPJI   214767.40   1.000   P
 JAGI   220050.90   1.000   P
 GMJI   220054.40   1.000   P
 BLJI   220061.70   1.000   P
 PWJI   220066.30   1.000   P
 SWJI   220070.60   1.000   P
 WOJI   220076.30   1.000   P
 JAGI   220078.00   1.000   S
 PWJI   220104.70   1.000   S
 WOJI   220122.00   1.000   S
 JAGI   228471.70   1.000   P
 GMJI   228474.60   1.000   P
 BLJI   228482.60   1.000   P
 PWJI   228485.70   1.000   P
 SWJI   228492.20   1.000   P
 WOJI   228497.90   1.000   P
 JAGI   228500.40   1.000   S
 PWJI   228525.20   1.000   S
 JAGI   248847.90   1.000   P
 GMJI   248850.50   1.000   P
 BYJI   248852.30   1.000   P
 BLJI   248858.60   1.000   P
 PWJI   248862.50   1.000   P
 PCJI   248865.50   1.000   P
 SWJI   248866.60   1.000   P
 KMMI   248868.10   1.000   P
 NGJI   248871.90   1.000   P
 GRJI   248873.00   1.000   P
 WOJI   248873.50   1.000   P
 JAGI   248875.20   1.000   S
 TBJI   248876.70   1.000   P
 BYJI   248883.20   1.000   S
 SMRI   248886.40   1.000   P
 BLJI   248894.10   1.000   S
 KPJI   248898.60   1.000   P
 CMJI   248899.60   1.000   P
  LEM   248916.70   1.000   P
 SKJI   248928.30   1.000   P
 CGJI   248940.50   1.000   P
 JAGI   281069.40   1.000   P
 GMJI   281073.40   1.000   P
 BLJI   281079.80   1.000   P
 JAGI   281083.20   1.000   S
 PWJI   281089.30   1.000   P
 KMMI   281090.10   1.000   P
 GMJI   281090.20   1.000   S
 BLJI   281102.50   1.000   S
 GMJI   330059.90   1.000   P
 JAGI   330063.90   1.000   P
 BLJI   330063.90   1.000   P
 BYJI   330067.90   1.000   P
 ABJI   330068.10   1.000   P
 PWJI   330071.20   1.000   P
 GMJI   330071.50   1.000   S
 KMMI   330072.90   1.000   P
 SWJI   330073.50   1.000   P
 JAGI   330078.10   1.000   S
 PCJI   330078.90   1.000   P
 WOJI   330083.70   1.000   P
 BYJI   330085.40   1.000   S
 ABJI   330086.70   1.000   S
 PWJI   330091.30   1.000   S
 PCJI   330104.70   1.000   S
 JAGI   361771.80   1.000   P
 GMJI   361775.10   1.000   P
 BYJI   361775.90   1.000   P
 BLJI   361782.00   1.000   P
 PWJI   361786.00   1.000   P
 SWJI   361790.60   1.000   P
 KMMI   361791.40   1.000   P
 WOJI   361796.80   1.000   P
 NGJI   361797.90   1.000   P
 JAGI   361801.10   1.000   S
 BLJI   361819.00   1.000   S
 BLJI   361835.70   1.000   S
 JAGI   388118.50   1.000   P
 GMJI   388122.10   1.000   P
 BYJI   388122.90   1.000   P
 BLJI   388128.40   1.000   P
 PWJI   388132.00   1.000   P
 PCJI   388136.70   1.000   P
 SWJI   388136.80   1.000   P
 KMMI   388138.00   1.000   P
 WOJI   388141.60   1.000   P
 JAGI   388148.00   1.000   S
 JAGI   420892.60   1.000   P
 GMJI   420894.90   1.000   P
 BYJI   420897.20   1.000   P
 BLJI   420903.60   1.000   P
 PWJI   420907.20   1.000   P
 WOJI   420918.10   1.000   P
 JAGI   420919.60   1.000   S
 CMJI   420945.20   1.000   P
 CGJI   420986.20   1.000   P
 JAGI   425813.40   1.000   P
 GMJI   425815.80   1.000   P
 BYJI   425817.20   1.000   P
 PWJI   425827.90   1.000   P
 JAGI   425842.00   1.000   S
 GMJI   434896.30   1.000   P
 JAGI   434901.80   1.000   P
 BLJI   434906.20   1.000   P
 PWJI   434907.30   1.000   P
 BYJI   434907.90   1.000   P
 GMJI   434908.70   1.000   S
 PCJI   434911.90   1.000   P
 JAGI   434916.90   1.000   S
 WOJI   434918.90   1.000   P
 JAGI   491992.70   1.000   P
 GMJI   491995.90   1.000   P
 BYJI   491996.20   1.000   P
 BLJI   492003.70   1.000   P
 PWJI   492007.60   1.000   P
 PCJI   492011.80   1.000   P
 SWJI   492012.00   1.000   P
 KMMI   492013.60   1.000   P
 WOJI   492016.80   1.000   P
 GRJI   492017.70   1.000   P
 NGJI   492017.90   1.000   P
 CMJI   492042.50   1.000   P
 KPJI   492043.10   1.000   P
 CGJI   492084.40   1.000   P
 JAGI   494244.20   1.000   P
 GMJI   494247.60   1.000   P
 BLJI   494255.30   1.000   P
 PWJI   494257.60   1.000   P
 PCJI   494263.60   1.000   P
 KMMI   494264.40   1.000   P
 SWJI   494264.90   1.000   P
 JAGI   494272.90   1.000   S
 KPJI   494294.60   1.000   P
 PWJI   494299.00   1.000   S
 JAGI   502254.10   1.000   P
 GMJI   502257.40   1.000   P
 PWJI   502269.00   1.000   P
 JAGI   621637.30   1.000   P
 GMJI   621639.20   1.000   P
 BYJI   621641.70   1.000   P
 BLJI   621647.60   1.000   P
 PWJI   621650.30   1.000   P
 PCJI   621655.40   1.000   P
 SWJI   621655.60   1.000   P
 KMMI   621656.80   1.000   P
 GRJI   621661.40   1.000   P
 WOJI   621661.90   1.000   P
 NGJI   621662.50   1.000   P
 JAGI   621665.60   1.000   S
 GMJI   621670.10   1.000   S
 KPJI   621686.40   1.000   P
 CMJI   621689.40   1.000   P
 CGJI   621728.50   1.000   P
 JAGI   625256.40   1.000   P
 GMJI   625258.40   1.000   P
 BYJI   625261.60   1.000   P
 BLJI   625267.20   1.000   P
 PWJI   625269.50   1.000   P
 SWJI   625274.00   1.000   P
 PCJI   625275.00   1.000   P
 KMMI   625276.30   1.000   P
 WOJI   625280.50   1.000   P
 GRJI   625280.90   1.000   P
 NGJI   625282.10   1.000   P
 JAGI   625287.80   1.000   S
 KPJI   625305.80   1.000   P
 CTJI   625305.80   1.000   P
 CMJI   625306.90   1.000   P
 PWJI   625309.60   1.000   S
 CGJI   625347.30   1.000   P
 JAGI   653409.70   1.000   P
 GMJI   653412.80   1.000   P
 BYJI   653414.60   1.000   P
 BLJI   653420.90   1.000   P
 PWJI   653424.30   1.000   P
 SWJI   653428.90   1.000   P
 KMMI   653430.60   1.000   P
 JAGI   653439.40   1.000   S
 KPJI   653459.70   1.000   P
 JAGI   747045.80   1.000   P
 GMJI   747048.40   1.000   P
 BLJI   747056.50   1.000   P
 PWJI   747060.00   1.000   P
 SWJI   747063.90   1.000   P
 WOJI   747071.30   1.000   P
 JAGI   747072.20   1.000   S
 GMJI   747077.30   1.000   S
 BLJI   747091.30   1.000   S
 PWJI   747098.10   1.000   S
 JAGI   792251.20   1.000   P
 BYJI   792254.50   1.000   P
 BLJI   792259.80   1.000   P
 JAGI   792276.60   1.000   S
 JAGI   818836.00   1.000   P
 GMJI   818839.90   1.000   P
 BYJI   818840.20   1.000   P
 BLJI   818846.70   1.000   P
 PWJI   818850.10   1.000   P
 SWJI   818855.50   1.000   P
 KMMI   818856.00   1.000   P
 WOJI   818862.40   1.000   P
 JAGI   818863.90   1.000   S
 GMJI   818870.00   1.000   S
 JAGI   821882.80   1.000   P
 GMJI   821886.10   1.000   P
 BYJI   821887.20   1.000   P
 BLJI   821893.70   1.000   P
 PWJI   821897.90   1.000   P
 WOJI   821908.90   1.000   P
 JAGI   821910.70   1.000   S
 GMJI   821916.60   1.000   S
 JAGI   903027.30   1.000   P
 GMJI   903029.60   1.000   P
 BYJI   903032.50   1.000   P
 BLJI   903038.10   1.000   P
 PWJI   903041.30   1.000   P
 SWJI   903044.70   1.000   P
 PCJI   903046.00   1.000   P
 KMMI   903048.00   1.000   P
 WOJI   903051.40   1.000   P
 KPJI   903075.80   1.000   P
 PWJI   903080.10   1.000   S
# 2012 09 26 01 15 24.5  -08.62    112.44    113.0  3.6   0.0   0.0   0.293       141
 PWJI       19.80   1.000   P
 SWJI       22.60   1.000   P
 GMJI       22.60   1.000   P
 PCJI       25.00   1.000   P
 BLJI       26.80   1.000   P
 WOJI       29.40   1.000   P
 JAGI       29.60   1.000   P
 PWJI       35.30   1.000   S
 SWJI       40.40   1.000   S
 BLJI       46.30   1.000   S
 JAGI    33450.90   1.000   P
 GMJI    33452.70   1.000   P
 BYJI    33454.70   1.000   P
 BLJI    33459.90   1.000   P
 PCJI    33466.00   1.000   P
 KMMI    33469.70   1.000   P
 WOJI    33471.40   1.000   P
 JAGI    33482.00   1.000   S
 CGJI    33539.00   1.000   P
# 2012 09 26 14 24 11.7  -07.93    112.87    119.0  2.5   0.0   0.0   0.254       142
 GMJI       20.30   1.000   P
 PWJI       22.70   1.000   P
 GRJI       23.00   1.000   P
 JAGI       26.40   1.000   P
 JAGI    13944.50   1.000   P
 GMJI    13948.00   1.000   P
 JAGI    13973.10   1.000   S
 GMJI    13978.20   1.000   S
 JAGI    14053.70   1.000   P
 GMJI    14056.90   1.000   P
 BYJI    14058.10   1.000   P
 BLJI    14065.20   1.000   P
 KMMI    14074.90   1.000   P
 JAGI    14082.40   1.000   S
 JAGI    18841.80   1.000   P
 GMJI    18844.70   1.000   P
 JAGI    18871.40   1.000   S
 JAGI   133427.80   1.000   P
 GMJI   133430.60   1.000   P
 BYJI   133432.50   1.000   P
 BLJI   133439.00   1.000   P
 PWJI   133441.50   1.000   P
 PCJI   133446.80   1.000   P
 SWJI   133446.90   1.000   P
 KMMI   133448.50   1.000   P
 GRJI   133453.10   1.000   P
 TBJI   133456.80   1.000   P
 JAGI   133457.30   1.000   S
 GMJI   133462.10   1.000   S
 BYJI   133465.10   1.000   S
 CMJI   133479.30   1.000   P
 KPJI   133479.40   1.000   P
 CGJI   133521.70   1.000   P
 JAGI   183402.60   1.000   P
 GMJI   183404.80   1.000   P
 BLJI   183411.10   1.000   P
 PWJI   183415.80   1.000   P
 KMMI   183419.70   1.000   P
 SWJI   183420.40   1.000   P
# 2012 09 29 07 58 05.9  -09.51    112.98     10.0  3.6   0.0   0.0   0.476       143
 GMJI       22.80   1.000   P
 JAGI       27.30   1.000   P
 PWJI       30.90   1.000   P
 BLJI       32.00   1.000   P
 BYJI       32.50   1.000   P
 SWJI       35.30   1.000   P
 PCJI       36.20   1.000   P
 GMJI       41.60   1.000   S
 NGJI       42.30   1.000   P
 WOJI       42.40   1.000   P
 KMMI       43.20   1.000   P
 JAGI       47.90   1.000   S
 KPJI       69.50   1.000   P
 JAGI -2440806.70   1.000   P
 GMJI -2440803.00   1.000   P
 PWJI -2440791.80   1.000   P
 JAGI -2440778.20   1.000   S
 PWJI -2440752.80   1.000   S
# 2012 10 01 04 34 10.4  -09.77    112.89     16.0  3.6   0.0   0.0   0.480       144
 GMJI       26.20   1.000   P
 JAGI       30.10   1.000   P
 PWJI       32.10   1.000   P
 BYJI       35.00   1.000   P
 BLJI       35.10   1.000   P
 SWJI       37.40   1.000   P
 PCJI       37.70   1.000   P
 WOJI       42.80   1.000   P
 PWJI       55.60   1.000   S
 PWJI       62.50   1.000   S
 JAGI    39199.60   1.000   P
 GMJI    39202.10   1.000   P
 BLJI    39210.30   1.000   P
 PWJI    39212.70   1.000   P
 PCJI    39217.10   1.000   P
 SWJI    39217.70   1.000   P
 KMMI    39219.80   1.000   P
 JAGI    39228.60   1.000   S
 BYJI    39237.70   1.000   P
 KPJI    39248.20   1.000   P
 PWJI    39251.80   1.000   S
 KMMI    39263.70   1.000   S
