# 2012 02 29 00 03 13.4  -09.28    112.51     54.0  4.2   0.0   0.0   0.891        46
 PWJI       23.30   1.000   P
 PCJI       27.20   1.000   P
 SWJI       27.20   1.000   P
 JAGI       28.00   1.000   P
 BLJI       29.70   1.000   P
 ABJI       36.00   1.000   P
 GRJI       36.80   1.000   P
 PWJI       39.80   1.000   S
 TBJI       40.00   1.000   P
 KMMI       40.90   1.000   P
 SMRI       46.10   1.000   P
 PCJI       47.10   1.000   S
 SWJI       48.40   1.000   S
 JAGI       50.10   1.000   S
 BLJI       51.80   1.000   S
 SCJI       54.80   1.000   P
 CMJI       61.90   1.000   P
 ABJI       63.30   1.000   S
 GRJI       63.80   1.000   S
 CGJI      103.60   1.000   P
# 2012 02 29 02 30 05.4  -09.52    112.83     62.0  3.1   0.0   0.0   0.338        47
 GMJI       22.50   1.000   P
 JAGI       26.30   1.000   P
 PWJI       27.10   1.000   P
 BLJI       30.10   1.000   P
 BYJI       31.40   1.000   P
 SWJI       32.00   1.000   P
 PCJI       32.60   1.000   P
 ABJI       33.90   1.000   P
 JAGI       47.80   1.000   S
 PCJI       57.90   1.000   S
 JAGI    12576.50   1.000   P
 GMJI    12580.10   1.000   P
 BYJI    12581.50   1.000   P
 ABJI    12588.90   1.000   P
 JAGI    12592.20   1.000   S
 PWJI    12597.40   1.000   P
 SWJI    12602.00   1.000   P
 BYJI    12603.50   1.000   S
 PCJI    12603.60   1.000   P
 ABJI    12614.40   1.000   S
 BLJI    12615.30   1.000   P
 PWJI    12630.20   1.000   S
 GMJI -2403774.50   1.000   P
 JAGI -2403773.90   1.000   P
 BLJI -2403764.50   1.000   P
 ABJI -2403762.30   1.000   P
 GMJI -2403760.70   1.000   S
 JAGI -2403759.80   1.000   S
 PWJI -2403759.30   1.000   P
 PCJI -2403752.30   1.000   P
 BLJI -2403745.30   1.000   S
 PWJI -2403733.70   1.000   S
 JAGI -2162544.70   1.000   P
 GMJI -2162541.90   1.000   P
 BLJI -2162531.50   1.000   P
 PWJI -2162526.90   1.000   P
 JAGI -2162526.30   1.000   S
 SWJI -2162521.10   1.000   P
 GMJI -2162519.40   1.000   S
 PWJI -2162493.80   1.000   S
# 2012 03 06 00 50 07.4  -09.40    110.39     10.0  3.6   0.0   0.0   0.255        48
 PWJI       31.40   1.000   P
 SCJI       34.90   1.000   P
 SWJI       35.50   1.000   P
 CMJI       40.90   1.000   P
 PWJI       54.70   1.000   S
 SWJI       63.60   1.000   S
 JAGI    17950.30   1.000   P
 GMJI    17954.70   1.000   P
 JAGI    17965.80   1.000   S
 GMJI    17974.20   1.000   S
# 2012 03 07 04 40 57.4  -08.72    111.46     29.0  3.7   0.0   0.0   0.777        49
 PCJI       11.60   1.000   P
 PWJI       14.10   1.000   P
 SWJI       18.50   1.000   P
 PWJI       20.90   1.000   S
 PCJI       21.80   1.000   S
 GMJI       30.60   1.000   P
 BLJI       36.40   1.000   P
 JAGI       40.00   1.000   P
 CTJI       41.90   1.000   P
 ABJI       43.90   1.000   P
 CMJI       47.40   1.000   P
 GMJI       55.70   1.000   S
 GMJI    12448.90   1.000   P
 JAGI    12455.00   1.000   P
 BLJI    12457.10   1.000   P
 PWJI    12458.80   1.000   P
 GMJI    12460.60   1.000   S
 PCJI    12465.90   1.000   P
 JAGI    12470.60   1.000   S
 PWJI    12476.10   1.000   S
 SWJI    12484.00   1.000   P
 BLJI    38182.80   1.000   P
 GMJI    38183.30   1.000   P
 ABJI    38183.80   1.000   P
 JAGI    38184.20   1.000   P
 KMMI    38184.40   1.000   P
 BYJI    38185.40   1.000   P
 GRJI    38189.10   1.000   P
 PWJI    38192.80   1.000   P
 PCJI    38199.50   1.000   P
 GMJI   154970.50   1.000   P
 BLJI   154971.70   1.000   P
 GMJI   154976.30   1.000   S
 JAGI   154981.20   1.000   P
 ABJI   154982.80   1.000   P
 BYJI   154984.50   1.000   P
 KMMI   154985.90   1.000   P
 GRJI   154990.20   1.000   P
 PWJI   154991.90   1.000   P
 SWJI   154994.40   1.000   P
 JAGI   154995.00   1.000   S
 PCJI   155001.60   1.000   P
 PWJI   155014.50   1.000   S
 GMJI   170576.30   1.000   P
 BLJI   170577.70   1.000   P
 ABJI   170588.10   1.000   P
 PWJI   170598.10   1.000   P
 KMMI   195543.30   1.000   P
 ABJI   195545.30   1.000   P
 GMJI   195548.40   1.000   P
 JAGI   195552.90   1.000   P
 GRJI   195560.50   1.000   P
 GMJI   195561.50   1.000   S
 SWJI   195568.40   1.000   P
 PWJI   195569.00   1.000   P
 PCJI   195577.10   1.000   P
 BLJI   212678.00   1.000   P
 GMJI   212678.40   1.000   P
 BLJI   212683.80   1.000   S
 GMJI   212685.40   1.000   S
 JAGI   212688.50   1.000   P
 KMMI   212692.60   1.000   P
 PWJI   212700.10   1.000   P
 SWJI   212701.60   1.000   P
 JAGI   212702.10   1.000   S
 PCJI   212708.20   1.000   P
 BLJI   212966.60   1.000   P
 GMJI   212967.60   1.000   P
 GMJI   212974.20   1.000   S
 JAGI   212977.80   1.000   P
 JAGI   212991.70   1.000   S
# 2012 03 09 16 41 17.1  -08.80    110.21     26.0  3.4   0.0   0.0   0.502        50
 PCJI       19.00   1.000   P
 SCJI       24.80   1.000   P
 PWJI       28.20   1.000   P
 SWJI       30.70   1.000   P
 CMJI       31.90   1.000   P
 CTJI       33.50   1.000   P
 PWJI       49.10   1.000   S
 GMJI       49.20   1.000   P
 SWJI       53.50   1.000   S
 BLJI     7008.20   1.000   P
 GMJI     7008.80   1.000   P
 BLJI     7012.70   1.000   S
 GMJI     7015.40   1.000   S
 JAGI     7019.10   1.000   P
 KMMI     7022.70   1.000   P
 JAGI     7031.50   1.000   S
 PWJI     7031.60   1.000   P
 SWJI     7031.80   1.000   P
# 2012 03 09 21 27 09.4  -09.24    112.94     68.0  4.7   0.0   0.0   1.348        51
 GMJI       18.40   1.000   P
 JAGI       23.20   1.000   P
 PWJI       26.50   1.000   P
 BLJI       26.80   1.000   P
 BYJI       28.60   1.000   P
 SWJI       30.00   1.000   P
 ABJI       31.30   1.000   P
 GMJI       32.00   1.000   S
 PCJI       32.00   1.000   P
 GRJI       37.00   1.000   P
 KMMI       37.50   1.000   P
 JAGI       39.70   1.000   S
 TBJI       41.10   1.000   P
 PWJI       46.00   1.000   S
 BLJI       47.30   1.000   S
 SMRI       50.00   1.000   P
 BYJI       50.50   1.000   S
 BWJI       51.00   1.000   P
 SWJI       54.90   1.000   S
 PCJI       55.60   1.000   S
 ABJI       56.20   1.000   S
 SCJI       59.60   1.000   P
 CTJI       64.00   1.000   P
 GRJI       64.60   1.000   S
 CMJI       67.40   1.000   P
 TBJI       71.10   1.000   S
 CGJI      110.00   1.000   P
 BLJI    47169.20   1.000   P
 GMJI    47171.20   1.000   P
 BLJI    47174.90   1.000   S
 ABJI    47175.30   1.000   P
 JAGI    47176.80   1.000   P
 GMJI    47177.80   1.000   S
 KMMI    47179.20   1.000   P
 GRJI    47186.60   1.000   P
 ABJI    47186.80   1.000   S
 JAGI    47187.80   1.000   S
 KMMI    47192.10   1.000   S
 JAGI    78789.90   1.000   P
 GMJI    78790.00   1.000   P
 BYJI    78794.80   1.000   P
 PWJI    78798.90   1.000   P
 BLJI    78799.00   1.000   P
 ABJI    78799.80   1.000   P
 PCJI    78802.60   1.000   P
 SWJI    78803.10   1.000   P
 KMMI    78809.20   1.000   P
 GRJI    78811.90   1.000   P
 SMRI    78821.30   1.000   P
 JAGI    78822.30   1.000   S
 GMJI    78824.30   1.000   S
 BYJI    78830.10   1.000   S
 CTJI    78833.50   1.000   P
 PWJI    78835.30   1.000   S
 BLJI    78837.50   1.000   S
 ABJI    78839.00   1.000   S
 PCJI    78844.60   1.000   S
 SWJI    78846.70   1.000   S
  LEM    78851.50   1.000   P
 KMMI    78855.90   1.000   S
 GRJI    78859.80   1.000   S
 SMRI    78877.40   1.000   S
 BWJI    78884.60   1.000   P
 SCJI    78887.50   1.000   P
 CTJI    78898.30   1.000   S
 JCJI    78919.60   1.000   P
  LEM    78931.30   1.000   S
 GMJI   147405.80   1.000   P
 JAGI   147406.60   1.000   P
 GMJI   147419.30   1.000   S
 JAGI   147420.60   1.000   S
 PWJI   147420.60   1.000   P
 PCJI   147428.00   1.000   P
 PWJI   147445.70   1.000   S
 JAGI   192031.60   1.000   P
 GMJI   192031.70   1.000   P
 BLJI   192039.50   1.000   P
 ABJI   192040.40   1.000   P
 PWJI   192041.50   1.000   P
 PCJI   192044.90   1.000   P
 SWJI   192045.80   1.000   P
 JAGI   192054.30   1.000   S
 GMJI   192054.90   1.000   S
 PWJI   192072.50   1.000   S
 SWJI   192079.70   1.000   S
# 2012 03 12 14 06 52.5  -07.96    111.68     10.0  2.1   0.0   0.0   0.356        52
 SWJI        5.80   1.000   P
 PWJI        7.10   1.000   P
 PWJI       11.30   1.000   S
 PCJI       11.80   1.000   P
 PCJI       19.30   1.000   S
 JAGI     7810.60   1.000   P
 GMJI     7813.80   1.000   P
 BYJI     7816.60   1.000   P
 ABJI     7822.60   1.000   P
 BLJI     7823.20   1.000   P
 JAGI     7826.90   1.000   S
 PWJI     7830.70   1.000   P
 KMMI     7832.50   1.000   P
 GMJI     7832.80   1.000   S
 SWJI     7834.30   1.000   P
 GRJI     7837.90   1.000   P
 PWJI     7861.60   1.000   S
 JAGI     8346.60   1.000   P
 BYJI     8352.60   1.000   P
 BLJI     8359.00   1.000   P
 ABJI     8359.10   1.000   P
 JAGI     8363.20   1.000   S
 PWJI     8366.10   1.000   P
 KMMI     8369.00   1.000   P
 GMJI     8369.20   1.000   P
 SWJI     8370.50   1.000   P
 PCJI     8373.50   1.000   P
 GRJI     8375.40   1.000   P
 BLJI     8382.80   1.000   S
 JAGI    30699.80   1.000   P
 GMJI    30703.10   1.000   P
 ABJI    30710.00   1.000   P
 PWJI    30715.80   1.000   P
 JAGI    30726.90   1.000   S
 GMJI    30732.10   1.000   S
# 2012 03 16 14 50 39.6  -09.12    112.48     60.0  3.6   0.0   0.0   0.475        53
 PWJI       20.70   1.000   P
 GMJI       21.60   1.000   P
 SWJI       24.60   1.000   P
 PCJI       25.30   1.000   P
 BLJI       28.60   1.000   P
 JAGI       28.80   1.000   P
 GMJI       38.30   1.000   S
 BLJI       50.10   1.000   S
 JAGI       50.10   1.000   S
 GMJI   103900.50   1.000   P
 JAGI   103904.90   1.000   P
 GMJI   103912.10   1.000   S
 PWJI   103912.20   1.000   P
 ABJI   103913.00   1.000   P
 SWJI   103916.10   1.000   P
 JAGI   103919.70   1.000   S
 PWJI   103932.60   1.000   S
 SWJI   103940.80   1.000   S
# 2012 03 19 02 19 37.5  -08.03    110.43     10.0  4.2   0.0   0.0   0.948        54
 PCJI       14.40   1.000   P
 SMRI       18.90   1.000   P
 SCJI       22.40   1.000   P
 PWJI       24.00   1.000   P
 SWJI       24.30   1.000   P
 PCJI       24.80   1.000   S
 CTJI       28.50   1.000   P
 TBJI       31.70   1.000   P
 CMJI       32.00   1.000   P
 SMRI       32.80   1.000   S
 GRJI       37.60   1.000   P
 PWJI       41.20   1.000   S
 GMJI       48.00   1.000   P
  LEM       49.40   1.000   P
 CTJI       50.20   1.000   S
 BLJI       50.50   1.000   P
 TBJI       55.80   1.000   S
 ABJI       58.40   1.000   P
 JAGI       58.70   1.000   P
 GRJI       67.00   1.000   S
 GMJI       86.40   1.000   S
 JAGI      101.20   1.000   S
# 2012 03 21 06 02 41.1  -09.08    112.73     10.0  3.4   0.0   0.0   0.697        55
 GMJI       19.40   1.000   P
 PWJI       23.80   1.000   P
 JAGI       25.60   1.000   P
 SWJI       28.00   1.000   P
 BLJI       28.20   1.000   P
 PCJI       30.10   1.000   P
 ABJI       34.10   1.000   P
 GMJI       35.00   1.000   S
 PWJI       41.10   1.000   S
 JAGI       47.90   1.000   S
 BLJI       48.70   1.000   S
 SWJI       51.00   1.000   S
 PCJI       53.90   1.000   S
 ABJI       58.70   1.000   S
# 2012 03 22 14 59 45.4  -09.51    112.77     21.0  3.8   0.0   0.0   0.966        56
 JAGI       28.00   1.000   P
 PWJI       28.20   1.000   P
 BLJI       31.70   1.000   P
 PCJI       32.60   1.000   P
 SWJI       32.80   1.000   P
 BYJI       33.40   1.000   P
 ABJI       35.90   1.000   P
 GRJI       42.10   1.000   P
 KMMI       42.30   1.000   P
 PWJI       49.00   1.000   S
 JAGI       49.30   1.000   S
 BLJI       54.60   1.000   S
 PCJI       58.10   1.000   S
 ABJI       66.30   1.000   S
# 2012 03 22 18 49 06.1  -07.77    112.96     11.0  2.7   0.0   0.0   0.597        57
 BLJI       12.60   1.000   P
 GRJI       18.10   1.000   P
 PWJI       21.20   1.000   P
 BLJI       21.60   1.000   S
 KMMI       21.90   1.000   P
 SWJI       22.50   1.000   P
 ABJI       23.20   1.000   P
 JAGI       24.20   1.000   P
 GRJI       32.20   1.000   S
 SWJI       38.00   1.000   S
 KMMI       39.40   1.000   S
 JAGI       43.50   1.000   S
# 2012 03 24 17 21 55.4  -08.41    111.03     15.0  3.2   0.0   0.0   0.600        58
 PCJI        6.50   1.000   P
 PCJI       11.00   1.000   S
 PWJI       15.30   1.000   P
 SWJI       18.00   1.000   P
 PWJI       26.30   1.000   S
 SWJI       31.40   1.000   S
 GRJI       34.40   1.000   P
 KPJI       37.60   1.000   P
 GMJI       38.20   1.000   P
 JAGI       48.60   1.000   P
 GRJI       61.10   1.000   S
 JAGI       84.60   1.000   S
 JAGI   133477.10   1.000   P
 GMJI   133477.60   1.000   P
 BLJI   133485.60   1.000   P
 PWJI   133491.90   1.000   P
 JAGI   133492.70   1.000   S
 GMJI   133493.00   1.000   S
 PCJI   133497.90   1.000   P
 BLJI   133506.30   1.000   S
 PWJI   133518.30   1.000   S
 PCJI   133527.00   1.000   S
# 2012 03 26 20 41 46.4  -10.97    111.87     10.0  4.1   0.0   0.0   0.840        59
 PCJI       44.50   1.000   P
 PWJI       45.90   1.000   P
 GMJI       49.30   1.000   P
 SWJI       50.90   1.000   P
 JAGI       52.70   1.000   P
 BLJI       57.70   1.000   P
 ABJI       61.40   1.000   P
 GRJI       63.30   1.000   P
 CMJI       68.90   1.000   P
 PCJI       80.20   1.000   S
 GMJI       86.30   1.000   S
 SWJI       90.70   1.000   S
 JAGI       92.80   1.000   S
 BLJI      100.40   1.000   S
 GRJI      111.30   1.000   S
# 2012 03 27 19 25 39.2  -08.69    112.42     51.0  3.1   0.0   0.0   0.589        60
 PWJI       15.80   1.000   P
 GMJI       18.90   1.000   P
 SWJI       19.70   1.000   P
 PCJI       21.30   1.000   P
 BLJI       24.00   1.000   P
 JAGI       27.10   1.000   P
 GRJI       27.30   1.000   P
 TBJI       29.60   1.000   P
 ABJI       31.40   1.000   P
 SWJI       35.20   1.000   S
 JAGI       48.70   1.000   S
 ABJI       57.10   1.000   S
# 2012 03 28 20 27 20.6  -09.42    110.46     25.0  3.0   0.0   0.0   0.394        61
 PCJI       22.90   1.000   P
 PWJI       29.80   1.000   P
 SWJI       34.00   1.000   P
 SCJI       34.30   1.000   P
 KPJI       40.10   1.000   P
 PCJI       41.90   1.000   S
 PWJI       52.30   1.000   S
 SWJI       60.30   1.000   S
 GMJI     9764.10   1.000   P
 JAGI     9764.80   1.000   P
 BYJI     9770.60   1.000   P
 BLJI     9773.50   1.000   P
 ABJI     9776.10   1.000   P
 GMJI     9777.40   1.000   S
 JAGI     9779.30   1.000   S
 PWJI     9779.30   1.000   P
 SWJI     9783.00   1.000   P
 KMMI     9784.20   1.000   P
 PCJI     9785.10   1.000   P
 GRJI     9787.90   1.000   P
 TBJI     9792.90   1.000   P
 ABJI     9795.80   1.000   S
 BWJI     9800.00   1.000   P
 PWJI     9802.70   1.000   S
 SCJI     9814.20   1.000   P
 CTJI     9817.90   1.000   P
 KPJI     9819.60   1.000   P
 CMJI     9821.60   1.000   P
  LEM     9838.10   1.000   P
 CNJI     9841.60   1.000   P
 SKJI     9851.60   1.000   P
 CGJI     9863.10   1.000   P
# 2012 03 29 15 57 06.5  -09.21    110.30     18.0  2.9   0.0   0.0   0.504        62
 PCJI       22.10   1.000   P
 PWJI       30.50   1.000   P
 SWJI       33.60   1.000   P
 PCJI       40.60   1.000   S
 PWJI       53.00   1.000   S
 SWJI       59.30   1.000   S
# 2012 03 31 03 06 12.5  -08.89    111.17     23.0  3.8   0.0   0.0   0.854        63
 PCJI       13.30   1.000   P
 PWJI       18.60   1.000   P
 SWJI       22.40   1.000   P
 PCJI       23.30   1.000   S
 PWJI       32.00   1.000   S
 TBJI       35.30   1.000   P
 GMJI       36.10   1.000   P
 SCJI       36.30   1.000   P
 GRJI       37.90   1.000   P
 SWJI       39.40   1.000   S
 BLJI       41.80   1.000   P
 KPJI       43.10   1.000   P
 CMJI       43.90   1.000   P
 JAGI       45.80   1.000   P
# 2012 03 31 03 46 40.5  -09.05    112.91     33.0  4.0   0.0   0.0   0.399        64
 GMJI       17.20   1.000   P
 JAGI       23.20   1.000   P
 PWJI       23.50   1.000   P
 BLJI       24.60   1.000   P
 SWJI       27.20   1.000   P
 GMJI       30.00   1.000   S
 PCJI       30.30   1.000   P
 GRJI       33.90   1.000   P
 JAGI       40.50   1.000   S
 PWJI       41.40   1.000   S
 BLJI       42.80   1.000   S
 CGJI      107.90   1.000   P
# 2012 04 02 12 48 22.4  -06.86    112.47     19.0  3.2   0.0   0.0   0.806        65
 GRJI        2.80   1.000   P
 TBJI       12.70   1.000   P
 BWJI       18.60   1.000   P
 SWJI       21.20   1.000   P
 TBJI       23.30   1.000   S
 KMMI       25.00   1.000   P
 BLJI       25.10   1.000   P
 PWJI       26.30   1.000   P
 PCJI       31.00   1.000   P
 BWJI       33.10   1.000   S
 SMRI       33.40   1.000   P
 JAGI       37.50   1.000   P
 KMMI       43.70   1.000   S
 BLJI   337049.30   1.000   P
 KMMI   337054.90   1.000   P
 JAGI   337055.50   1.000   P
 GMJI   337056.10   1.000   P
 BLJI   443116.70   1.000   P
 KMMI   443121.50   1.000   P
 BLJI   443121.60   1.000   S
 GMJI   443122.50   1.000   P
 JAGI   443123.10   1.000   P
 KMMI   443131.10   1.000   S
 GMJI   443133.50   1.000   S
 JAGI   443133.60   1.000   S
 ABJI   447026.00   1.000   P
 BLJI   447028.50   1.000   P
 ABJI   447030.00   1.000   S
 GMJI   447035.10   1.000   P
 JAGI   447035.20   1.000   P
# 2012 04 07 20 32 28.3  -09.11    110.52     43.0  4.4   0.0   0.0   0.662        66
 PCJI       19.20   1.000   P
 WOJI       22.10   1.000   P
 SWJI       29.30   1.000   P
 SCJI       30.50   1.000   P
 PCJI       33.20   1.000   S
 KPJI       36.90   1.000   P
 WOJI       37.80   1.000   S
 CTJI       37.90   1.000   P
 TBJI       40.50   1.000   P
 GRJI       44.20   1.000   P
 GMJI       45.10   1.000   P
 BLJI       50.20   1.000   P
 SWJI       51.60   1.000   S
 SCJI       53.40   1.000   S
 JAGI       53.90   1.000   P
 KMMI       58.30   1.000   P
 KPJI       65.40   1.000   S
 SKJI       65.80   1.000   P
 CTJI       68.00   1.000   S
 CGJI       77.80   1.000   P
 JAGI       94.80   1.000   S
 GMJI   294344.00   1.000   P
 JAGI   294347.60   1.000   P
 BLJI   294353.50   1.000   P
 GMJI   294358.00   1.000   S
 JAGI   294365.80   1.000   S
 JAGI   330594.30   1.000   P
 GMJI   330596.20   1.000   P
 BYJI   330600.40   1.000   P
 BLJI   330605.30   1.000   P
 PWJI   330607.50   1.000   P
 SWJI   330612.80   1.000   P
 PCJI   330614.90   1.000   P
 KMMI   330615.50   1.000   P
 GRJI   330618.60   1.000   P
 WOJI   330619.20   1.000   P
 BWJI   330632.80   1.000   P
 SCJI   330639.40   1.000   P
 CTJI   330643.80   1.000   P
 CMJI   330644.30   1.000   P
 KPJI   330644.50   1.000   P
 CGJI   330685.20   1.000   P
# 2012 04 11 20 51 20.5  -08.63    110.76     10.0  2.6   0.0   0.0   0.230        67
 PCJI       11.20   1.000   P
 PWJI       19.40   1.000   P
 SWJI       23.60   1.000   P
 PWJI       35.30   1.000   S
 SWJI       41.50   1.000   S
# 2012 04 12 12 41 36.3  -10.07    112.97    114.0  3.6   0.0   0.0   0.174        68
 GMJI       31.20   1.000   P
 JAGI       32.70   1.000   P
 PWJI       35.50   1.000   P
 BYJI       37.20   1.000   P
 BLJI       38.30   1.000   P
 PCJI       40.60   1.000   P
 SWJI       41.10   1.000   P
 GMJI       56.30   1.000   S
 KPJI       70.10   1.000   P
 PCJI       73.20   1.000   S
 WOJI       83.20   1.000   P
 GMJI    78075.60   1.000   P
 ABJI    78084.10   1.000   P
 JAGI    78084.20   1.000   P
 KMMI    78087.90   1.000   P
 GRJI    78093.40   1.000   P
 SWJI    78098.90   1.000   P
 PCJI    78106.20   1.000   P
 GRJI    78112.70   1.000   S
# 2012 04 13 14 47 22.9  -09.01    112.15     58.0  3.5   0.0   0.0   0.949        69
 PWJI       17.90   1.000   P
 PCJI       20.60   1.000   P
 SWJI       22.40   1.000   P
 GMJI       23.00   1.000   P
 WOJI       27.20   1.000   P
 BLJI       30.90   1.000   P
 PWJI       31.40   1.000   S
 JAGI       31.60   1.000   P
 GRJI       34.10   1.000   P
 PCJI       36.70   1.000   S
 WOJI       47.80   1.000   S
