# 2012 09 10 19 57 18.2  -09.50    112.99     17.0  3.7   0.0   0.0   0.933       136
 GMJI       22.70   1.000   P
 JAGI       26.10   1.000   P
 PWJI       29.50   1.000   P
 BYJI       31.00   1.000   P
 BLJI       31.90   1.000   P
 SWJI       33.70   1.000   P
 PCJI       34.50   1.000   P
 GMJI       39.90   1.000   S
 WOJI       40.30   1.000   P
 KMMI       42.00   1.000   P
 GRJI       43.00   1.000   P
 NGJI       43.50   1.000   P
 JAGI       45.10   1.000   S
 PWJI       52.30   1.000   S
 BLJI       54.60   1.000   S
 SWJI       61.70   1.000   S
 PCJI       63.20   1.000   S
 KPJI       69.30   1.000   P
 JAGI    12178.50   1.000   P
 GMJI    12180.80   1.000   P
 BYJI    12183.80   1.000   P
 JAGI    12187.00   1.000   S
 BLJI    12189.10   1.000   P
 GMJI    12191.10   1.000   S
 BYJI    12197.90   1.000   S
 PWJI    12201.40   1.000   P
 BLJI    12204.70   1.000   S
 SWJI    12204.70   1.000   P
 PCJI    12208.20   1.000   P
 WOJI    12213.10   1.000   P
 PWJI    12228.20   1.000   S
 JAGI    12635.40   1.000   P
 GMJI    12637.10   1.000   P
 PWJI    12647.90   1.000   P
 JAGI    12663.90   1.000   S
 GMJI    12667.70   1.000   S
 PWJI    12686.00   1.000   S
 JAGI    14450.70   1.000   P
 GMJI    14453.50   1.000   P
 PWJI    14464.10   1.000   P
 JAGI    14479.90   1.000   S
 GMJI    14485.00   1.000   S
 PWJI    14503.00   1.000   S
 JAGI    36416.60   1.000   P
 GMJI    36419.70   1.000   P
 BLJI    36428.70   1.000   P
 PWJI    36431.60   1.000   P
 PCJI    36436.60   1.000   P
 SWJI    36437.50   1.000   P
 KMMI    36437.90   1.000   P
 NGJI    36443.50   1.000   P
 WOJI    36443.80   1.000   P
 JAGI    36447.40   1.000   S
 JAGI    36460.80   1.000   S
 JAGI    42727.00   1.000   P
 GMJI    42730.00   1.000   P
 BYJI    42731.60   1.000   P
 BLJI    42737.90   1.000   P
 PWJI    42741.40   1.000   P
 SWJI    42746.10   1.000   P
 PCJI    42746.90   1.000   P
 KMMI    42747.60   1.000   P
 WOJI    42752.00   1.000   P
 GRJI    42752.40   1.000   P
 NGJI    42753.80   1.000   P
 JAGI    42756.20   1.000   S
 KPJI    42778.20   1.000   P
 CMJI    42779.40   1.000   P
 PWJI    42781.70   1.000   S
 JAGI    57072.50   1.000   P
 PWJI    57086.30   1.000   P
 PWJI    57125.60   1.000   S
 JAGI    65510.70   1.000   P
 GMJI    65512.40   1.000   P
 BYJI    65515.60   1.000   P
 BLJI    65521.50   1.000   P
 PWJI    65523.80   1.000   P
 SWJI    65528.40   1.000   P
 PCJI    65529.20   1.000   P
 KMMI    65529.80   1.000   P
 WOJI    65533.20   1.000   P
 GRJI    65535.40   1.000   P
 JAGI    65539.70   1.000   S
 BYJI    65547.80   1.000   S
 BLJI    65558.80   1.000   S
 KPJI    65559.50   1.000   P
 CMJI    65559.50   1.000   P
 PWJI    65562.80   1.000   S
 SWJI    65572.90   1.000   S
 KMMI    65574.10   1.000   S
 GRJI    65582.40   1.000   S
 CGJI    65601.10   1.000   P
 JAGI    66296.90   1.000   P
 GMJI    66298.90   1.000   P
 BYJI    66301.90   1.000   P
 BLJI    66307.70   1.000   P
 PWJI    66310.40   1.000   P
 PCJI    66313.90   1.000   P
 SWJI    66314.60   1.000   P
 KMMI    66317.10   1.000   P
 WOJI    66319.50   1.000   P
 GRJI    66321.60   1.000   P
 NGJI    66323.70   1.000   P
 TBJI    66325.30   1.000   P
 JAGI    66327.10   1.000   S
 SMRI    66334.20   1.000   P
 BYJI    66335.80   1.000   S
 KPJI    66343.00   1.000   P
 BLJI    66344.00   1.000   S
 CMJI    66345.60   1.000   P
 CTJI    66347.30   1.000   P
 PWJI    66350.30   1.000   S
 PCJI    66355.60   1.000   S
 SWJI    66357.90   1.000   S
 KMMI    66360.60   1.000   S
  LEM    66365.00   1.000   P
 WOJI    66365.80   1.000   S
 GRJI    66368.50   1.000   S
 TBJI    66377.00   1.000   S
 SBJI    66386.30   1.000   P
 CGJI    66388.50   1.000   P
 JAGI    66684.00   1.000   P
 GMJI    66686.70   1.000   P
 BYJI    66688.70   1.000   P
 PWJI    66697.20   1.000   P
 SWJI    66702.60   1.000   P
 PCJI    66703.30   1.000   P
 WOJI    66708.70   1.000   P
 GMJI    66716.70   1.000   S
 PWJI    66736.60   1.000   S
 PCJI    66744.40   1.000   S
 JAGI    66928.20   1.000   P
 GMJI    66930.30   1.000   P
 BYJI    66932.80   1.000   P
 BLJI    66939.40   1.000   P
 PWJI    66941.30   1.000   P
 PCJI    66945.80   1.000   P
 SWJI    66947.00   1.000   P
 KMMI    66949.10   1.000   P
 WOJI    66952.10   1.000   P
 GRJI    66953.00   1.000   P
 GMJI    66962.50   1.000   S
 BYJI    66966.20   1.000   S
 BLJI    66976.80   1.000   S
 PWJI    66980.80   1.000   S
 KMMI    66992.90   1.000   S
 GRJI    67000.20   1.000   S
 JAGI    68347.90   1.000   P
 GMJI    68350.60   1.000   P
 BYJI    68352.00   1.000   P
 PWJI    68363.10   1.000   P
 JAGI    68377.40   1.000   S
 PWJI    68402.20   1.000   S
 JAGI    68860.80   1.000   P
 GMJI    68864.30   1.000   P
 PWJI    68875.50   1.000   P
 JAGI    68890.20   1.000   S
 PWJI    68914.60   1.000   S
 JAGI    68995.70   1.000   P
 GMJI    68998.50   1.000   P
 PWJI    69009.80   1.000   P
 PWJI    69048.90   1.000   S
 JAGI    69117.60   1.000   P
 GMJI    69120.60   1.000   P
 PWJI    69131.20   1.000   P
 SWJI    69137.10   1.000   P
 WOJI    69142.50   1.000   P
 JAGI    69147.80   1.000   S
 PWJI    69170.50   1.000   S
 SWJI    69179.60   1.000   S
 JAGI    88260.90   1.000   P
 GMJI    88263.50   1.000   P
 BYJI    88264.00   1.000   P
 BLJI    88271.80   1.000   P
 PWJI    88275.50   1.000   P
 SWJI    88279.60   1.000   P
 PCJI    88281.40   1.000   P
 JAGI    88288.00   1.000   S
 GMJI    88293.40   1.000   S
 BLJI    88308.20   1.000   S
 PWJI    88314.60   1.000   S
 JAGI    91518.00   1.000   P
 GMJI    91520.30   1.000   P
 BLJI    91528.70   1.000   P
 PWJI    91532.30   1.000   P
 JAGI    91545.00   1.000   S
 GMJI    91549.20   1.000   S
 BLJI    91563.20   1.000   S
 PWJI    91570.90   1.000   S
 JAGI   112133.20   1.000   P
 GMJI   112136.10   1.000   P
 BYJI   112137.90   1.000   P
 BLJI   112144.10   1.000   P
 PWJI   112147.30   1.000   P
 PCJI   112151.90   1.000   P
 KMMI   112152.80   1.000   P
 SWJI   112153.50   1.000   P
 WOJI   112156.80   1.000   P
 BLJI   112180.10   1.000   S
 PWJI   112186.30   1.000   S
 SWJI   112195.40   1.000   S
 JAGI   146032.40   1.000   P
 GMJI   146035.90   1.000   P
 BLJI   146042.60   1.000   P
 PWJI   146046.20   1.000   P
 SWJI   146051.90   1.000   P
 PCJI   146052.00   1.000   P
 JAGI   146061.10   1.000   S
 GMJI   146065.20   1.000   S
 JAGI   168806.60   1.000   P
 GMJI   168807.90   1.000   P
 BLJI   168816.20   1.000   P
 PWJI   168818.60   1.000   P
 SWJI   168823.70   1.000   P
 PCJI   168824.40   1.000   P
 JAGI   174963.80   1.000   P
 GMJI   174966.60   1.000   P
 BLJI   174974.20   1.000   P
 PWJI   174977.90   1.000   P
 SWJI   174982.10   1.000   P
 PCJI   174982.70   1.000   P
 KMMI   174984.20   1.000   P
 WOJI   174989.00   1.000   P
 PWJI   175016.10   1.000   S
 JAGI   193430.50   1.000   P
 GMJI   193433.40   1.000   P
 BYJI   193434.40   1.000   P
 BLJI   193440.80   1.000   P
 PWJI   193445.50   1.000   P
 KMMI   193450.60   1.000   P
 SWJI   193450.90   1.000   P
 WOJI   193456.40   1.000   P
 JAGI   193457.90   1.000   S
 GMJI   193463.80   1.000   S
 BYJI   193464.90   1.000   S
 JAGI   206300.90   1.000   P
 BYJI   206305.20   1.000   P
 GMJI   206305.20   1.000   P
 BLJI   206311.40   1.000   P
 PWJI   206314.90   1.000   P
 SWJI   206319.20   1.000   P
 KMMI   206320.60   1.000   P
 PCJI   206320.60   1.000   P
 NGJI   206327.90   1.000   P
 WOJI   206327.90   1.000   P
 JAGI   206330.00   1.000   S
 KPJI   206352.20   1.000   P
 JAGI   206301.50   1.000   P
 GMJI   206304.70   1.000   P
 BYJI   206306.60   1.000   P
 BLJI   206313.20   1.000   P
 PWJI   206316.30   1.000   P
 JAGI   206330.10   1.000   S
 GMJI   206334.20   1.000   S
 BLJI   206347.00   1.000   S
 PWJI   206355.20   1.000   S
 WOJI   206371.40   1.000   P
 JAGI   210370.40   1.000   P
 GMJI   210372.80   1.000   P
 BLJI   210380.80   1.000   P
 PWJI   210384.70   1.000   P
 WOJI   210395.60   1.000   P
 JAGI   210401.00   1.000   S
 GMJI   210406.80   1.000   S
 BLJI   210419.10   1.000   S
 JAGI   221007.80   1.000   P
 GMJI   221010.60   1.000   P
 BLJI   221019.10   1.000   P
 JAGI   221037.90   1.000   S
 BLJI   221056.50   1.000   S
 JAGI   234094.40   1.000   P
 GMJI   234096.80   1.000   P
 BLJI   234104.90   1.000   P
 PWJI   234106.90   1.000   P
 SWJI   234111.60   1.000   P
 PCJI   234111.90   1.000   P
 SWJI   234155.20   1.000   S
 BLJI   252196.60   1.000   P
 PCJI   252204.30   1.000   P
 SWJI   252204.80   1.000   P
 WOJI   252210.60   1.000   P
 JAGI   252217.40   1.000   P
 PWJI   252238.80   1.000   P
 JAGI   272604.20   1.000   P
 GMJI   272606.10   1.000   P
 BYJI   272609.30   1.000   P
 BLJI   272614.70   1.000   P
 PWJI   272616.90   1.000   P
 SWJI   272621.00   1.000   P
 PCJI   272621.20   1.000   P
 KMMI   272625.20   1.000   P
 WOJI   272625.80   1.000   P
 GRJI   272628.30   1.000   P
 NGJI   272629.30   1.000   P
 JAGI   272633.40   1.000   S
 SMRI   272641.50   1.000   P
 BYJI   272643.10   1.000   S
 KPJI   272652.50   1.000   P
 CMJI   272653.00   1.000   P
 CTJI   272653.30   1.000   P
 PWJI   272655.20   1.000   S
 SKJI   272681.60   1.000   P
 CGJI   272693.80   1.000   P
 SBJI   272693.90   1.000   P
 JAGI   275012.10   1.000   P
 GMJI   275014.70   1.000   P
 BLJI   275023.60   1.000   P
 PWJI   275025.60   1.000   P
 SWJI   275031.40   1.000   P
 WOJI   275036.90   1.000   P
 JAGI   275041.00   1.000   S
 GMJI   275045.30   1.000   S
 JAGI   280344.20   1.000   P
 GMJI   280347.10   1.000   P
 PWJI   280359.00   1.000   P
 PCJI   280364.10   1.000   P
 JAGI   282896.60   1.000   P
 GMJI   282899.20   1.000   P
 PWJI   282910.50   1.000   P
 PCJI   282916.50   1.000   P
 JAGI   282924.80   1.000   S
 GMJI   282931.10   1.000   S
 JAGI   284514.50   1.000   P
 GMJI   284517.10   1.000   P
 BYJI   284518.40   1.000   P
 BLJI   284524.10   1.000   P
 PWJI   284527.70   1.000   P
 JAGI   284542.60   1.000   S
 GRJI   291190.00   1.000   P
 BLJI   291192.00   1.000   P
 KMMI   291193.30   1.000   P
 GMJI   291198.80   1.000   P
 GRJI   291198.90   1.000   S
 TBJI   291200.60   1.000   P
 SWJI   291202.70   1.000   P
 PWJI   291204.50   1.000   P
 JAGI   291206.10   1.000   P
 PCJI   291212.80   1.000   P
 GMJI   291214.60   1.000   S
# 2012 09 14 06 50 21.2  -09.08    110.38     29.0  3.0   0.0   0.0   0.915       137
 PCJI       19.30   1.000   P
 WOJI       21.70   1.000   P
 PWJI       28.00   1.000   P
 SWJI       30.90   1.000   P
 KPJI       35.90   1.000   P
 PCJI       37.70   1.000   S
 WOJI       40.40   1.000   S
 SWJI       53.20   1.000   S
 JAGI    21053.20   1.000   P
 GMJI    21055.40   1.000   P
 BYJI    21058.50   1.000   P
 BLJI    21063.60   1.000   P
 PWJI    21066.30   1.000   P
 SWJI    21070.70   1.000   P
 PCJI    21071.40   1.000   P
 KMMI    21073.50   1.000   P
 WOJI    21077.00   1.000   P
 GRJI    21077.70   1.000   P
 JAGI    21084.10   1.000   S
 JAGI    21092.30   1.000   S
 KPJI    21103.40   1.000   P
 JAGI    68849.80   1.000   P
 GMJI    68851.40   1.000   P
 BYJI    68854.50   1.000   P
 BLJI    68860.60   1.000   P
 PWJI    68862.60   1.000   P
 PCJI    68867.50   1.000   P
 SWJI    68867.70   1.000   P
 KMMI    68869.60   1.000   P
 GRJI    68873.50   1.000   P
 NGJI    68873.80   1.000   P
 WOJI    68873.80   1.000   P
 TBJI    68878.20   1.000   P
 JAGI    68878.70   1.000   S
 GMJI    68882.30   1.000   S
 KPJI    68899.20   1.000   P
 JAGI    69322.60   1.000   P
 GMJI    69325.20   1.000   P
 BYJI    69327.90   1.000   P
 BLJI    69333.40   1.000   P
 PWJI    69335.50   1.000   P
 PCJI    69339.70   1.000   P
 SWJI    69340.80   1.000   P
 KMMI    69343.10   1.000   P
 WOJI    69347.30   1.000   P
 JAGI    69352.60   1.000   S
 KPJI    69370.90   1.000   P
 CMJI    69372.60   1.000   P
 JAGI    69516.20   1.000   P
 GMJI    69517.60   1.000   P
 BYJI    69519.40   1.000   P
 BLJI    69524.40   1.000   P
 PWJI    69527.80   1.000   P
 SWJI    69532.30   1.000   P
 PCJI    69533.70   1.000   P
 KPJI    69564.20   1.000   P
# 2012 09 15 06 42 47.2  -09.01    110.38     10.0  3.7   0.0   0.0   0.487       138
 PCJI       20.00   1.000   P
 WOJI       23.70   1.000   P
 PWJI       28.60   1.000   P
 SWJI       31.70   1.000   P
 SMRI       33.30   1.000   P
 NGJI       33.40   1.000   P
 KPJI       37.20   1.000   P
 CTJI       38.90   1.000   P
 GMJI       49.50   1.000   P
 JAGI       58.60   1.000   P
# 2012 09 15 06 57 30.8  -08.99    110.32     10.0  3.8   0.0   0.0   0.856       139
 PCJI       20.20   1.000   P
 WOJI       23.40   1.000   P
 PWJI       29.00   1.000   P
 SWJI       32.20   1.000   P
 SMRI       33.20   1.000   P
 CMJI       35.00   1.000   P
 KPJI       36.50   1.000   P
 CTJI       39.40   1.000   P
 GMJI       50.40   1.000   P
 BLJI       55.00   1.000   P
 JAGI       59.60   1.000   P
 JAGI      189.50   1.000   P
 GMJI      192.40   1.000   P
 BLJI      201.30   1.000   P
 PWJI      202.30   1.000   P
 SWJI      207.20   1.000   P
 PCJI      207.30   1.000   P
 JAGI     7565.40   1.000   P
 GMJI     7568.10   1.000   P
 BLJI     7576.10   1.000   P
 PWJI     7578.50   1.000   P
 SWJI     7582.80   1.000   P
 PCJI     7583.00   1.000   P
 WOJI     7588.30   1.000   P
 KPJI     7614.50   1.000   P
 JAGI     7564.90   1.000   P
 GMJI     7567.70   1.000   P
 BYJI     7569.10   1.000   P
 BLJI     7572.50   1.000   P
 PWJI     7578.10   1.000   P
 KMMI     7582.50   1.000   P
 SWJI     7583.50   1.000   P
 PCJI     7584.50   1.000   P
 GRJI     7587.90   1.000   P
 WOJI     7588.20   1.000   P
 JAGI     7591.90   1.000   S
 GMJI     7595.70   1.000   S
 KPJI     7614.50   1.000   P
 CMJI     7615.20   1.000   P
