# 2012 04 14 17 11 44.5  -10.59    112.49     15.0  4.5   0.0   0.0   1.131        70
 GMJI       40.40   1.000   P
 PWJI       41.40   1.000   P
 PCJI       41.80   1.000   P
 JAGI       43.20   1.000   P
 SWJI       45.30   1.000   P
 WOJI       48.40   1.000   P
 BLJI       49.50   1.000   P
 GMJI       69.90   1.000   S
 KPJI       71.70   1.000   P
 PCJI       74.70   1.000   S
 JAGI       74.80   1.000   S
 BLJI       84.90   1.000   S
 WOJI       86.40   1.000   S
 CBJI       99.70   1.000   P
 GRJI      101.40   1.000   P
 CTJI      127.00   1.000   P
 KPJI      127.50   1.000   S
 KMMI    15159.90   1.000   P
 BLJI    15165.70   1.000   P
 KMMI    15166.20   1.000   S
 GMJI    15174.60   1.000   P
 GRJI    15175.00   1.000   P
 BLJI    15175.80   1.000   S
 BYJI    15178.40   1.000   P
 JAGI    15179.10   1.000   P
 BWJI    15182.40   1.000   P
 TBJI    15185.40   1.000   P
 SWJI    15186.90   1.000   P
 PWJI    15187.80   1.000   P
 GMJI    15191.40   1.000   S
 GRJI    15192.10   1.000   S
 PCJI    15197.00   1.000   P
 JAGI    15198.70   1.000   S
 BWJI    15204.40   1.000   S
 TBJI    15210.30   1.000   S
 SWJI    15214.50   1.000   S
 PCJI    15231.30   1.000   S
 KMMI    19546.20   1.000   P
 BLJI    19552.10   1.000   P
 GMJI    19561.10   1.000   P
 GRJI    19561.10   1.000   P
 BLJI    19562.40   1.000   S
 BYJI    19564.60   1.000   P
 JAGI    19565.10   1.000   P
 BWJI    19569.00   1.000   P
 SWJI    19571.50   1.000   P
 PWJI    19574.20   1.000   P
 GMJI    19577.60   1.000   S
 GRJI    19578.90   1.000   S
 BYJI    19584.20   1.000   S
 JAGI    19585.20   1.000   S
 BWJI    19590.50   1.000   S
# 2012 04 15 00 48 26.7  -09.00    111.72     59.0  3.1   0.0   0.0   0.942        71
 PCJI       16.70   1.000   P
 PWJI       17.00   1.000   P
 SWJI       21.50   1.000   P
 WOJI       23.70   1.000   P
 PCJI       29.10   1.000   S
 PWJI       29.30   1.000   S
 GMJI       30.40   1.000   P
 JAGI       37.40   1.000   P
 SWJI       38.80   1.000   S
 WOJI       41.60   1.000   S
 GMJI       51.30   1.000   S
# 2012 04 17 15 08 37.6  -08.77    112.83    118.0  4.1   0.0   0.0   0.473        72
 GMJI       20.60   1.000   P
 PWJI       24.70   1.000   P
 JAGI       26.10   1.000   P
 SWJI       27.20   1.000   P
 PCJI       30.40   1.000   P
 GRJI       31.50   1.000   P
 KMMI       34.30   1.000   P
 WOJI       35.00   1.000   P
 TBJI       35.60   1.000   P
 GMJI       35.80   1.000   S
 SMRI       45.20   1.000   P
 SCJI       56.60   1.000   P
 KPJI       60.90   1.000   P
 JAGI    13039.70   1.000   P
 GMJI    13042.10   1.000   P
 PWJI    13051.10   1.000   P
 SWJI    13056.00   1.000   P
 JAGI    13069.30   1.000   S
# 2012 04 18 20 02 27.1  -08.96    110.00     10.0  3.3   0.0   0.0   0.572        73
 WOJI       25.50   1.000   P
 SMRI       32.50   1.000   P
 PWJI       33.20   1.000   P
 SWJI       36.20   1.000   P
 WOJI       44.00   1.000   S
 PWJI       58.10   1.000   S
 SMRI       59.40   1.000   S
 SWJI       63.40   1.000   S
# 2012 04 18 20 23 58.8  -08.07    112.26    167.0  3.6   0.0   0.0   0.625        74
 PWJI       23.90   1.000   P
 SWJI       24.70   1.000   P
 PCJI       28.00   1.000   P
 GRJI       28.10   1.000   P
 GMJI       28.70   1.000   P
 TBJI       29.00   1.000   P
 WOJI       29.90   1.000   P
 JAGI       35.50   1.000   P
 KMMI       36.30   1.000   P
 SMRI       37.10   1.000   P
 PWJI       42.00   1.000   S
 SWJI       44.00   1.000   S
 SCJI       48.90   1.000   P
 PCJI       49.20   1.000   S
 GRJI       49.80   1.000   S
 CTJI       50.80   1.000   P
 TBJI       51.80   1.000   S
 KPJI       53.00   1.000   P
 JAGI   177716.70   1.000   P
 GMJI   177717.80   1.000   P
 ABJI   177728.10   1.000   P
 PWJI   177729.10   1.000   P
 PCJI   177732.40   1.000   P
 SWJI   177733.70   1.000   P
 WOJI   177739.20   1.000   P
 GRJI   177740.30   1.000   P
 TBJI   177744.60   1.000   P
 SMRI   177753.50   1.000   P
 BWJI   177753.50   1.000   P
 CTJI   177767.00   1.000   P
  LEM   177786.00   1.000   P
 CGJI   177808.80   1.000   P
# 2012 04 22 22 55 14.7  -09.50    112.95     12.0  3.7   0.0   0.0   0.472        75
 GMJI       23.30   1.000   P
 JAGI       26.50   1.000   P
 PWJI       29.10   1.000   P
 BLJI       31.30   1.000   P
 BYJI       31.30   1.000   P
 SWJI       34.30   1.000   P
 PCJI       35.50   1.000   P
 WOJI       40.70   1.000   P
 NGJI       41.10   1.000   P
 GRJI       41.80   1.000   P
 BLJI       54.80   1.000   S
# 2012 04 26 16 57 08.1  -09.46    112.88     10.0  3.4   0.0   0.0   1.085        76
 GMJI       23.10   1.000   P
 JAGI       27.50   1.000   P
 PWJI       29.20   1.000   P
 BLJI       33.00   1.000   P
 PCJI       33.60   1.000   P
 SWJI       34.30   1.000   P
 NGJI       43.20   1.000   P
 GRJI       43.30   1.000   P
 JAGI       48.30   1.000   S
 PWJI       50.90   1.000   S
# 2012 04 27 04 02 37.3  -07.87    110.59     11.0  2.0   0.0   0.0   0.389        77
 WOJI        8.20   1.000   P
 WOJI       12.80   1.000   S
 PCJI       13.70   1.000   P
 PWJI       23.10   1.000   P
 PCJI       23.60   1.000   S
 PWJI       39.40   1.000   S
# 2012 05 01 06 36 43.7  -08.36    111.90    113.0  2.8   0.0   0.0   0.830        78
 PWJI       17.70   1.000   P
 SWJI       18.50   1.000   P
 PCJI       20.60   1.000   P
 WOJI       23.60   1.000   P
 PWJI       29.70   1.000   S
 SWJI       33.50   1.000   S
 PCJI       34.10   1.000   S
 JAGI       35.90   1.000   P
 WOJI       39.50   1.000   S
 JAGI       63.20   1.000   S
 GMJI   134401.10   1.000   P
 JAGI   134401.50   1.000   P
 BLJI   134409.50   1.000   P
 GMJI   134414.80   1.000   S
 JAGI   134415.50   1.000   S
 PWJI   134415.90   1.000   P
 SWJI   134419.60   1.000   P
 PCJI   134423.50   1.000   P
 WOJI   134428.30   1.000   P
 TBJI   134429.20   1.000   P
 PWJI   134441.40   1.000   S
# 2012 05 07 05 07 36.4  -08.37    112.21     94.0  2.5   0.0   0.0   0.591        79
 PWJI       16.30   1.000   P
 SWJI       19.00   1.000   P
 PCJI       21.10   1.000   P
 PWJI       29.00   1.000   S
 PCJI       35.30   1.000   S
# 2012 05 07 09 39 18.8  -08.35    112.66     93.0  3.5   0.0   0.0   0.503        80
 GMJI       17.90   1.000   P
 PWJI       19.20   1.000   P
 SWJI       21.20   1.000   P
 BLJI       21.60   1.000   P
 GRJI       24.70   1.000   P
 PCJI       25.90   1.000   P
 JAGI       26.20   1.000   P
 NGJI       26.70   1.000   P
 ABJI       28.00   1.000   P
 BYJI       29.20   1.000   P
 WOJI       29.80   1.000   P
 CTJI       55.00   1.000   P
 KPJI       56.90   1.000   P
 GMJI    61540.10   1.000   P
 JAGI    61541.00   1.000   P
 PWJI    61546.50   1.000   P
 PCJI    61548.20   1.000   P
 BLJI    61549.20   1.000   P
 WOJI    61555.10   1.000   P
 GMJI    61568.10   1.000   S
 JAGI    61568.70   1.000   S
 PWJI    61578.70   1.000   S
 WOJI    61593.10   1.000   S
# 2012 05 08 06 22 32.9  -09.21    112.39     61.0  3.7   0.0   0.0   0.954        81
 PWJI       21.80   1.000   P
 GMJI       22.60   1.000   P
 PCJI       25.20   1.000   P
 SWJI       27.70   1.000   P
 JAGI       29.20   1.000   P
 BLJI       30.60   1.000   P
 WOJI       30.90   1.000   P
 PWJI       38.30   1.000   S
 GMJI       39.70   1.000   S
 PCJI       44.20   1.000   S
 SWJI       46.30   1.000   S
 BLJI       53.60   1.000   S
 WOJI       55.50   1.000   S
 CMJI       60.20   1.000   P
# 2012 05 08 09 05 55.5  -08.17    111.46     10.0  3.0   0.0   0.0   0.644        82
 PCJI        6.10   1.000   P
 PWJI        7.30   1.000   P
 PCJI       10.20   1.000   S
 SWJI       10.30   1.000   P
 PWJI       12.00   1.000   S
 WOJI       20.90   1.000   P
 GMJI       34.00   1.000   P
 GMJI       59.70   1.000   S
# 2012 05 08 16 23 43.4  -07.46    111.81    224.0  3.6   0.0   0.0   0.706        83
 SWJI       30.00   1.000   P
 TBJI       30.30   1.000   P
 PWJI       30.40   1.000   P
 NGJI       30.80   1.000   P
 GRJI       31.40   1.000   P
 WOJI       32.20   1.000   P
 PCJI       32.70   1.000   P
 SMRI       34.80   1.000   P
 BLJI       39.00   1.000   P
 GMJI       39.20   1.000   P
 JAGI       46.10   1.000   P
 BYJI       46.80   1.000   P
 SCJI       47.30   1.000   P
 KPJI       50.50   1.000   P
 SWJI       52.70   1.000   S
 NGJI       53.80   1.000   S
 CMJI       54.00   1.000   P
 PWJI       55.40   1.000   S
 TBJI       56.20   1.000   S
 GRJI       57.50   1.000   S
 PCJI       58.90   1.000   S
 JAGI       83.10   1.000   S
 CGJI       88.80   1.000   P
 JAGI   197528.90   1.000   P
 GMJI   197531.10   1.000   P
 BYJI   197533.00   1.000   P
 PWJI   197541.10   1.000   P
 SWJI   197547.00   1.000   P
 JAGI   197558.90   1.000   S
 GMJI   197563.20   1.000   S
 PWJI   197581.50   1.000   S
 SWJI   197592.00   1.000   S
 GMJI   229050.80   1.000   P
 GMJI   229054.00   1.000   S
 BLJI   229060.00   1.000   P
 JAGI   229063.10   1.000   P
 BYJI   229066.30   1.000   P
 BLJI   229069.30   1.000   S
 PWJI   229073.00   1.000   P
 JAGI   229074.80   1.000   S
 SWJI   229075.50   1.000   P
 GRJI   229075.60   1.000   P
 PCJI   229081.80   1.000   P
 PWJI   229091.70   1.000   S
 GRJI   229097.30   1.000   S
 PCJI   229108.60   1.000   S
 GMJI   422359.60   1.000   P
 JAGI   422359.60   1.000   P
 BLJI   422369.00   1.000   P
 JAGI   422387.70   1.000   S
 GMJI   422389.00   1.000   S
# 2012 05 15 05 31 04.9  -08.73    110.32     25.0  2.9   0.0   0.0   0.689        84
 PCJI       17.70   1.000   P
 WOJI       19.40   1.000   P
 SCJI       25.50   1.000   P
 PWJI       26.90   1.000   P
 PCJI       30.70   1.000   S
 WOJI       33.80   1.000   S
 PWJI       46.80   1.000   S
# 2012 05 18 21 41 56.9  -09.30    112.89     10.0  4.0   0.0   0.0   1.124        85
 GMJI       20.60   1.000   P
 JAGI       24.50   1.000   P
 PWJI       26.70   1.000   P
 BLJI       29.20   1.000   P
 SWJI       31.80   1.000   P
 BYJI       32.30   1.000   P
 PCJI       34.30   1.000   P
 GMJI       37.50   1.000   S
 WOJI       37.70   1.000   P
 NGJI       42.00   1.000   P
 JAGI       47.30   1.000   S
 PWJI       47.80   1.000   S
 BLJI       52.00   1.000   S
 BYJI       54.20   1.000   S
# 2012 05 22 11 24 28.2  -08.95    110.16     24.0  4.4   0.0   0.0   0.646        86
 PCJI       21.60   1.000   P
 WOJI       22.30   1.000   P
 SCJI       25.90   1.000   P
 PWJI       29.40   1.000   P
 SWJI       31.80   1.000   P
 SMRI       32.00   1.000   P
 CMJI       32.20   1.000   P
 KPJI       33.00   1.000   P
 NGJI       34.00   1.000   P
 CTJI       35.20   1.000   P
 UWJI       41.60   1.000   P
 TBJI       42.50   1.000   P
 JCJI       44.60   1.000   P
 GRJI       47.30   1.000   P
  LEM       50.40   1.000   P
 GMJI       50.60   1.000   P
 BLJI       54.20   1.000   P
 KPJI       58.10   1.000   S
 CBJI       59.20   1.000   P
 BWJI       59.30   1.000   P
 JAGI       59.70   1.000   P
 SKJI       61.10   1.000   P
 DBJI       61.70   1.000   P
 BYJI       63.30   1.000   P
 CGJI       72.50   1.000   P
# 2012 05 22 15 13 06.3  -08.86    110.14     10.0  4.0   0.0   0.0   0.709        87
 PCJI       21.40   1.000   P
 WOJI       23.20   1.000   P
 SCJI       26.70   1.000   P
 PWJI       30.70   1.000   P
 SMRI       32.70   1.000   P
 CMJI       32.80   1.000   P
 SWJI       33.30   1.000   P
 KPJI       33.90   1.000   P
 NGJI       34.90   1.000   P
 CTJI       36.40   1.000   P
 WOJI       40.60   1.000   S
 SCJI       45.90   1.000   S
 GRJI       47.90   1.000   P
 PWJI       53.30   1.000   S
 SMRI       55.30   1.000   S
 KPJI       58.00   1.000   S
 SWJI       58.50   1.000   S
 CBJI       58.70   1.000   P
 JAGI       60.60   1.000   P
 CTJI       61.20   1.000   S
 GMJI   332241.20   1.000   P
 JAGI   332242.30   1.000   P
 BLJI   332247.20   1.000   P
 PWJI   332250.40   1.000   P
 PCJI   332253.80   1.000   P
 SWJI   332254.60   1.000   P
 WOJI   332259.50   1.000   P
 PCJI   332285.00   1.000   S
# 2012 05 29 22 30 33.2  -09.57    112.94     10.0  3.3   0.0   0.0   0.699        88
 GMJI       24.40   1.000   P
 JAGI       27.50   1.000   P
 PWJI       31.20   1.000   P
 BLJI       33.30   1.000   P
 PCJI       37.00   1.000   P
 GMJI -2437301.40   1.000   P
 JAGI -2437300.70   1.000   P
 JAGI -2437286.70   1.000   S
 SWJI -2437282.90   1.000   P
 PCJI -2437279.60   1.000   P
 PWJI -2437260.70   1.000   P
 SWJI -2437252.70   1.000   S
# 2012 06 02 01 48 03.5  -09.47    112.97     24.0  3.5   0.0   0.0   1.098        89
 GMJI       21.10   1.000   P
 JAGI       26.20   1.000   P
 BYJI       28.10   1.000   P
 PWJI       28.20   1.000   P
 BLJI       30.20   1.000   P
 PCJI       33.10   1.000   P
 SWJI       34.50   1.000   P
 GMJI       36.90   1.000   S
 NGJI       38.90   1.000   P
 JAGI       46.70   1.000   S
 PWJI       51.10   1.000   S
 BLJI       52.80   1.000   S
 BYJI       54.20   1.000   S
 SWJI       60.30   1.000   S
 NGJI       72.00   1.000   S
 JAGI    61643.30   1.000   P
 GMJI    61643.80   1.000   P
 BYJI    61647.50   1.000   P
 BLJI    61650.70   1.000   P
 PWJI    61651.20   1.000   P
 SWJI    61657.90   1.000   P
 PCJI    61657.90   1.000   P
 PWJI    61684.80   1.000   S
# 2012 06 03 14 25 00.9  -09.98    112.86     10.0  3.2   0.0   0.0   1.005        90
 GMJI       31.80   1.000   P
 JAGI       32.30   1.000   P
 BLJI       37.40   1.000   P
# 2012 06 03 16 43 41.2  -09.13    112.66     49.0  2.8   0.0   0.0   0.476        91
 GMJI       19.90   1.000   P
 JAGI       26.20   1.000   P
 SWJI       26.30   1.000   P
 BLJI       26.50   1.000   P
 GMJI       34.50   1.000   S
 JAGI       45.40   1.000   S
 SWJI       46.70   1.000   S
 BLJI       48.10   1.000   S
# 2012 06 06 14 54 22.5  -09.06    111.22     13.0  3.1   0.0   0.0   0.219        92
 PCJI       16.80   1.000   P
 PWJI       19.30   1.000   P
 SWJI       25.10   1.000   P
 PCJI       29.00   1.000   S
 NGJI       29.50   1.000   P
 GMJI       38.50   1.000   P
# 2012 06 07 23 17 19.7  -08.53    112.72    138.0  3.6   0.0   0.0   0.467        93
 GMJI       23.20   1.000   P
 PWJI       23.20   1.000   P
 SWJI       25.90   1.000   P
 BLJI       26.20   1.000   P
 JAGI       27.60   1.000   P
 GRJI       29.90   1.000   P
 NGJI       30.90   1.000   P
 GMJI       39.00   1.000   S
 PWJI       42.00   1.000   S
# 2012 06 09 04 56 09.8  -08.70    111.38     83.0  4.1   0.0   0.0   0.696        94
 PCJI       16.00   1.000   P
 PWJI       17.40   1.000   P
 SWJI       19.70   1.000   P
 NGJI       23.90   1.000   P
 PCJI       27.20   1.000   S
 PWJI       28.20   1.000   S
 TBJI       29.90   1.000   P
 GRJI       32.00   1.000   P
 GMJI       33.70   1.000   P
 SWJI       35.30   1.000   S
 SCJI       37.10   1.000   P
 BLJI       37.10   1.000   P
 JAGI       42.40   1.000   P
 KPJI       42.60   1.000   P
 CMJI       45.20   1.000   P
# 2012 06 09 20 42 08.6  -08.66    111.26     67.0  2.9   0.0   0.0   0.267        95
 PCJI       13.90   1.000   P
 PWJI       15.50   1.000   P
 SWJI       18.70   1.000   P
 NGJI       21.90   1.000   P
 PCJI       23.90   1.000   S
 PWJI       28.00   1.000   S
 SWJI       33.70   1.000   S
# 2012 06 10 15 31 33.8  -09.02    110.45     10.0  2.5   0.0   0.0   0.758        96
 PCJI       19.40   1.000   P
 WOJI       24.40   1.000   P
 PWJI       27.30   1.000   P
 SWJI       31.90   1.000   P
 WOJI       39.60   1.000   S
 SWJI       55.50   1.000   S
# 2012 06 11 12 55 15.5  -05.99    110.61     10.0  3.4   0.0   0.0   0.435        97
 SMRI       20.50   1.000   P
 TBJI       26.20   1.000   P
 NGJI       28.70   1.000   P
 CTJI       29.70   1.000   P
 WOJI       31.20   1.000   P
 SWJI       34.40   1.000   P
 BWJI       34.70   1.000   P
 SMRI       35.30   1.000   S
 GRJI       35.30   1.000   P
 KPJI       35.70   1.000   P
 PCJI       36.60   1.000   P
 NGJI       50.00   1.000   S
 NGJI       53.10   1.000   S
 SWJI       68.70   1.000   S
# 2012 06 12 14 10 00.9  -11.21    111.96    119.0  4.2   0.0   0.0   0.754        98
 PWJI       46.00   1.000   P
 PCJI       47.00   1.000   P
 GMJI       49.50   1.000   P
 SWJI       52.30   1.000   P
 JAGI       52.90   1.000   P
 BLJI       58.30   1.000   P
 PWJI       81.50   1.000   S
 PCJI       84.70   1.000   S
 GMJI       88.70   1.000   S
 SWJI       93.20   1.000   S
 JAGI       93.20   1.000   S
# 2012 06 14 14 54 12.3  -08.91    110.27     71.0  4.7   0.0   0.0   1.330        99
 PCJI       20.10   1.000   P
 WOJI       21.10   1.000   P
 SCJI       27.20   1.000   P
 PWJI       28.10   1.000   P
 SWJI       30.20   1.000   P
 SMRI       30.50   1.000   P
 NGJI       32.80   1.000   P
 CMJI       33.20   1.000   P
 KPJI       33.50   1.000   P
 CTJI       34.70   1.000   P
 PCJI       35.10   1.000   S
 WOJI       36.20   1.000   S
 TBJI       39.60   1.000   P
 GRJI       44.30   1.000   P
 GMJI       47.80   1.000   P
  LEM       51.60   1.000   P
 BLJI       52.00   1.000   P
 JAGI       56.50   1.000   P
 DBJI       62.90   1.000   P
# 2012 06 14 16 30 29.2  -07.92    110.53     10.0  2.7   0.0   0.0   0.301       100
 WOJI        8.10   1.000   P
 PCJI       13.30   1.000   P
 WOJI       14.90   1.000   S
 PCJI       23.00   1.000   S
 PWJI       23.20   1.000   P
 KPJI       29.10   1.000   P
 JAGI   115028.20   1.000   P
 GMJI   115031.00   1.000   P
 BLJI   115038.60   1.000   P
 PWJI   115041.00   1.000   P
 PCJI   115044.50   1.000   P
 WOJI   115051.10   1.000   P
 JAGI   336683.10   1.000   P
 GMJI   336683.90   1.000   P
 BLJI   336692.50   1.000   P
 PWJI   336692.90   1.000   P
 SWJI   336698.60   1.000   P
 PCJI   336700.40   1.000   P
 WOJI   336703.00   1.000   P
 GRJI   336706.00   1.000   P
 KPJI   336728.30   1.000   P
 PWJI   336728.60   1.000   S
 GMJI   520619.40   1.000   P
 GMJI   520621.00   1.000   S
 BLJI   520627.10   1.000   P
 JAGI   520628.80   1.000   P
 BYJI   520632.70   1.000   P
 JAGI   520637.60   1.000   S
 KMMI   520640.60   1.000   P
 PWJI   520647.10   1.000   P
# 2012 06 20 19 55 41.7  -09.09    110.15     23.0  3.8   0.0   0.0   1.087       101
 PCJI       20.90   1.000   P
 WOJI       23.30   1.000   P
 PWJI       30.10   1.000   P
 SWJI       32.80   1.000   P
 CMJI       34.90   1.000   P
 KPJI       35.10   1.000   P
 NGJI       36.20   1.000   P
 CTJI       37.80   1.000   P
 PCJI       41.50   1.000   S
 GMJI       51.50   1.000   P
 PWJI       52.50   1.000   S
 SMRI       59.10   1.000   P
 KPJI       59.70   1.000   S
 CMJI       60.00   1.000   S
 SWJI       60.30   1.000   S
 JAGI       60.80   1.000   P
# 2012 06 25 06 43 55.3  -06.82    112.45     10.0  3.8   0.0   0.0   0.986       102
 GRJI        1.80   1.000   P
 GRJI        4.50   1.000   S
 TBJI       10.40   1.000   P
 TBJI       20.10   1.000   S
 SWJI       21.00   1.000   P
 NGJI       21.90   1.000   P
 PWJI       23.60   1.000   P
 BLJI       25.90   1.000   P
 GMJI       29.90   1.000   P
 WOJI       30.30   1.000   P
 PCJI       30.90   1.000   P
 SMRI       34.40   1.000   P
 NGJI       36.20   1.000   S
 SWJI       37.60   1.000   S
 BYJI       38.70   1.000   P
 JAGI       39.10   1.000   P
 BLJI       46.00   1.000   S
 SCJI       52.50   1.000   P
 GMJI       52.90   1.000   S
 PCJI       54.90   1.000   S
 KPJI       55.00   1.000   P
 WOJI       55.00   1.000   S
 CMJI       61.60   1.000   P
# 2012 06 26 05 05 25.3  -08.94    112.46     30.0  4.9   0.0   0.0   0.728       103
 PWJI       18.80   1.000   P
 GMJI       19.80   1.000   P
 SWJI       22.50   1.000   P
 PCJI       24.00   1.000   P
 BLJI       26.30   1.000   P
 JAGI       27.60   1.000   P
 WOJI       30.10   1.000   P
 NGJI       30.60   1.000   P
 GRJI       31.10   1.000   P
 PWJI       31.30   1.000   S
 BYJI       32.80   1.000   P
 TBJI       33.50   1.000   P
 SMRI       42.00   1.000   P
 SCJI       52.20   1.000   P
 CTJI       57.00   1.000   P
 KPJI       57.60   1.000   P
 CMJI       60.40   1.000   P
 CGJI      102.00   1.000   P
