# 2012 09 06 18 11 33.2  -08.23    110.17     11.0  3.2   0.0   0.0   0.855       131
 WOJI       14.50   1.000   P
 PCJI       17.00   1.000   P
 SMRI       22.00   1.000   P
 KPJI       26.30   1.000   P
 WOJI       26.60   1.000   S
 CTJI       26.80   1.000   P
 PWJI       26.90   1.000   P
 SWJI       28.70   1.000   P
 NGJI       28.70   1.000   P
 PCJI       31.00   1.000   S
 KPJI       45.60   1.000   S
 CTJI       46.10   1.000   S
 PWJI       49.00   1.000   S
 SWJI       49.50   1.000   S
 JAGI     4347.20   1.000   P
 GMJI     4349.80   1.000   P
 PWJI     4360.80   1.000   P
 SWJI     4364.90   1.000   P
 WOJI     4371.60   1.000   P
 JAGI     4376.40   1.000   S
 PWJI     4399.70   1.000   S
 SWJI     4407.80   1.000   S
 JAGI    40213.10   1.000   P
 GMJI    40215.00   1.000   P
 BYJI    40217.80   1.000   P
 BLJI    40223.90   1.000   P
 PWJI    40226.60   1.000   P
 SWJI    40230.20   1.000   P
 PCJI    40231.40   1.000   P
 KMMI    40233.80   1.000   P
 GRJI    40236.60   1.000   P
 WOJI    40236.70   1.000   P
 GMJI    40247.00   1.000   S
 KPJI    40262.40   1.000   P
 PWJI    40265.60   1.000   S
 KMMI    40276.30   1.000   S
 CGJI    40303.30   1.000   P
 JAGI    45216.60   1.000   P
 GMJI    45218.50   1.000   P
 PWJI    45229.70   1.000   P
 JAGI    45242.10   1.000   S
 GMJI    45246.50   1.000   S
 PWJI    45267.40   1.000   S
 JAGI    55832.70   1.000   P
 GMJI    55835.50   1.000   P
 BYJI    55837.60   1.000   P
 BLJI    55843.40   1.000   P
 PWJI    55846.60   1.000   P
 SWJI    55850.60   1.000   P
 PCJI    55852.10   1.000   P
 KMMI    55853.60   1.000   P
 WOJI    55857.10   1.000   P
 GRJI    55857.70   1.000   P
 NGJI    55860.20   1.000   P
 JAGI    55861.90   1.000   S
 KPJI    55881.80   1.000   P
 PWJI    55885.60   1.000   S
 SWJI    55894.90   1.000   S
 KMMI    55896.70   1.000   S
 GRJI    55904.10   1.000   S
 JAGI    68256.80   1.000   P
 GMJI    68259.70   1.000   P
 PWJI    68271.40   1.000   P
 PWJI    68311.20   1.000   S
 JAGI    70425.60   1.000   P
 GMJI    70427.90   1.000   P
 BYJI    70430.20   1.000   P
 BLJI    70436.30   1.000   P
 PWJI    70439.10   1.000   P
 PCJI    70444.50   1.000   P
 KMMI    70445.60   1.000   P
 SWJI    70445.70   1.000   P
 WOJI    70450.00   1.000   P
 JAGI    70455.80   1.000   S
 PWJI    70477.10   1.000   S
 SWJI    70487.40   1.000   S
 CGJI    70515.90   1.000   P
 JAGI    73154.50   1.000   P
 GMJI    73157.30   1.000   P
 BLJI    73165.40   1.000   P
 PWJI    73168.80   1.000   P
 SWJI    73173.70   1.000   P
 KMMI    73175.30   1.000   P
 PCJI    73176.90   1.000   P
 NGJI    73181.30   1.000   P
 WOJI    73183.40   1.000   P
 PWJI    73207.20   1.000   S
 CTJI    73209.50   1.000   P
 KPJI    73212.00   1.000   P
 JAGI    73627.70   1.000   P
 GMJI    73629.80   1.000   P
 BYJI    73632.70   1.000   P
 BLJI    73638.40   1.000   P
 PWJI    73641.00   1.000   P
 SWJI    73645.20   1.000   P
 PCJI    73645.50   1.000   P
 KMMI    73648.00   1.000   P
 GRJI    73652.50   1.000   P
 WOJI    73654.00   1.000   P
 JAGI    74056.50   1.000   P
 GMJI    74059.30   1.000   P
 BYJI    74061.30   1.000   P
 BLJI    74066.90   1.000   P
 PWJI    74070.40   1.000   P
 SWJI    74075.40   1.000   P
 KMMI    74077.40   1.000   P
 WOJI    74080.00   1.000   P
 NGJI    74085.10   1.000   P
 JAGI    74085.30   1.000   S
 BLJI    74105.20   1.000   S
 PWJI    74109.30   1.000   S
 CGJI    74147.50   1.000   P
 JAGI    80708.80   1.000   P
 GMJI    80711.40   1.000   P
 BLJI    80720.40   1.000   P
 PWJI    80723.90   1.000   P
 PWJI    80760.70   1.000   S
 JAGI    81520.10   1.000   P
 GMJI    81522.70   1.000   P
 PWJI    81533.70   1.000   P
 JAGI    81548.20   1.000   S
 GMJI    81553.20   1.000   S
 PWJI    81572.10   1.000   S
 JAGI    84608.40   1.000   P
 GMJI    84610.80   1.000   P
 BYJI    84613.80   1.000   P
 BLJI    84619.70   1.000   P
 PWJI    84622.30   1.000   P
 SWJI    84627.00   1.000   P
 PCJI    84627.80   1.000   P
 KMMI    84629.90   1.000   P
 WOJI    84632.90   1.000   P
 GRJI    84634.00   1.000   P
 JAGI    84637.80   1.000   S
 KPJI    84658.60   1.000   P
 CMJI    84659.50   1.000   P
 CTJI    84660.50   1.000   P
  LEM    84677.80   1.000   P
 SKJI    84690.60   1.000   P
 CGJI    84699.70   1.000   P
 JAGI    92276.60   1.000   P
 GMJI    92279.60   1.000   P
 BYJI    92281.80   1.000   P
 BLJI    92288.50   1.000   P
 PWJI    92290.40   1.000   P
 SWJI    92295.40   1.000   P
 KMMI    92298.70   1.000   P
 WOJI    92301.10   1.000   P
 JAGI    92306.60   1.000   S
 GMJI    92310.10   1.000   S
 KPJI    92327.00   1.000   P
 PWJI    92328.60   1.000   S
 JAGI   118344.70   1.000   P
 GMJI   118347.70   1.000   P
 BYJI   118348.80   1.000   P
 PWJI   118357.90   1.000   P
 PCJI   118363.40   1.000   P
 GRJI   118368.80   1.000   P
 NGJI   118369.90   1.000   P
 WOJI   118370.20   1.000   P
 JAGI   118371.80   1.000   S
 TBJI   118374.10   1.000   P
 GMJI   118376.70   1.000   S
 BYJI   118379.00   1.000   S
 SMRI   118382.00   1.000   P
 KPJI   118394.80   1.000   P
 CTJI   118395.10   1.000   P
 PWJI   118395.90   1.000   S
 CMJI   118397.00   1.000   P
 JAGI   120623.70   1.000   P
 GMJI   120626.80   1.000   P
 BYJI   120627.80   1.000   P
 BLJI   120633.90   1.000   P
 PWJI   120637.60   1.000   P
 SWJI   120642.90   1.000   P
 KMMI   120643.50   1.000   P
 PCJI   120643.50   1.000   P
 GRJI   120648.60   1.000   P
 WOJI   120649.20   1.000   P
 NGJI   120649.40   1.000   P
 JAGI   120651.50   1.000   S
 TBJI   120653.00   1.000   P
 GMJI   120657.20   1.000   S
 BYJI   120659.10   1.000   S
 SMRI   120661.20   1.000   P
 CTJI   120674.30   1.000   P
 KPJI   120674.40   1.000   P
 PWJI   120676.60   1.000   S
 CMJI   120677.20   1.000   P
 JAGI   131466.40   1.000   P
 GMJI   131468.60   1.000   P
 BYJI   131471.60   1.000   P
 BLJI   131477.20   1.000   P
 PWJI   131479.70   1.000   P
 SWJI   131484.50   1.000   P
 PCJI   131484.90   1.000   P
 KMMI   131486.80   1.000   P
 WOJI   131490.70   1.000   P
 GRJI   131490.90   1.000   P
 NGJI   131491.30   1.000   P
 JAGI   131494.30   1.000   S
 TBJI   131495.90   1.000   P
 GMJI   131498.90   1.000   S
 SMRI   131503.50   1.000   P
 BLJI   131511.60   1.000   S
 KPJI   131515.60   1.000   P
 PWJI   131516.30   1.000   S
 CMJI   131518.20   1.000   P
  LEM   131533.20   1.000   P
 SKJI   131545.90   1.000   P
 CGJI   131558.90   1.000   P
 JAGI   134742.50   1.000   P
 GMJI   134745.00   1.000   P
 BYJI   134747.10   1.000   P
 BLJI   134753.40   1.000   P
 PWJI   134755.40   1.000   P
 PCJI   134760.40   1.000   P
 SWJI   134761.10   1.000   P
 KMMI   134761.50   1.000   P
 WOJI   134767.20   1.000   P
 GRJI   134767.90   1.000   P
 NGJI   134768.20   1.000   P
 JAGI   134770.90   1.000   S
 TBJI   134771.40   1.000   P
 GMJI   134775.30   1.000   S
 BYJI   134777.70   1.000   S
 BLJI   134789.20   1.000   S
 KPJI   134792.10   1.000   P
 CTJI   134792.80   1.000   P
 CMJI   134793.50   1.000   P
 PWJI   134795.10   1.000   S
 CGJI   134834.80   1.000   P
 JAGI   135445.80   1.000   P
 GMJI   135448.80   1.000   P
 BYJI   135449.80   1.000   P
 BLJI   135455.60   1.000   P
 PWJI   135460.10   1.000   P
 KMMI   135464.40   1.000   P
 JAGI   135464.60   1.000   S
 SWJI   135466.10   1.000   P
 PCJI   135467.90   1.000   P
 BYJI   135472.50   1.000   S
 JAGI   141084.20   1.000   P
 GMJI   141086.80   1.000   P
 BYJI   141089.00   1.000   P
 BLJI   141095.40   1.000   P
 PWJI   141097.70   1.000   P
 SWJI   141102.50   1.000   P
 PCJI   141103.10   1.000   P
 KMMI   141105.10   1.000   P
 WOJI   141109.10   1.000   P
 GRJI   141109.20   1.000   P
 NGJI   141110.20   1.000   P
 JAGI   141115.40   1.000   S
 GMJI   141120.00   1.000   S
 BYJI   141122.50   1.000   S
 CTJI   141134.80   1.000   P
 KPJI   141134.80   1.000   P
 JCJI   141146.10   1.000   P
  LEM   141153.70   1.000   P
 SKJI   141163.60   1.000   P
 CGJI   141175.10   1.000   P
 SBJI   141175.20   1.000   P
 JAGI   143169.80   1.000   P
 GMJI   143172.20   1.000   P
 BYJI   143173.60   1.000   P
 BLJI   143179.60   1.000   P
 PWJI   143182.30   1.000   P
 SWJI   143187.90   1.000   P
 PCJI   143188.10   1.000   P
 NGJI   143194.30   1.000   P
 WOJI   143194.30   1.000   P
 JAGI   143197.90   1.000   S
 GMJI   143202.40   1.000   S
 BYJI   143204.90   1.000   S
 SMRI   143206.50   1.000   P
 KPJI   143219.40   1.000   P
 JAGI   143417.40   1.000   P
 GMJI   143420.60   1.000   P
 BLJI   143428.20   1.000   P
 PWJI   143431.70   1.000   P
 SWJI   143436.70   1.000   P
 KMMI   143437.50   1.000   P
 GRJI   143442.40   1.000   P
 WOJI   143443.60   1.000   P
 GMJI   143450.60   1.000   S
 PWJI   143470.70   1.000   S
 JAGI   149398.60   1.000   P
 GMJI   149401.40   1.000   P
 BYJI   149403.10   1.000   P
 BLJI   149409.60   1.000   P
 PWJI   149411.40   1.000   P
 PCJI   149415.70   1.000   P
 SWJI   149416.80   1.000   P
 KMMI   149419.30   1.000   P
 WOJI   149422.90   1.000   P
 GRJI   149423.10   1.000   P
 TBJI   149426.80   1.000   P
 JAGI   149428.90   1.000   S
 GMJI   149432.60   1.000   S
 SMRI   149435.20   1.000   P
 BYJI   149435.60   1.000   S
 KPJI   149447.50   1.000   P
 CTJI   149448.30   1.000   P
 PWJI   149449.90   1.000   S
 CMJI   149450.20   1.000   P
 SKJI   149478.30   1.000   P
 JAGI   150634.60   1.000   P
 GMJI   150636.80   1.000   P
 PWJI   150646.90   1.000   P
 JAGI   150663.50   1.000   S
 PWJI   150686.30   1.000   S
# 2012 09 08 12 43 33.4  -09.03    110.31     21.0  3.4   0.0   0.0   0.699       132
 PCJI       21.00   1.000   P
 WOJI       22.90   1.000   P
 PWJI       29.40   1.000   P
 SWJI       31.80   1.000   P
 CMJI       34.80   1.000   P
 PCJI       36.10   1.000   S
 KPJI       36.30   1.000   P
 CTJI       37.30   1.000   P
 GMJI       48.40   1.000   P
 PWJI       50.20   1.000   S
 JAGI       57.40   1.000   P
 CTJI       65.00   1.000   S
 JAGI      307.20   1.000   P
 GMJI      310.20   1.000   P
 BLJI      318.40   1.000   P
 PWJI      321.80   1.000   P
 JAGI     2993.80   1.000   P
 GMJI     2996.40   1.000   P
 JAGI     4473.60   1.000   P
 GMJI     4475.90   1.000   P
 BYJI     4476.60   1.000   P
 PWJI     4488.70   1.000   P
 JAGI     4502.60   1.000   S
 JAGI     4771.20   1.000   P
 GMJI     4774.10   1.000   P
 PWJI     4786.80   1.000   P
 JAGI     5280.40   1.000   P
 GMJI     5282.70   1.000   P
 BLJI     5290.40   1.000   P
 PWJI     5293.40   1.000   P
 KMMI     5300.30   1.000   P
 WOJI     5304.00   1.000   P
 CGJI     5370.80   1.000   P
 JAGI     7382.80   1.000   P
 GMJI     7384.40   1.000   P
 PWJI     7395.80   1.000   P
 JAGI    16386.10   1.000   P
 GMJI    16388.60   1.000   P
 PWJI    16399.60   1.000   P
 JAGI    17176.30   1.000   P
 GMJI    17179.10   1.000   P
 BYJI    17181.30   1.000   P
 PWJI    17190.70   1.000   P
 JAGI    17205.70   1.000   S
 JAGI    43581.60   1.000   P
 GMJI    43584.40   1.000   P
 BLJI    43591.10   1.000   P
 PWJI    43595.90   1.000   P
 GMJI    43614.80   1.000   S
 PWJI    43635.60   1.000   S
 JAGI    44995.30   1.000   P
 GMJI    44998.60   1.000   P
 PWJI    45009.80   1.000   P
 PWJI    45049.50   1.000   S
 JAGI    53250.00   1.000   P
 GMJI    53253.10   1.000   P
 BYJI    53254.50   1.000   P
 BLJI    53261.00   1.000   P
 PWJI    53265.70   1.000   P
 PCJI    53270.00   1.000   P
 SWJI    53270.30   1.000   P
 GRJI    53276.30   1.000   P
 WOJI    53277.00   1.000   P
 JAGI    53277.50   1.000   S
 NGJI    53278.70   1.000   P
 GMJI    53283.00   1.000   S
 KPJI    53303.70   1.000   P
 PWJI    53304.90   1.000   S
 JAGI    63208.10   1.000   P
 GMJI    63210.80   1.000   P
 BYJI    63212.30   1.000   P
 BLJI    63218.50   1.000   P
 PWJI    63222.40   1.000   P
 PCJI    63227.10   1.000   P
 SWJI    63227.50   1.000   P
 KMMI    63227.70   1.000   P
 WOJI    63233.90   1.000   P
 JAGI    63236.10   1.000   S
 GMJI    63241.90   1.000   S
 BYJI    63243.10   1.000   S
 BLJI    63254.30   1.000   S
 KPJI    63258.20   1.000   P
 PWJI    63260.90   1.000   S
 KMMI    63270.40   1.000   S
 JAGI    65416.50   1.000   P
 GMJI    65419.70   1.000   P
 PWJI    65430.90   1.000   P
 JAGI    65444.20   1.000   S
 GMJI    65449.50   1.000   S
 PWJI    65469.30   1.000   S
# 2012 09 09 08 35 54.3  -08.89    110.19     10.0  3.1   0.0   0.0   0.364       133
 PCJI       21.50   1.000   P
 WOJI       23.60   1.000   P
 PWJI       30.80   1.000   P
 SWJI       32.70   1.000   P
 KPJI       33.70   1.000   P
 CMJI       34.30   1.000   P
 WOJI       40.60   1.000   S
 PWJI       52.80   1.000   S
# 2012 09 09 08 51 46.3  -07.99    110.25    117.0  2.8   0.0   0.0   0.596       134
 PCJI       19.90   1.000   P
 WOJI       20.20   1.000   P
 SMRI       21.50   1.000   P
 PWJI       28.40   1.000   P
 CMJI       31.00   1.000   P
 PWJI       50.60   1.000   S
 CMJI       55.20   1.000   S
 JAGI     2888.50   1.000   P
 GMJI     2891.30   1.000   P
 BYJI     2893.10   1.000   P
 BLJI     2899.50   1.000   P
 PWJI     2902.10   1.000   P
 PCJI     2906.70   1.000   P
 KMMI     2908.40   1.000   P
 GRJI     2911.70   1.000   P
 WOJI     2912.80   1.000   P
 JAGI     2918.10   1.000   S
 BYJI     2925.60   1.000   S
 KPJI     2938.00   1.000   P
 CMJI     2939.10   1.000   P
 JAGI     7510.30   1.000   P
 GMJI     7513.20   1.000   P
 BYJI     7514.00   1.000   P
 BLJI     7520.40   1.000   P
 PWJI     7524.70   1.000   P
 SWJI     7529.60   1.000   P
 PCJI     7530.70   1.000   P
 WOJI     7536.70   1.000   P
 JAGI     7537.40   1.000   S
 GMJI     7543.50   1.000   S
 BLJI     7555.90   1.000   S
 JAGI    40244.40   1.000   P
 GMJI    40247.80   1.000   P
 BYJI    40248.60   1.000   P
 PWJI    40258.30   1.000   P
 JAGI    40271.90   1.000   S
 GMJI    40277.30   1.000   S
 JAGI    56837.50   1.000   P
 GMJI    56839.80   1.000   P
 BYJI    56842.30   1.000   P
 BLJI    56848.90   1.000   P
 PWJI    56852.10   1.000   P
 PCJI    56856.60   1.000   P
 SWJI    56857.20   1.000   P
 KMMI    56858.40   1.000   P
 GRJI    56862.90   1.000   P
 WOJI    56863.60   1.000   P
 NGJI    56863.70   1.000   P
 SMRI    56877.50   1.000   P
 KPJI    56889.20   1.000   P
 CMJI    56890.40   1.000   P
 NGJI    56914.40   1.000   S
 CGJI    56931.50   1.000   P
 NGJI    56943.10   1.000   S
 JAGI    58602.90   1.000   P
 GMJI    58605.50   1.000   P
 BYJI    58607.40   1.000   P
 PWJI    58615.60   1.000   P
 PCJI    58621.40   1.000   P
 JAGI    58632.20   1.000   S
 JAGI    58644.60   1.000   S
 PWJI    58654.80   1.000   S
# 2012 09 10 08 13 42.4  -08.98    110.49     10.0  3.4   0.0   0.0   1.205       135
 PCJI       19.40   1.000   P
 WOJI       22.70   1.000   P
 PWJI       28.20   1.000   P
 SWJI       29.00   1.000   P
 PCJI       33.10   1.000   S
 SMRI       34.70   1.000   P
 CMJI       36.30   1.000   P
 KPJI       37.80   1.000   P
 CTJI       39.80   1.000   P
 JAGI    18905.50   1.000   P
 GMJI    18907.70   1.000   P
 PWJI    18919.30   1.000   P
 SWJI    18924.00   1.000   P
 JAGI    18936.10   1.000   S
 GMJI    18940.10   1.000   S
 JAGI    27237.80   1.000   P
 GMJI    27240.40   1.000   P
 PWJI    27250.50   1.000   P
 JAGI    27266.50   1.000   S
 GMJI    27271.90   1.000   S
 PWJI    27290.20   1.000   S
