# 2012 09 03 13 10 55.4  -08.78    111.36     88.0  3.8   0.0   0.0   0.560       130
 PCJI       16.40   1.000   P
 PWJI       17.80   1.000   P
 WOJI       19.50   1.000   P
 SWJI       20.70   1.000   P
 BLJI       37.50   1.000   P
 CTJI       42.10   1.000   P
 JAGI       42.20   1.000   P
 KPJI       43.00   1.000   P
 JAGI     4585.70   1.000   P
 GMJI     4588.50   1.000   P
 BYJI     4590.70   1.000   P
 BLJI     4597.00   1.000   P
 PWJI     4600.60   1.000   P
 SWJI     4604.30   1.000   P
 PCJI     4605.20   1.000   P
 KMMI     4606.90   1.000   P
 WOJI     4611.20   1.000   P
 GRJI     4611.30   1.000   P
 KPJI     4636.50   1.000   P
 CGJI     4677.90   1.000   P
 JAGI     5866.50   1.000   P
 GMJI     5869.40   1.000   P
 BYJI     5871.80   1.000   P
 BLJI     5877.90   1.000   P
 PWJI     5881.30   1.000   P
 SWJI     5885.40   1.000   P
 PCJI     5886.40   1.000   P
 KMMI     5888.10   1.000   P
 WOJI     5891.70   1.000   P
 KPJI     5918.60   1.000   P
 CGJI     5958.70   1.000   P
 JAGI    18767.90   1.000   P
 GMJI    18770.50   1.000   P
 BYJI    18773.20   1.000   P
 BLJI    18779.50   1.000   P
 PWJI    18783.00   1.000   P
 PCJI    18786.70   1.000   P
 SWJI    18787.00   1.000   P
 KMMI    18789.50   1.000   P
 WOJI    18793.10   1.000   P
 GRJI    18794.00   1.000   P
 NGJI    18796.10   1.000   P
 JAGI    18798.00   1.000   S
 TBJI    18798.20   1.000   P
 SMRI    18807.10   1.000   P
 KPJI    18819.20   1.000   P
 CMJI    18819.70   1.000   P
 CTJI    18820.00   1.000   P
 JCJI    18831.60   1.000   P
  LEM    18838.00   1.000   P
 SKJI    18848.80   1.000   P
 CGJI    18861.20   1.000   P
 SBJI    18861.30   1.000   P
 JAGI    20390.10   1.000   P
 GMJI    20393.10   1.000   P
 BYJI    20395.00   1.000   P
 BLJI    20400.80   1.000   P
 PWJI    20404.00   1.000   P
 SWJI    20407.80   1.000   P
 PCJI    20409.50   1.000   P
 KMMI    20410.80   1.000   P
 WOJI    20414.00   1.000   P
 NGJI    20416.10   1.000   P
 KPJI    20440.10   1.000   P
 JAGI    20915.70   1.000   P
 BYJI    20920.10   1.000   P
 PWJI    20931.00   1.000   P
 WOJI    20941.60   1.000   P
 PWJI    20970.10   1.000   S
 JAGI    22362.80   1.000   P
 GMJI    22366.10   1.000   P
 BYJI    22367.40   1.000   P
 BLJI    22374.00   1.000   P
 PWJI    22377.80   1.000   P
 KMMI    22383.60   1.000   P
 WOJI    22388.60   1.000   P
 JAGI    36178.40   1.000   P
 GMJI    36180.90   1.000   P
 BYJI    36183.30   1.000   P
 BLJI    36189.00   1.000   P
 PWJI    36192.30   1.000   P
 SWJI    36197.50   1.000   P
 KMMI    36199.00   1.000   P
 WOJI    36202.90   1.000   P
 JAGI    39489.00   1.000   P
 GMJI    39491.40   1.000   P
 BYJI    39493.70   1.000   P
 BLJI    39500.10   1.000   P
 PWJI    39503.90   1.000   P
 PCJI    39508.60   1.000   P
 KMMI    39510.00   1.000   P
 WOJI    39514.10   1.000   P
 GRJI    39514.60   1.000   P
 CMJI    39540.20   1.000   P
 KPJI    39541.20   1.000   P
 CGJI    39581.20   1.000   P
 JAGI    44557.60   1.000   P
 PWJI    44572.90   1.000   P
 JAGI    44582.30   1.000   S
 JAGI    46744.80   1.000   P
 GMJI    46747.40   1.000   P
 BYJI    46749.20   1.000   P
 BLJI    46755.50   1.000   P
 PWJI    46758.80   1.000   P
 PCJI    46763.90   1.000   P
 SWJI    46764.00   1.000   P
 WOJI    46770.00   1.000   P
 JAGI    46775.00   1.000   S
 GMJI    46780.70   1.000   S
 PWJI    46798.10   1.000   S
 JAGI    55017.40   1.000   P
 GMJI    55020.20   1.000   P
 BYJI    55022.50   1.000   P
 BLJI    55028.90   1.000   P
 PWJI    55033.00   1.000   P
 PCJI    55036.30   1.000   P
 SWJI    55036.80   1.000   P
 KMMI    55038.20   1.000   P
 WOJI    55042.70   1.000   P
 GRJI    55043.20   1.000   P
 NGJI    55044.90   1.000   P
 TBJI    55048.00   1.000   P
 SMRI    55056.10   1.000   P
 KPJI    55068.70   1.000   P
 CMJI    55068.90   1.000   P
 CTJI    55069.70   1.000   P
  LEM    55087.20   1.000   P
 CGJI    55109.40   1.000   P
 SBJI    55109.80   1.000   P
 JAGI    80879.40   1.000   P
 GMJI    80881.30   1.000   P
 BYJI    80884.00   1.000   P
 BLJI    80890.30   1.000   P
 PWJI    80892.80   1.000   P
 SWJI    80897.10   1.000   P
 PCJI    80898.30   1.000   P
 KMMI    80899.80   1.000   P
 GRJI    80904.00   1.000   P
 WOJI    80904.20   1.000   P
 TBJI    80908.60   1.000   P
 JAGI    80909.00   1.000   S
 KPJI    80928.70   1.000   P
 PWJI    80932.40   1.000   S
 JAGI    81470.50   1.000   P
 GMJI    81472.70   1.000   P
 BYJI    81475.50   1.000   P
 BLJI    81481.40   1.000   P
 PWJI    81484.20   1.000   P
 SWJI    81488.30   1.000   P
 PCJI    81489.10   1.000   P
 KMMI    81491.40   1.000   P
 WOJI    81495.00   1.000   P
 JAGI    82630.30   1.000   P
 GMJI    82633.30   1.000   P
 BYJI    82634.90   1.000   P
 BLJI    82640.80   1.000   P
 PWJI    82643.90   1.000   P
 PCJI    82647.80   1.000   P
 SWJI    82648.40   1.000   P
 KMMI    82650.90   1.000   P
 WOJI    82654.40   1.000   P
 GRJI    82655.30   1.000   P
 NGJI    82658.30   1.000   P
 TBJI    82659.50   1.000   P
 SMRI    82666.60   1.000   P
 BLJI    82678.60   1.000   S
 KPJI    82679.10   1.000   P
 CTJI    82679.60   1.000   P
 CMJI    82679.80   1.000   P
 PWJI    82683.40   1.000   S
 CGJI    82720.40   1.000   P
 JAGI    85130.70   1.000   P
 GMJI    85133.30   1.000   P
 BYJI    85135.30   1.000   P
 BLJI    85141.30   1.000   P
 PWJI    85144.70   1.000   P
 SWJI    85149.50   1.000   P
 KMMI    85151.20   1.000   P
 GRJI    85155.40   1.000   P
 WOJI    85155.80   1.000   P
 JAGI    85159.00   1.000   S
 BLJI    85177.70   1.000   S
 KPJI    85181.10   1.000   P
 CMJI    85182.30   1.000   P
 PWJI    85183.20   1.000   S
 JAGI    86514.10   1.000   P
 GMJI    86517.20   1.000   P
 BLJI    86524.00   1.000   P
 PWJI    86528.30   1.000   P
 GMJI    86548.10   1.000   S
 JAGI    87038.90   1.000   P
 GMJI    87041.40   1.000   P
 PWJI    87052.90   1.000   P
 JAGI    87321.50   1.000   P
 GMJI    87324.30   1.000   P
 PWJI    87335.90   1.000   P
 JAGI    87351.70   1.000   S
 GMJI    87354.60   1.000   S
 PWJI    87375.10   1.000   S
 JAGI    87647.10   1.000   P
 GMJI    87650.10   1.000   P
 BYJI    87652.10   1.000   P
 BLJI    87657.80   1.000   P
 PWJI    87660.60   1.000   P
 SWJI    87665.30   1.000   P
 KMMI    87667.50   1.000   P
 WOJI    87671.40   1.000   P
 GRJI    87672.10   1.000   P
 NGJI    87672.70   1.000   P
 TBJI    87676.40   1.000   P
 KPJI    87696.70   1.000   P
 CMJI    87698.10   1.000   P
 PWJI    87700.70   1.000   S
 CGJI    87737.50   1.000   P
 JAGI    88192.90   1.000   P
 GMJI    88195.90   1.000   P
 BLJI    88202.80   1.000   P
 PWJI    88205.70   1.000   P
 KMMI    88212.20   1.000   P
 GRJI    88217.40   1.000   P
 WOJI    88218.50   1.000   P
 JAGI    88220.80   1.000   S
 GMJI    88225.80   1.000   S
 GRJI    88264.50   1.000   S
 JAGI    88315.00   1.000   P
 GMJI    88317.70   1.000   P
 BYJI    88319.30   1.000   P
 BLJI    88324.90   1.000   P
 PWJI    88329.30   1.000   P
 PCJI    88332.50   1.000   P
 SWJI    88334.10   1.000   P
 WOJI    88338.90   1.000   P
 GRJI    88339.40   1.000   P
 NGJI    88340.40   1.000   P
 PWJI    88367.30   1.000   S
 JAGI    88607.70   1.000   P
 GMJI    88610.20   1.000   P
 BLJI    88618.30   1.000   P
 PWJI    88622.10   1.000   P
 SWJI    88626.20   1.000   P
 KMMI    88628.20   1.000   P
 JAGI    88636.70   1.000   S
 GMJI    88641.90   1.000   S
 PWJI    88660.00   1.000   S
 SWJI    88670.30   1.000   S
 JAGI    89887.60   1.000   P
 GMJI    89890.20   1.000   P
 BLJI    89899.10   1.000   P
 PWJI    89901.90   1.000   P
 SWJI    89906.80   1.000   P
 KMMI    89908.30   1.000   P
 GRJI    89911.70   1.000   P
 WOJI    89912.90   1.000   P
 TBJI    89916.90   1.000   P
 KPJI    89938.10   1.000   P
 JAGI    91209.20   1.000   P
 GMJI    91211.20   1.000   P
 BLJI    91219.90   1.000   P
 PWJI    91222.80   1.000   P
 SWJI    91227.60   1.000   P
 WOJI    91233.10   1.000   P
 JAGI    91497.00   1.000   P
 GMJI    91500.30   1.000   P
 BYJI    91501.50   1.000   P
 BLJI    91507.80   1.000   P
 PWJI    91510.70   1.000   P
 SWJI    91516.30   1.000   P
 WOJI    91521.40   1.000   P
 JAGI    91526.70   1.000   S
 GMJI    91531.70   1.000   S
 JAGI    92562.00   1.000   P
 GMJI    92563.90   1.000   P
 PWJI    92574.90   1.000   P
 JAGI    92591.90   1.000   S
 JAGI    93120.80   1.000   P
 GMJI    93123.70   1.000   P
 PWJI    93134.60   1.000   P
 JAGI    93149.00   1.000   S
 GMJI    93153.60   1.000   S
 PWJI    93172.70   1.000   S
 JAGI    94753.90   1.000   P
 GMJI    94756.80   1.000   P
 BYJI    94758.10   1.000   P
 BLJI    94764.80   1.000   P
 PWJI    94767.60   1.000   P
 SWJI    94771.80   1.000   P
 PCJI    94772.20   1.000   P
 KMMI    94773.40   1.000   P
 WOJI    94778.50   1.000   P
 NGJI    94781.00   1.000   P
 JAGI    94782.50   1.000   S
 GMJI    94787.20   1.000   S
 KPJI    94803.80   1.000   P
 WOJI    94823.80   1.000   S
 KPJI    94870.50   1.000   S
 JAGI    97258.50   1.000   P
 GMJI    97261.30   1.000   P
 PWJI    97272.40   1.000   P
 SWJI    97277.60   1.000   P
 JAGI    97284.00   1.000   S
 JAGI    97293.40   1.000   S
 JAGI    98167.40   1.000   P
 GMJI    98170.60   1.000   P
 PWJI    98181.60   1.000   P
 SWJI    98187.00   1.000   P
 JAGI    98192.10   1.000   S
 WOJI    98193.60   1.000   P
 GMJI    98197.00   1.000   S
 WOJI    98238.10   1.000   S
 JAGI   108879.80   1.000   P
 GMJI   108883.00   1.000   P
 PWJI   108893.60   1.000   P
 SWJI   108899.40   1.000   P
 JAGI   108908.50   1.000   S
 PWJI   108933.30   1.000   S
 JAGI   110540.40   1.000   P
 GMJI   110542.80   1.000   P
 BYJI   110545.30   1.000   P
 BLJI   110550.40   1.000   P
 PWJI   110553.00   1.000   P
 PCJI   110558.00   1.000   P
 SWJI   110558.60   1.000   P
 KMMI   110560.20   1.000   P
 GRJI   110564.20   1.000   P
 WOJI   110564.70   1.000   P
 NGJI   110565.10   1.000   P
 TBJI   110568.50   1.000   P
 JAGI   110569.30   1.000   S
 SMRI   110576.70   1.000   P
 KPJI   110589.50   1.000   P
  LEM   110608.00   1.000   P
 JAGI   110985.00   1.000   P
 GMJI   110987.20   1.000   P
 BYJI   110989.70   1.000   P
 BLJI   110995.40   1.000   P
 PWJI   110997.80   1.000   P
 SWJI   111003.40   1.000   P
 PCJI   111003.90   1.000   P
 KMMI   111005.00   1.000   P
 WOJI   111009.40   1.000   P
 NGJI   111009.60   1.000   P
 TBJI   111013.70   1.000   P
 JAGI   111015.90   1.000   S
 GMJI   111020.10   1.000   S
 KPJI   111034.40   1.000   P
 PWJI   111037.90   1.000   S
 JAGI   115754.80   1.000   P
 GMJI   115758.00   1.000   P
 BYJI   115759.20   1.000   P
 BLJI   115765.80   1.000   P
 PWJI   115769.60   1.000   P
 PCJI   115773.20   1.000   P
 SWJI   115773.30   1.000   P
 KMMI   115775.40   1.000   P
 GRJI   115779.80   1.000   P
 WOJI   115780.10   1.000   P
 NGJI   115782.10   1.000   P
 TBJI   115784.40   1.000   P
 SMRI   115792.80   1.000   P
 CTJI   115805.30   1.000   P
 KPJI   115806.20   1.000   P
 CMJI   115807.00   1.000   P
 JCJI   115816.90   1.000   P
  LEM   115823.80   1.000   P
 SKJI   115834.20   1.000   P
 CGJI   115847.50   1.000   P
 JAGI   125308.10   1.000   P
 GMJI   125310.90   1.000   P
 BYJI   125312.00   1.000   P
 PWJI   125323.00   1.000   P
 JAGI   125336.90   1.000   S
 GMJI   125341.90   1.000   S
 PWJI   125362.60   1.000   S
 JAGI   128268.00   1.000   P
 GMJI   128271.10   1.000   P
 BYJI   128272.90   1.000   P
 BLJI   128279.10   1.000   P
 PWJI   128281.50   1.000   P
 PCJI   128286.30   1.000   P
 SWJI   128287.70   1.000   P
 KMMI   128288.70   1.000   P
 WOJI   128291.80   1.000   P
 TBJI   128294.80   1.000   P
 JAGI   128297.70   1.000   S
 GMJI   128301.00   1.000   S
 BYJI   128304.70   1.000   S
 SMRI   128305.30   1.000   P
 KPJI   128317.10   1.000   P
 CMJI   128319.20   1.000   P
 CTJI   128319.40   1.000   P
 PWJI   128321.20   1.000   S
 TBJI   128347.40   1.000   S
 JAGI   132996.50   1.000   P
 GMJI   132999.80   1.000   P
 BLJI   133007.70   1.000   P
 PWJI   133009.90   1.000   P
 SWJI   133015.60   1.000   P
 PCJI   133016.60   1.000   P
 KMMI   133017.60   1.000   P
 WOJI   133021.70   1.000   P
 JAGI   136254.20   1.000   P
 GMJI   136256.40   1.000   P
 BYJI   136259.30   1.000   P
 BLJI   136265.10   1.000   P
 PWJI   136268.00   1.000   P
 PCJI   136272.20   1.000   P
 SWJI   136272.20   1.000   P
 KMMI   136274.80   1.000   P
 WOJI   136277.00   1.000   P
 JAGI   140573.20   1.000   P
 GMJI   140575.40   1.000   P
 JAGI   146800.90   1.000   P
 GMJI   146804.20   1.000   P
 PWJI   146815.80   1.000   P
 GMJI   146834.50   1.000   S
 JAGI   189462.40   1.000   P
 GMJI   189463.50   1.000   P
 BYJI   189467.50   1.000   P
 BLJI   189473.70   1.000   P
 PWJI   189475.90   1.000   P
 SWJI   189482.00   1.000   P
 KMMI   189482.80   1.000   P
 PWJI   189515.30   1.000   S
 JAGI   193797.50   1.000   P
 GMJI   193800.40   1.000   P
 BLJI   193806.70   1.000   P
 PWJI   193811.60   1.000   P
 JAGI   198887.70   1.000   P
 GMJI   198890.40   1.000   P
 PWJI   198901.80   1.000   P
 JAGI   225452.80   1.000   P
 GMJI   225455.60   1.000   P
 BLJI   225462.60   1.000   P
 PWJI   225467.20   1.000   P
 SWJI   225472.60   1.000   P
 WOJI   225479.40   1.000   P
 JAGI   225479.60   1.000   S
 JAGI   225488.20   1.000   S
 PWJI   225505.00   1.000   S
