# 2012 09 11 06 03 38.6  -10.90    113.93     28.0  4.2   0.0   0.0   0.634       291
 JAGI       36.20   1.000   P
 GMJI       39.30   1.000   P
 BLJI       48.30   1.000   P
 PWJI       51.20   1.000   P
 PCJI       56.20   1.000   P
 SWJI       57.10   1.000   P
 KMMI       57.50   1.000   P
 NGJI       63.10   1.000   P
 WOJI       63.40   1.000   P
 JAGI       67.00   1.000   S
 JAGI       80.40   1.000   S
# 2012 09 11 07 48 48.7  -10.87    113.90     31.0  4.7   0.0   0.0   0.644       292
 JAGI       36.50   1.000   P
 GMJI       39.50   1.000   P
 BYJI       41.10   1.000   P
 BLJI       47.40   1.000   P
 PWJI       50.90   1.000   P
 SWJI       55.60   1.000   P
 PCJI       56.40   1.000   P
 KMMI       57.10   1.000   P
 WOJI       61.50   1.000   P
 GRJI       61.90   1.000   P
 NGJI       63.30   1.000   P
 JAGI       65.70   1.000   S
 KPJI       87.70   1.000   P
 CMJI       88.90   1.000   P
 PWJI       91.20   1.000   S
# 2012 09 11 11 47 51.9  -10.87    113.81     10.0  4.2   0.0   0.0   0.580       293
 JAGI       38.80   1.000   P
 PWJI       52.60   1.000   P
 PWJI       91.90   1.000   S
# 2012 09 11 14 08 31.9  -10.89    113.78     62.0  4.6   0.0   0.0   0.926       294
 JAGI       37.00   1.000   P
 GMJI       38.70   1.000   P
 BYJI       41.90   1.000   P
 BLJI       47.80   1.000   P
 PWJI       50.10   1.000   P
 SWJI       54.70   1.000   P
 PCJI       55.50   1.000   P
 KMMI       56.10   1.000   P
 WOJI       59.50   1.000   P
 GRJI       61.70   1.000   P
 JAGI       66.00   1.000   S
 BYJI       74.10   1.000   S
 BLJI       85.10   1.000   S
 KPJI       85.80   1.000   P
 CMJI       85.80   1.000   P
 PWJI       89.10   1.000   S
 SWJI       99.20   1.000   S
 KMMI      100.40   1.000   S
 GRJI      108.70   1.000   S
 CGJI      127.40   1.000   P
# 2012 09 11 14 21 36.8  -10.82    113.74     13.0  4.9   0.0   0.0   1.454       295
 JAGI       38.30   1.000   P
 GMJI       40.30   1.000   P
 BYJI       43.30   1.000   P
 BLJI       49.10   1.000   P
 PWJI       51.80   1.000   P
 PCJI       55.30   1.000   P
 SWJI       56.00   1.000   P
 KMMI       58.50   1.000   P
 WOJI       60.90   1.000   P
 GRJI       63.00   1.000   P
 NGJI       65.10   1.000   P
 TBJI       66.70   1.000   P
 JAGI       68.50   1.000   S
 SMRI       75.60   1.000   P
 BYJI       77.20   1.000   S
 KPJI       84.40   1.000   P
 BLJI       85.40   1.000   S
 CMJI       87.00   1.000   P
 CTJI       88.70   1.000   P
 PWJI       91.70   1.000   S
 PCJI       97.00   1.000   S
 SWJI       99.30   1.000   S
 KMMI      102.00   1.000   S
  LEM      106.40   1.000   P
 WOJI      107.20   1.000   S
 GRJI      109.90   1.000   S
 TBJI      118.40   1.000   S
 SBJI      127.70   1.000   P
 CGJI      129.90   1.000   P
# 2012 09 11 14 28 06.1  -10.73    113.80     21.0  4.2   0.0   0.0   0.575       296
 JAGI       36.10   1.000   P
 GMJI       38.80   1.000   P
 BYJI       40.80   1.000   P
 PWJI       49.30   1.000   P
 SWJI       54.70   1.000   P
 PCJI       55.40   1.000   P
 WOJI       60.80   1.000   P
 GMJI       68.80   1.000   S
 PWJI       88.70   1.000   S
 PCJI       96.50   1.000   S
# 2012 09 11 14 32 09.6  -10.87    113.76     27.0  4.2   0.0   0.0   0.686       297
 JAGI       36.80   1.000   P
 GMJI       38.90   1.000   P
 BYJI       41.40   1.000   P
 BLJI       48.00   1.000   P
 PWJI       49.90   1.000   P
 PCJI       54.40   1.000   P
 SWJI       55.60   1.000   P
 KMMI       57.70   1.000   P
 WOJI       60.70   1.000   P
 GRJI       61.60   1.000   P
 GMJI       71.10   1.000   S
 BYJI       74.80   1.000   S
 BLJI       85.40   1.000   S
 PWJI       89.40   1.000   S
 KMMI      101.50   1.000   S
 GRJI      108.80   1.000   S
# 2012 09 11 14 55 49.6  -10.78    113.96     18.0  3.8   0.0   0.0   0.713       298
 JAGI       36.50   1.000   P
 GMJI       39.20   1.000   P
 BYJI       40.60   1.000   P
 PWJI       51.70   1.000   P
 JAGI       66.00   1.000   S
 PWJI       90.80   1.000   S
# 2012 09 11 15 04 22.8  -10.77    113.87     17.0  3.5   0.0   0.0   0.594       299
 JAGI       36.20   1.000   P
 GMJI       39.70   1.000   P
 PWJI       50.90   1.000   P
 JAGI       65.60   1.000   S
 PWJI       90.00   1.000   S
# 2012 09 11 15 06 35.4  -10.90    113.85     15.0  3.6   0.0   0.0   0.617       300
 JAGI       38.50   1.000   P
 GMJI       41.30   1.000   P
 PWJI       52.60   1.000   P
 PWJI       91.70   1.000   S
# 2012 09 11 15 08 40.1  -10.83    113.84     32.0  3.6   0.0   0.0   0.670       301
 JAGI       35.70   1.000   P
 GMJI       38.70   1.000   P
 PWJI       49.30   1.000   P
 SWJI       55.20   1.000   P
 WOJI       60.60   1.000   P
 JAGI       65.90   1.000   S
 PWJI       88.60   1.000   S
 SWJI       97.70   1.000   S
# 2012 09 11 20 27 43.9  -10.66    113.91     19.0  3.9   0.0   0.0   0.767       302
 JAGI       35.20   1.000   P
 GMJI       37.80   1.000   P
 BYJI       38.30   1.000   P
 BLJI       46.10   1.000   P
 PWJI       49.80   1.000   P
 SWJI       53.90   1.000   P
 PCJI       55.70   1.000   P
 JAGI       62.30   1.000   S
 GMJI       67.70   1.000   S
 BLJI       82.50   1.000   S
 PWJI       88.90   1.000   S
# 2012 09 11 21 21 59.8  -10.70    113.93     19.0  4.3   0.0   0.0   0.742       303
 JAGI       36.40   1.000   P
 GMJI       38.70   1.000   P
 BLJI       47.10   1.000   P
 PWJI       50.70   1.000   P
 JAGI       63.40   1.000   S
 GMJI       67.60   1.000   S
 BLJI       81.60   1.000   S
 PWJI       89.30   1.000   S
# 2012 09 12 03 05 35.2  -10.82    113.89     87.0  4.4   0.0   0.0   0.743       304
 JAGI       36.20   1.000   P
 GMJI       39.10   1.000   P
 BYJI       40.90   1.000   P
 BLJI       47.10   1.000   P
 PWJI       50.30   1.000   P
 PCJI       54.90   1.000   P
 KMMI       55.80   1.000   P
 SWJI       56.50   1.000   P
 WOJI       59.80   1.000   P
 BLJI       83.10   1.000   S
 PWJI       89.30   1.000   S
 SWJI       98.40   1.000   S
# 2012 09 12 12 30 34.9  -10.79    113.89     31.0  4.0   0.0   0.0   0.434       305
 JAGI       35.70   1.000   P
 GMJI       39.20   1.000   P
 BLJI       45.90   1.000   P
 PWJI       49.50   1.000   P
 SWJI       55.20   1.000   P
 PCJI       55.30   1.000   P
 JAGI       64.40   1.000   S
 GMJI       68.50   1.000   S
# 2012 09 12 18 50 09.4  -10.67    113.71     24.0  3.7   0.0   0.0   0.478       306
 JAGI       35.40   1.000   P
 GMJI       36.70   1.000   P
 BLJI       45.00   1.000   P
 PWJI       47.40   1.000   P
 SWJI       52.50   1.000   P
 PCJI       53.20   1.000   P
# 2012 09 12 20 32 44.9  -10.69    113.88     10.0  4.2   0.0   0.0   0.640       307
 JAGI       37.10   1.000   P
 GMJI       39.90   1.000   P
 BLJI       47.50   1.000   P
 PWJI       51.20   1.000   P
 SWJI       55.40   1.000   P
 PCJI       56.00   1.000   P
 KMMI       57.50   1.000   P
 WOJI       62.30   1.000   P
 PWJI       89.40   1.000   S
# 2012 09 13 01 40 32.8  -10.62    113.97     10.0  4.0   0.0   0.0   0.429       308
 JAGI       35.90   1.000   P
 GMJI       38.80   1.000   P
 BYJI       39.80   1.000   P
 BLJI       46.20   1.000   P
 PWJI       50.90   1.000   P
 KMMI       56.00   1.000   P
 SWJI       56.30   1.000   P
 WOJI       61.80   1.000   P
 JAGI       63.30   1.000   S
 GMJI       69.20   1.000   S
 BYJI       70.30   1.000   S
# 2012 09 13 05 15 03.4  -10.76    113.90     21.0  4.4   0.0   0.0   0.507       309
 JAGI       35.70   1.000   P
 BYJI       40.00   1.000   P
 GMJI       40.00   1.000   P
 BLJI       46.20   1.000   P
 PWJI       49.70   1.000   P
 SWJI       54.00   1.000   P
 KMMI       55.40   1.000   P
 PCJI       55.40   1.000   P
 NGJI       62.70   1.000   P
 WOJI       62.70   1.000   P
 JAGI       64.80   1.000   S
 KPJI       87.00   1.000   P
# 2012 09 13 05 15 04.8  -10.69    113.85    100.0  4.4   0.0   0.0   1.255       310
 JAGI       34.90   1.000   P
 GMJI       38.10   1.000   P
 BYJI       40.00   1.000   P
 BLJI       46.60   1.000   P
 PWJI       49.70   1.000   P
 JAGI       63.50   1.000   S
 GMJI       67.60   1.000   S
 BLJI       80.40   1.000   S
 PWJI       88.60   1.000   S
 WOJI      104.80   1.000   P
# 2012 09 13 06 22 50.1  -10.95    113.92     21.0  4.0   0.0   0.0   0.616       311
 JAGI       38.50   1.000   P
 GMJI       40.90   1.000   P
 BLJI       48.90   1.000   P
 PWJI       52.80   1.000   P
 WOJI       63.70   1.000   P
 JAGI       69.10   1.000   S
 GMJI       74.90   1.000   S
 BLJI       87.20   1.000   S
# 2012 09 13 09 20 07.8  -10.83    113.91     10.0  4.1   0.0   0.0   0.444       312
 JAGI       38.20   1.000   P
 GMJI       41.00   1.000   P
 BLJI       49.50   1.000   P
 JAGI       68.30   1.000   S
 BLJI       86.90   1.000   S
# 2012 09 13 12 58 16.4  -10.80    113.77     36.0  4.5   0.0   0.0   0.565       313
 JAGI       36.20   1.000   P
 GMJI       38.60   1.000   P
 BLJI       46.70   1.000   P
 PWJI       48.70   1.000   P
 SWJI       53.40   1.000   P
 PCJI       53.70   1.000   P
 SWJI       97.00   1.000   S
# 2012 09 13 17 59 47.1  -10.89    113.72     21.0  4.0   0.0   0.0   0.505       314
 BLJI       47.70   1.000   P
 PCJI       55.40   1.000   P
 SWJI       55.90   1.000   P
 WOJI       61.70   1.000   P
 JAGI       68.50   1.000   P
 PWJI       89.90   1.000   P
# 2012 09 13 23 40 04.5  -10.87    113.66     19.0  5.1   0.0   0.0   1.526       315
 JAGI       37.90   1.000   P
 GMJI       39.80   1.000   P
 BYJI       43.00   1.000   P
 BLJI       48.40   1.000   P
 PWJI       50.60   1.000   P
 SWJI       54.70   1.000   P
 PCJI       54.90   1.000   P
 KMMI       58.90   1.000   P
 WOJI       59.50   1.000   P
 GRJI       62.00   1.000   P
 NGJI       63.00   1.000   P
 JAGI       67.10   1.000   S
 SMRI       75.20   1.000   P
 BYJI       76.80   1.000   S
 KPJI       86.20   1.000   P
 CMJI       86.70   1.000   P
 CTJI       87.00   1.000   P
 PWJI       88.90   1.000   S
 SKJI      115.30   1.000   P
 CGJI      127.50   1.000   P
 SBJI      127.60   1.000   P
# 2012 09 14 00 20 15.1  -10.66    113.77     15.0  4.1   0.0   0.0   0.840       316
 JAGI       35.20   1.000   P
 GMJI       37.80   1.000   P
 BLJI       46.70   1.000   P
 PWJI       48.70   1.000   P
 SWJI       54.50   1.000   P
 WOJI       60.00   1.000   P
 JAGI       64.10   1.000   S
 GMJI       68.40   1.000   S
# 2012 09 14 01 49 04.8  -10.93    113.95     26.0  3.8   0.0   0.0   0.491       317
 JAGI       37.60   1.000   P
 GMJI       40.50   1.000   P
 PWJI       52.40   1.000   P
 PCJI       57.50   1.000   P
# 2012 09 14 02 31 38.8  -10.81    113.94     34.0  3.7   0.0   0.0   0.312       318
 JAGI       36.00   1.000   P
 GMJI       38.60   1.000   P
 PWJI       49.90   1.000   P
 PCJI       55.90   1.000   P
 JAGI       64.20   1.000   S
 GMJI       70.50   1.000   S
# 2012 09 14 02 58 35.8  -10.78    113.84     22.0  3.9   0.0   0.0   0.328       319
 JAGI       36.90   1.000   P
 GMJI       39.50   1.000   P
 BYJI       40.80   1.000   P
 BLJI       46.50   1.000   P
 PWJI       50.10   1.000   P
 JAGI       65.00   1.000   S
# 2012 09 14 04 50 15.2  -07.17    113.07     10.0  2.9   0.0   0.0   0.408       320
 GRJI       13.00   1.000   P
 BLJI       15.00   1.000   P
 KMMI       16.30   1.000   P
 GMJI       21.80   1.000   P
 GRJI       21.90   1.000   S
 TBJI       23.60   1.000   P
 SWJI       25.70   1.000   P
 PWJI       27.50   1.000   P
 JAGI       29.10   1.000   P
 PCJI       35.80   1.000   P
 GMJI       37.60   1.000   S
# 2012 09 14 06 50 21.2  -09.08    110.38     29.0  3.0   0.0   0.0   0.915       321
 PCJI       19.30   1.000   P
 WOJI       21.70   1.000   P
 PWJI       28.00   1.000   P
 SWJI       30.90   1.000   P
 KPJI       35.90   1.000   P
 PCJI       37.70   1.000   S
 WOJI       40.40   1.000   S
 SWJI       53.20   1.000   S
# 2012 09 14 12 40 37.5  -10.80    113.76     17.0  4.1   0.0   0.0   0.889       322
 JAGI       36.90   1.000   P
 GMJI       39.10   1.000   P
 BYJI       42.20   1.000   P
 BLJI       47.30   1.000   P
 PWJI       50.00   1.000   P
 SWJI       54.40   1.000   P
 PCJI       55.10   1.000   P
 KMMI       57.20   1.000   P
 WOJI       60.70   1.000   P
 GRJI       61.40   1.000   P
 JAGI       67.80   1.000   S
 JAGI       76.00   1.000   S
 KPJI       87.10   1.000   P
# 2012 09 15 01 57 14.2  -10.71    113.73     13.0  4.3   0.0   0.0   0.573       323
 JAGI       36.80   1.000   P
 GMJI       38.40   1.000   P
 BYJI       41.50   1.000   P
 BLJI       47.60   1.000   P
 PWJI       49.60   1.000   P
 PCJI       54.50   1.000   P
 SWJI       54.70   1.000   P
 KMMI       56.60   1.000   P
 GRJI       60.50   1.000   P
 NGJI       60.80   1.000   P
 WOJI       60.80   1.000   P
 TBJI       65.20   1.000   P
 JAGI       65.70   1.000   S
 GMJI       69.30   1.000   S
 KPJI       86.20   1.000   P
# 2012 09 15 02 05 07.4  -10.88    113.70     36.0  4.2   0.0   0.0   0.564       324
 JAGI       36.40   1.000   P
 GMJI       39.00   1.000   P
 BYJI       41.70   1.000   P
 BLJI       47.20   1.000   P
 PWJI       49.30   1.000   P
 PCJI       53.50   1.000   P
 SWJI       54.60   1.000   P
 KMMI       56.90   1.000   P
 WOJI       61.10   1.000   P
 JAGI       66.40   1.000   S
 KPJI       84.70   1.000   P
 CMJI       86.40   1.000   P
# 2012 09 15 02 08 23.1  -10.26    113.80    163.0  4.0   0.0   0.0   0.386       325
 JAGI       34.30   1.000   P
 GMJI       35.70   1.000   P
 BYJI       37.50   1.000   P
 BLJI       42.50   1.000   P
 PWJI       45.90   1.000   P
 SWJI       50.40   1.000   P
 PCJI       51.80   1.000   P
 KPJI       82.30   1.000   P
# 2012 09 15 06 42 47.2  -09.01    110.38     10.0  3.7   0.0   0.0   0.487       326
 PCJI       20.00   1.000   P
 WOJI       23.70   1.000   P
 PWJI       28.60   1.000   P
 SWJI       31.70   1.000   P
 SMRI       33.30   1.000   P
 NGJI       33.40   1.000   P
 KPJI       37.20   1.000   P
 CTJI       38.90   1.000   P
 GMJI       49.50   1.000   P
 JAGI       58.60   1.000   P
# 2012 09 15 06 57 30.8  -08.99    110.32     10.0  3.8   0.0   0.0   0.856       327
 PCJI       20.20   1.000   P
 WOJI       23.40   1.000   P
 PWJI       29.00   1.000   P
 SWJI       32.20   1.000   P
 SMRI       33.20   1.000   P
 CMJI       35.00   1.000   P
 KPJI       36.50   1.000   P
 CTJI       39.40   1.000   P
 GMJI       50.40   1.000   P
 BLJI       55.00   1.000   P
 JAGI       59.60   1.000   P
# 2012 09 15 07 00 00.4  -10.96    113.70     10.0  4.0   0.0   0.0   0.634       328
 JAGI       39.90   1.000   P
 GMJI       42.80   1.000   P
 BLJI       51.70   1.000   P
 PWJI       52.70   1.000   P
 SWJI       57.60   1.000   P
 PCJI       57.70   1.000   P
# 2012 09 15 09 02 56.1  -10.97    113.71     10.0  4.4   0.0   0.0   0.743       329
 JAGI       40.10   1.000   P
 GMJI       42.80   1.000   P
 BLJI       50.80   1.000   P
 PWJI       53.20   1.000   P
 SWJI       57.50   1.000   P
 PCJI       57.70   1.000   P
 WOJI       63.00   1.000   P
 KPJI       89.20   1.000   P
# 2012 09 15 09 03 01.9  -10.40    113.82    143.0  4.2   0.0   0.0   0.691       330
 JAGI       33.80   1.000   P
 GMJI       36.60   1.000   P
 BYJI       38.00   1.000   P
 BLJI       41.40   1.000   P
 PWJI       47.00   1.000   P
 KMMI       51.40   1.000   P
 SWJI       52.40   1.000   P
 PCJI       53.40   1.000   P
 GRJI       56.80   1.000   P
 WOJI       57.10   1.000   P
 JAGI       60.80   1.000   S
 GMJI       64.60   1.000   S
 KPJI       83.40   1.000   P
 CMJI       84.10   1.000   P
# 2012 09 15 09 35 37.2  -09.17    110.29     10.0  4.1   0.0   0.0   0.587       331
 WOJI       24.80   1.000   P
 PWJI       30.50   1.000   P
 SWJI       33.60   1.000   P
 NGJI       35.70   1.000   P
 SMRI       36.10   1.000   P
 CMJI       36.60   1.000   P
 KPJI       37.60   1.000   P
 CTJI       40.40   1.000   P
 GMJI       50.90   1.000   P
 BLJI       55.50   1.000   P
 JAGI       59.40   1.000   P
# 2012 09 15 12 33 00.2  -10.69    113.79     10.0  3.8   0.0   0.0   0.321       332
 JAGI       37.20   1.000   P
 GMJI       39.80   1.000   P
 BYJI       41.10   1.000   P
 PWJI       49.90   1.000   P
 SWJI       55.00   1.000   P
 KMMI       55.40   1.000   P
 PCJI       55.50   1.000   P
 WOJI       61.40   1.000   P
 JAGI       65.90   1.000   S
 GMJI       70.40   1.000   S
 PWJI       87.80   1.000   S
# 2012 09 15 16 24 15.6  -10.20    113.70    130.0  3.6   0.0   0.0   1.031       333
 JAGI       31.30   1.000   P
 GMJI       33.50   1.000   P
 BLJI       38.10   1.000   P
 PWJI       43.50   1.000   P
 SWJI       48.90   1.000   P
 GMJI       57.80   1.000   S
# 2012 09 15 16 32 24.4  -10.83    113.79     29.0  5.7   0.0   0.0   1.446       334
 JAGI       36.10   1.000   P
 GMJI       38.00   1.000   P
 BYJI       40.90   1.000   P
 BLJI       47.20   1.000   P
 PWJI       50.40   1.000   P
 SWJI       54.40   1.000   P
 PCJI       55.20   1.000   P
 KMMI       56.70   1.000   P
 WOJI       60.50   1.000   P
 GRJI       60.80   1.000   P
 NGJI       63.20   1.000   P
 TBJI       65.80   1.000   P
 JAGI       66.90   1.000   S
 GMJI       70.90   1.000   S
 SMRI       74.60   1.000   P
 BYJI       74.90   1.000   S
 BLJI       84.40   1.000   S
 CTJI       85.30   1.000   P
 CMJI       85.80   1.000   P
 KPJI       85.80   1.000   P
 PWJI       88.90   1.000   S
 JCJI       98.70   1.000   P
 WOJI      105.50   1.000   S
 SKJI      116.90   1.000   P
 CGJI      127.40   1.000   P
 SBJI      127.50   1.000   P
# 2012 09 15 17 01 30.9  -10.82    113.77     17.0  4.4   0.0   0.0   0.662       335
 JAGI       38.00   1.000   P
 BYJI       42.70   1.000   P
 BLJI       48.00   1.000   P
 PWJI       50.00   1.000   P
 SWJI       55.70   1.000   P
 PCJI       56.10   1.000   P
 KMMI       58.00   1.000   P
 WOJI       61.00   1.000   P
# 2012 09 15 17 14 30.3  -10.56    113.83    114.0  4.1   0.0   0.0   1.032       336
 JAGI       34.00   1.000   P
 GMJI       36.90   1.000   P
 BYJI       38.50   1.000   P
 BLJI       45.30   1.000   P
 PWJI       47.60   1.000   P
 KMMI       51.70   1.000   P
 PCJI       53.80   1.000   P
 WOJI       59.50   1.000   P
 JAGI       61.80   1.000   S
 GMJI       66.60   1.000   S
 BYJI       68.00   1.000   S
 KPJI       85.60   1.000   P
 WOJI      103.20   1.000   S
# 2012 09 15 17 25 48.7  -10.82    113.92     76.0  4.1   0.0   0.0   1.147       337
 JAGI       35.50   1.000   P
 GMJI       38.10   1.000   P
 BYJI       40.40   1.000   P
 BLJI       45.80   1.000   P
 PWJI       49.10   1.000   P
 KMMI       55.40   1.000   P
 WOJI       59.70   1.000   P
 JAGI       62.80   1.000   S
 BLJI       82.70   1.000   S
# 2012 09 15 17 33 39.5  -10.60    113.90     10.0  4.7   0.0   0.0   0.938       338
 JAGI       36.00   1.000   P
 GMJI       38.50   1.000   P
 BLJI       46.80   1.000   P
 PWJI       50.60   1.000   P
 SWJI       53.10   1.000   P
 WOJI       61.30   1.000   P
 JAGI       63.20   1.000   S
 GMJI       68.30   1.000   S
 BLJI       80.70   1.000   S
 KPJI       88.80   1.000   P
 PWJI       89.20   1.000   S
 SWJI       97.90   1.000   S
# 2012 09 15 17 35 43.9  -10.92    113.84     58.0  5.1   0.0   0.0   1.266       339
 JAGI       36.90   1.000   P
 GMJI       38.60   1.000   P
 BYJI       41.30   1.000   P
 BLJI       47.40   1.000   P
 PWJI       51.20   1.000   P
 PCJI       55.50   1.000   P
 SWJI       55.80   1.000   P
 KMMI       57.70   1.000   P
 GRJI       61.60   1.000   P
 WOJI       61.60   1.000   P
 NGJI       63.20   1.000   P
 JAGI       66.00   1.000   S
 TBJI       66.10   1.000   P
 GMJI       71.00   1.000   S
 SMRI       75.60   1.000   P
 BLJI       84.30   1.000   S
 KPJI       87.10   1.000   P
 CTJI       87.50   1.000   P
 CMJI       87.70   1.000   P
 PWJI       89.90   1.000   S
 SWJI      100.70   1.000   S
 GRJI      108.00   1.000   S
 TBJI      116.50   1.000   S
 CGJI      127.70   1.000   P
 KPJI      151.90   1.000   S
