# 2012 09 15 18 37 27.6  -10.04    113.85    149.0  3.7   0.0   0.0   1.017       340
 BYJI       35.70   1.000   P
 JAGI       55.70   1.000   P
 GMJI       58.90   1.000   P
 PWJI       77.40   1.000   P
# 2012 09 15 19 10 49.6  -10.44    113.81    144.0  4.0   0.0   0.0   0.889       341
 JAGI       35.20   1.000   P
 GMJI       36.60   1.000   P
 BYJI       38.30   1.000   P
 BLJI       42.10   1.000   P
 PCJI       52.60   1.000   P
 WOJI       58.10   1.000   P
 JAGI       61.20   1.000   S
 GMJI       65.70   1.000   S
 PCJI       93.20   1.000   S
 WOJI      103.40   1.000   S
# 2012 09 15 19 15 31.7  -10.75    113.88     24.0  4.0   0.0   0.0   0.557       342
 JAGI       35.50   1.000   P
 GMJI       37.90   1.000   P
 BYJI       40.20   1.000   P
 BLJI       46.70   1.000   P
 PWJI       49.70   1.000   P
 KMMI       56.20   1.000   P
 PWJI       88.30   1.000   S
# 2012 09 15 19 32 24.3  -10.76    113.84     32.0  4.2   0.0   0.0   0.649       343
 JAGI       35.20   1.000   P
 GMJI       37.10   1.000   P
 BLJI       46.30   1.000   P
 PWJI       49.30   1.000   P
# 2012 09 16 00 01 08.5  -10.67    113.92     10.0  3.8   0.0   0.0   0.733       344
 JAGI       37.00   1.000   P
 GMJI       38.80   1.000   P
 BYJI       39.90   1.000   P
 BLJI       45.80   1.000   P
 PWJI       50.70   1.000   P
 KMMI       57.30   1.000   P
# 2012 09 16 00 01 11.6  -10.63    113.77     78.0  3.8   0.0   0.0   0.577       345
 JAGI       33.90   1.000   P
 GMJI       36.40   1.000   P
 BLJI       43.60   1.000   P
 PWJI       47.60   1.000   P
 GMJI       65.30   1.000   S
 BLJI       77.70   1.000   S
 PWJI       82.00   1.000   S
# 2012 09 16 01 43 18.9  -10.42    113.76     92.0  3.9   0.0   0.0   0.933       346
 JAGI       30.90   1.000   P
 GMJI       33.10   1.000   P
 BYJI       36.00   1.000   P
 BLJI       41.90   1.000   P
 PWJI       45.40   1.000   P
 SWJI       49.50   1.000   P
 PCJI       50.60   1.000   P
 WOJI       57.30   1.000   P
 PCJI       89.20   1.000   S
 SWJI       89.90   1.000   S
 WOJI       99.50   1.000   S
# 2012 09 16 02 22 52.6  -10.82    113.97     22.0  4.0   0.0   0.0   0.615       347
 JAGI       36.30   1.000   P
 GMJI       39.60   1.000   P
 BYJI       41.30   1.000   P
 BLJI       47.70   1.000   P
 PWJI       52.10   1.000   P
 SWJI       56.40   1.000   P
 KMMI       57.50   1.000   P
 JAGI       65.80   1.000   S
 BLJI       84.30   1.000   S
 PWJI       91.10   1.000   S
# 2012 09 16 07 59 15.4  -10.69    113.87     14.0  3.8   0.0   0.0   0.540       348
 JAGI       36.50   1.000   P
 GMJI       39.10   1.000   P
 BLJI       45.90   1.000   P
 PWJI       50.70   1.000   P
 JAGI       65.60   1.000   S
 GMJI       68.70   1.000   S
# 2012 09 16 13 13 34.2  -10.76    113.73     25.0  4.6   0.0   0.0   0.971       349
 JAGI       36.80   1.000   P
 GMJI       38.70   1.000   P
 BYJI       41.30   1.000   P
 BLJI       47.20   1.000   P
 PWJI       49.70   1.000   P
 SWJI       55.40   1.000   P
 PCJI       55.90   1.000   P
 WOJI       58.70   1.000   P
 GRJI       60.60   1.000   P
 JAGI       65.30   1.000   S
 GMJI       67.70   1.000   S
 KPJI       85.10   1.000   P
 PWJI       87.60   1.000   S
 GRJI      107.20   1.000   S
 CGJI      126.20   1.000   P
# 2012 09 16 14 40 37.6  -10.66    113.82     23.0  3.6   0.0   0.0   0.836       350
 JAGI       34.70   1.000   P
 GMJI       36.30   1.000   P
 PWJI       48.50   1.000   P
 SWJI       53.00   1.000   P
 JAGI       63.20   1.000   S
 GMJI       65.40   1.000   S
 PWJI       85.10   1.000   S
 SWJI       95.00   1.000   S
# 2012 09 16 15 32 55.9  -10.86    113.75     27.0  4.8   0.0   0.0   1.022       351
 JAGI       37.40   1.000   P
 GMJI       39.00   1.000   P
 BYJI       42.50   1.000   P
 BLJI       48.20   1.000   P
 PWJI       50.90   1.000   P
 SWJI       54.80   1.000   P
 PCJI       55.00   1.000   P
 KMMI       58.20   1.000   P
 WOJI       61.20   1.000   P
 GRJI       62.30   1.000   P
 JAGI       65.70   1.000   S
 GMJI       69.40   1.000   S
 BLJI       84.20   1.000   S
 CMJI       86.20   1.000   P
 KPJI       86.40   1.000   P
 PWJI       89.60   1.000   S
 SWJI       97.90   1.000   S
 KMMI      100.30   1.000   S
  LEM      105.60   1.000   P
 GRJI      108.80   1.000   S
 SKJI      114.70   1.000   P
 CGJI      127.50   1.000   P
# 2012 09 17 10 31 20.3  -10.71    113.91    119.0  4.0   0.0   0.0   0.919       352
 JAGI       35.60   1.000   P
 GMJI       37.50   1.000   P
 BLJI       44.90   1.000   P
 ABJI       46.70   1.000   P
 PWJI       49.90   1.000   P
 PCJI       54.90   1.000   P
 WOJI       60.60   1.000   P
 JAGI       65.70   1.000   S
 GMJI       69.60   1.000   S
 PWJI       88.80   1.000   S
 KPJI      152.40   1.000   P
# 2012 09 17 12 54 40.8  -10.67    113.88     10.0  3.7   0.0   0.0   0.666       353
 JAGI       34.50   1.000   P
 GMJI       38.10   1.000   P
 BYJI       39.60   1.000   P
 ABJI       45.20   1.000   P
 PWJI       49.80   1.000   P
 KMMI       56.20   1.000   P
# 2012 09 17 13 27 27.9  -10.85    113.86     91.0  4.8   0.0   0.0   1.080       354
 JAGI       36.60   1.000   P
 GMJI       39.50   1.000   P
 BYJI       41.30   1.000   P
 ABJI       47.60   1.000   P
 BLJI       47.60   1.000   P
 PWJI       51.00   1.000   P
 PCJI       54.60   1.000   P
 SWJI       56.40   1.000   P
 KMMI       57.10   1.000   P
 WOJI       61.20   1.000   P
 GRJI       61.90   1.000   P
 JAGI       65.20   1.000   S
 GMJI       70.10   1.000   S
 CMJI       87.10   1.000   P
 KPJI       87.10   1.000   P
 CTJI       88.50   1.000   P
 PWJI       89.90   1.000   S
 GRJI      108.50   1.000   S
 CGJI      128.00   1.000   P
# 2012 09 17 14 19 26.3  -10.82    113.82     18.0  4.8   0.0   0.0   1.073       355
 JAGI       36.70   1.000   P
 GMJI       39.10   1.000   P
 BYJI       41.50   1.000   P
 BLJI       47.60   1.000   P
 PWJI       49.90   1.000   P
 SWJI       54.70   1.000   P
 KMMI       57.30   1.000   P
 GRJI       61.70   1.000   P
 JAGI       65.70   1.000   S
 KPJI       88.70   1.000   P
 PWJI       89.20   1.000   S
 CGJI      129.70   1.000   P
# 2012 09 17 16 35 08.9  -11.46    113.50     93.0  3.9   0.0   0.0   0.385       356
 JAGI       46.10   1.000   P
 GMJI       48.60   1.000   P
 BLJI       54.20   1.000   P
# 2012 09 17 18 03 45.1  -10.69    113.84     10.0  4.2   0.0   0.0   0.764       357
 JAGI       37.00   1.000   P
 GMJI       39.90   1.000   P
 BLJI       48.30   1.000   P
 PCJI       55.30   1.000   P
 SWJI       56.00   1.000   P
 WOJI       62.50   1.000   P
 JAGI       65.30   1.000   S
 GMJI       68.80   1.000   S
 BYJI       73.20   1.000   P
 KPJI       87.30   1.000   P
 CMJI       88.10   1.000   P
# 2012 09 17 18 03 46.6  -10.66    113.92     17.0  4.0   0.0   0.0   0.779       358
 JAGI       35.20   1.000   P
 GMJI       37.80   1.000   P
 BYJI       39.70   1.000   P
 BLJI       46.60   1.000   P
 PWJI       49.90   1.000   P
 SWJI       54.40   1.000   P
 PCJI       54.90   1.000   P
 WOJI       61.10   1.000   P
 GRJI       61.20   1.000   P
 JAGI       61.90   1.000   S
 KPJI       87.50   1.000   P
 PWJI       89.90   1.000   S
# 2012 09 17 20 28 32.7  -10.80    113.93     33.0  4.5   0.0   0.0   0.767       359
 JAGI       35.20   1.000   P
 GMJI       38.90   1.000   P
 BYJI       39.90   1.000   P
 BLJI       46.90   1.000   P
 PWJI       50.30   1.000   P
 KMMI       55.40   1.000   P
 SWJI       56.50   1.000   P
 WOJI       60.50   1.000   P
 BYJI       71.00   1.000   S
 BLJI       81.30   1.000   S
 KPJI       87.70   1.000   P
 PWJI       89.70   1.000   S
 JCJI       99.20   1.000   P
# 2012 09 17 21 13 36.2  -10.68    113.94     13.0  4.1   0.0   0.0   0.907       360
 JAGI       35.90   1.000   P
 GMJI       39.30   1.000   P
 BLJI       47.20   1.000   P
 PWJI       51.80   1.000   P
 SWJI       53.80   1.000   P
 WOJI       60.90   1.000   P
 JAGI       63.20   1.000   S
 GMJI       69.80   1.000   S
 KPJI       88.40   1.000   P
# 2012 09 17 22 42 33.3  -10.63    113.96    118.0  3.9   0.0   0.0   0.900       361
 JAGI       34.80   1.000   P
 GMJI       38.30   1.000   P
 BLJI       45.60   1.000   P
 PWJI       50.20   1.000   P
 SWJI       54.50   1.000   P
 WOJI       60.20   1.000   P
 JAGI       61.90   1.000   S
 PWJI       88.60   1.000   S
 WOJI      105.90   1.000   S
# 2012 09 18 01 02 53.5  -10.78    113.98     80.0  3.9   0.0   0.0   0.585       362
 JAGI       35.40   1.000   P
 GMJI       38.30   1.000   P
 BLJI       46.30   1.000   P
 PWJI       49.40   1.000   P
 SWJI       55.90   1.000   P
 WOJI       61.60   1.000   P
 JAGI       64.10   1.000   S
 PWJI       88.90   1.000   S
# 2012 09 18 06 42 27.8  -10.85    113.92     30.0  5.0   0.0   0.0   0.701       363
 JAGI       37.30   1.000   P
 GMJI       39.90   1.000   P
 BYJI       41.70   1.000   P
 BLJI       48.00   1.000   P
 PWJI       51.90   1.000   P
 PCJI       54.90   1.000   P
 SWJI       56.00   1.000   P
 KMMI       57.50   1.000   P
 NGJI       61.30   1.000   P
 GRJI       62.40   1.000   P
 WOJI       62.90   1.000   P
 JAGI       64.60   1.000   S
 TBJI       66.10   1.000   P
 BYJI       72.60   1.000   S
 SMRI       75.80   1.000   P
 BLJI       83.50   1.000   S
 KPJI       88.00   1.000   P
 CMJI       89.00   1.000   P
  LEM      106.10   1.000   P
 SKJI      117.70   1.000   P
 CGJI      129.90   1.000   P
# 2012 09 18 15 39 47.8  -09.44    113.84     10.0  3.0   0.0   0.0   0.420       364
 JAGI       18.80   1.000   P
 GMJI       22.80   1.000   P
 BLJI       29.20   1.000   P
 JAGI       32.60   1.000   S
 PWJI       38.70   1.000   P
 KMMI       39.50   1.000   P
 GMJI       39.60   1.000   S
 BLJI       51.90   1.000   S
# 2012 09 19 05 16 22.8  -08.54    113.25     91.0  3.8   0.0   0.0   0.757       365
 GMJI       14.30   1.000   P
 JAGI       18.30   1.000   P
 BLJI       18.30   1.000   P
 BYJI       22.30   1.000   P
 ABJI       22.50   1.000   P
 PWJI       25.60   1.000   P
 GMJI       25.90   1.000   S
 KMMI       27.30   1.000   P
 SWJI       27.90   1.000   P
 JAGI       32.50   1.000   S
 PCJI       33.30   1.000   P
 WOJI       38.10   1.000   P
 BYJI       39.80   1.000   S
 ABJI       41.10   1.000   S
 PWJI       45.70   1.000   S
 PCJI       59.10   1.000   S
# 2012 09 19 14 04 31.7  -10.80    113.93     17.0  3.9   0.0   0.0   0.327       366
 JAGI       37.30   1.000   P
 GMJI       40.60   1.000   P
 BYJI       41.40   1.000   P
 BLJI       47.50   1.000   P
 PWJI       51.50   1.000   P
 SWJI       56.10   1.000   P
 KMMI       56.90   1.000   P
 WOJI       62.30   1.000   P
 NGJI       63.40   1.000   P
 JAGI       66.60   1.000   S
 BLJI       84.50   1.000   S
 BLJI      101.20   1.000   S
# 2012 09 19 21 23 39.6  -10.75    113.74     21.0  3.8   0.0   0.0   0.696       367
 JAGI       36.10   1.000   P
 GMJI       39.70   1.000   P
 BYJI       40.50   1.000   P
 BLJI       46.00   1.000   P
 PWJI       49.60   1.000   P
 PCJI       54.30   1.000   P
 SWJI       54.40   1.000   P
 KMMI       55.60   1.000   P
 WOJI       59.20   1.000   P
 JAGI       65.60   1.000   S
# 2012 09 20 06 29 55.1  -10.71    113.87     54.0  4.3   0.0   0.0   0.764       368
 JAGI       34.70   1.000   P
 GMJI       37.00   1.000   P
 BYJI       39.30   1.000   P
 BLJI       45.70   1.000   P
 PWJI       49.30   1.000   P
 WOJI       60.20   1.000   P
 JAGI       61.70   1.000   S
 CMJI       87.30   1.000   P
 CGJI      128.30   1.000   P
# 2012 09 20 07 51 55.8  -10.72    113.89     31.0  3.8   0.0   0.0   0.642       369
 JAGI       34.80   1.000   P
 GMJI       37.20   1.000   P
 BYJI       38.60   1.000   P
 PWJI       49.30   1.000   P
 JAGI       63.40   1.000   S
# 2012 09 20 10 23 38.6  -08.99    113.06     27.0  3.3   0.0   0.0   0.979       370
 GMJI       14.90   1.000   P
 JAGI       20.40   1.000   P
 BLJI       24.80   1.000   P
 PWJI       25.90   1.000   P
 BYJI       26.50   1.000   P
 GMJI       27.30   1.000   S
 PCJI       30.50   1.000   P
 JAGI       35.50   1.000   S
 WOJI       37.50   1.000   P
# 2012 09 21 02 14 52.4  -10.87    113.86     25.0  4.6   0.0   0.0   0.924       371
 JAGI       37.50   1.000   P
 GMJI       40.70   1.000   P
 BYJI       41.00   1.000   P
 BLJI       48.50   1.000   P
 PWJI       52.40   1.000   P
 PCJI       56.60   1.000   P
 SWJI       56.80   1.000   P
 KMMI       58.40   1.000   P
 WOJI       61.60   1.000   P
 GRJI       62.50   1.000   P
 NGJI       62.70   1.000   P
 CMJI       87.30   1.000   P
 KPJI       87.90   1.000   P
 CGJI      129.20   1.000   P
# 2012 09 21 02 52 23.9  -10.82    113.94     17.0  4.1   0.0   0.0   0.596       372
 JAGI       37.50   1.000   P
 GMJI       40.90   1.000   P
 BLJI       48.60   1.000   P
 PWJI       50.90   1.000   P
 PCJI       56.90   1.000   P
 KMMI       57.70   1.000   P
 SWJI       58.20   1.000   P
 JAGI       66.20   1.000   S
 KPJI       87.90   1.000   P
 PWJI       92.30   1.000   S
# 2012 09 21 05 05 57.1  -10.68    113.96     30.0  3.6   0.0   0.0   0.282       373
 JAGI       34.20   1.000   P
 GMJI       37.50   1.000   P
 PWJI       49.10   1.000   P
# 2012 09 22 14 15 37.8  -10.67    113.77     10.0  4.5   0.0   0.0   0.592       374
 JAGI       36.70   1.000   P
 GMJI       38.60   1.000   P
 BYJI       41.10   1.000   P
 BLJI       47.00   1.000   P
 PWJI       49.70   1.000   P
 PCJI       54.80   1.000   P
 SWJI       55.00   1.000   P
 KMMI       56.20   1.000   P
 GRJI       60.80   1.000   P
 WOJI       61.30   1.000   P
 NGJI       61.90   1.000   P
 JAGI       65.00   1.000   S
 GMJI       69.50   1.000   S
 KPJI       85.80   1.000   P
 CMJI       88.80   1.000   P
 CGJI      127.90   1.000   P
# 2012 09 22 15 15 55.7  -10.89    113.77     20.0  4.5   0.0   0.0   0.630       375
 JAGI       37.90   1.000   P
 GMJI       39.90   1.000   P
 BYJI       43.10   1.000   P
 BLJI       48.70   1.000   P
 PWJI       51.00   1.000   P
 SWJI       55.50   1.000   P
 PCJI       56.50   1.000   P
 KMMI       57.80   1.000   P
 WOJI       62.00   1.000   P
 GRJI       62.40   1.000   P
 NGJI       63.60   1.000   P
 JAGI       69.30   1.000   S
 KPJI       87.30   1.000   P
 CTJI       87.30   1.000   P
 CMJI       88.40   1.000   P
 PWJI       91.10   1.000   S
 CGJI      128.80   1.000   P
# 2012 09 22 23 05 09.3  -10.78    113.90     10.0  4.6   0.0   0.0   0.610       376
 JAGI       37.60   1.000   P
 GMJI       40.70   1.000   P
 BYJI       42.50   1.000   P
 BLJI       48.80   1.000   P
 PWJI       52.20   1.000   P
 SWJI       56.80   1.000   P
 KMMI       58.50   1.000   P
 JAGI       67.30   1.000   S
 KPJI       87.60   1.000   P
# 2012 09 24 01 05 49.1  -10.63    113.92     70.0  3.8   0.0   0.0   0.589       377
 JAGI       33.90   1.000   P
 GMJI       36.50   1.000   P
 BLJI       44.60   1.000   P
 PWJI       48.10   1.000   P
 SWJI       52.00   1.000   P
 WOJI       59.40   1.000   P
 JAGI       60.30   1.000   S
 GMJI       65.40   1.000   S
 BLJI       79.40   1.000   S
 PWJI       86.20   1.000   S
# 2012 09 24 13 39 13.1  -10.52    113.65     14.0  3.6   0.0   0.0   0.399       378
 JAGI       35.30   1.000   P
 BYJI       38.60   1.000   P
 BLJI       43.90   1.000   P
 JAGI       60.70   1.000   S
# 2012 09 24 21 02 17.9  -10.76    113.95     31.0  4.0   0.0   0.0   0.208       379
 JAGI       35.30   1.000   P
 GMJI       39.20   1.000   P
 BYJI       39.50   1.000   P
 BLJI       46.00   1.000   P
 PWJI       49.40   1.000   P
 SWJI       54.80   1.000   P
 KMMI       55.30   1.000   P
 WOJI       61.70   1.000   P
 JAGI       63.20   1.000   S
 GMJI       69.30   1.000   S
# 2012 09 24 21 53 04.8  -10.64    113.92     14.0  3.8   0.0   0.0   0.373       380
 JAGI       35.20   1.000   P
 GMJI       38.50   1.000   P
 BYJI       39.60   1.000   P
 BLJI       46.10   1.000   P
 PWJI       50.30   1.000   P
 WOJI       61.30   1.000   P
 JAGI       63.10   1.000   S
 GMJI       69.00   1.000   S
# 2012 09 25 20 25 28.4  -10.81    113.79     28.0  4.3   0.0   0.0   0.737       381
 JAGI       36.10   1.000   P
 GMJI       38.40   1.000   P
 BYJI       41.30   1.000   P
 BLJI       46.90   1.000   P
 PWJI       50.10   1.000   P
 SWJI       53.50   1.000   P
 PCJI       54.80   1.000   P
 KMMI       56.80   1.000   P
 WOJI       60.20   1.000   P
 KPJI       84.60   1.000   P
 PWJI       88.90   1.000   S
# 2012 09 26 01 15 24.5  -08.62    112.44    113.0  3.6   0.0   0.0   0.293       382
 PWJI       19.80   1.000   P
 SWJI       22.60   1.000   P
 GMJI       22.60   1.000   P
 PCJI       25.00   1.000   P
 BLJI       26.80   1.000   P
 WOJI       29.40   1.000   P
 JAGI       29.60   1.000   P
 PWJI       35.30   1.000   S
 SWJI       40.40   1.000   S
 BLJI       46.30   1.000   S
# 2012 09 26 10 32 15.2  -11.04    113.64     29.0  4.4   0.0   0.0   0.256       383
 JAGI       40.20   1.000   P
 GMJI       42.00   1.000   P
 BYJI       44.00   1.000   P
 BLJI       49.20   1.000   P
 PCJI       55.30   1.000   P
 KMMI       59.00   1.000   P
 WOJI       60.70   1.000   P
 JAGI       71.30   1.000   S
 CGJI      128.30   1.000   P
# 2012 09 26 14 24 11.7  -07.93    112.87    119.0  2.5   0.0   0.0   0.254       384
 GMJI       20.30   1.000   P
 PWJI       22.70   1.000   P
 GRJI       23.00   1.000   P
 JAGI       26.40   1.000   P
# 2012 09 26 18 15 59.2  -10.71    113.93     10.0  3.9   0.0   0.0   0.654       385
 JAGI       37.00   1.000   P
 GMJI       40.50   1.000   P
 JAGI       65.60   1.000   S
 GMJI       70.70   1.000   S
# 2012 09 26 18 17 48.5  -10.73    113.96     10.0  4.0   0.0   0.0   0.645       386
 JAGI       36.90   1.000   P
 GMJI       40.10   1.000   P
 BYJI       41.30   1.000   P
 BLJI       48.40   1.000   P
 KMMI       58.10   1.000   P
 JAGI       65.60   1.000   S
# 2012 09 26 19 37 37.8  -10.78    113.71     81.0  3.6   0.0   0.0   0.380       387
 JAGI       35.70   1.000   P
 GMJI       38.60   1.000   P
 JAGI       65.30   1.000   S
# 2012 09 28 03 27 24.8  -10.82    113.81     33.0  4.7   0.0   0.0   0.726       388
 JAGI       34.70   1.000   P
 GMJI       37.50   1.000   P
 BYJI       39.40   1.000   P
 BLJI       45.90   1.000   P
 PWJI       48.40   1.000   P
 PCJI       53.70   1.000   P
 SWJI       53.80   1.000   P
 KMMI       55.40   1.000   P
 GRJI       60.00   1.000   P
 TBJI       63.70   1.000   P
 JAGI       64.20   1.000   S
 GMJI       69.00   1.000   S
 BYJI       72.00   1.000   S
 CMJI       86.20   1.000   P
 KPJI       86.30   1.000   P
 CGJI      128.60   1.000   P
# 2012 09 28 17 20 19.2  -10.57    113.80     18.0  3.7   0.0   0.0   1.148       389
 JAGI       35.10   1.000   P
 GMJI       37.30   1.000   P
 BLJI       43.60   1.000   P
 PWJI       48.30   1.000   P
 KMMI       52.20   1.000   P
 SWJI       52.90   1.000   P
# 2012 09 29 07 58 05.9  -09.51    112.98     10.0  3.6   0.0   0.0   0.476       390
 GMJI       22.80   1.000   P
 JAGI       27.30   1.000   P
 PWJI       30.90   1.000   P
 BLJI       32.00   1.000   P
 BYJI       32.50   1.000   P
 SWJI       35.30   1.000   P
 PCJI       36.20   1.000   P
 GMJI       41.60   1.000   S
 NGJI       42.30   1.000   P
 WOJI       42.40   1.000   P
 KMMI       43.20   1.000   P
 JAGI       47.90   1.000   S
 KPJI       69.50   1.000   P
# 2012 10 01 01 57 23.8  -10.67    113.89     12.0  3.7   0.0   0.0   0.567       391
 JAGI       35.40   1.000   P
 GMJI       39.10   1.000   P
 PWJI       50.30   1.000   P
 JAGI       63.90   1.000   S
 PWJI       89.30   1.000   S
# 2012 10 01 04 34 10.4  -09.77    112.89     16.0  3.6   0.0   0.0   0.480       392
 GMJI       26.20   1.000   P
 JAGI       30.10   1.000   P
 PWJI       32.10   1.000   P
 BYJI       35.00   1.000   P
 BLJI       35.10   1.000   P
 SWJI       37.40   1.000   P
 PCJI       37.70   1.000   P
 WOJI       42.80   1.000   P
 PWJI       55.60   1.000   S
 PWJI       62.50   1.000   S
