# 2012 01 01 18 01 30.4  -07.94    111.65     10.0  2.6   0.0   0.0   0.817         1
 SWJI        5.80   1.000   P
 PWJI        7.10   1.000   P
 SWJI        9.40   1.000   S
 PWJI       11.40   1.000   S
 PCJI       11.70   1.000   P
 PCJI       19.20   1.000   S
 GMJI       32.80   1.000   P
# 2012 01 02 18 39 51.9  -08.87    111.45     28.0  2.9   0.0   0.0   1.113         2
 PCJI       13.80   1.000   P
 PWJI       15.80   1.000   P
 SWJI       20.50   1.000   P
 PCJI       23.60   1.000   S
 PWJI       27.30   1.000   S
 GMJI       31.60   1.000   P
 SWJI       35.50   1.000   S
# 2012 01 03 14 11 50.7  -09.81    112.97     18.0  3.4   0.0   0.0   0.331         3
 GMJI       27.20   1.000   P
 JAGI       30.10   1.000   P
 PWJI       33.30   1.000   P
 BLJI       34.90   1.000   P
 PCJI       37.90   1.000   P
 ABJI       38.20   1.000   P
 SWJI       38.40   1.000   P
 KMMI       45.60   1.000   P
 GRJI       45.80   1.000   P
 GMJI       47.80   1.000   S
 JAGI       52.70   1.000   S
 PWJI       57.50   1.000   S
# 2012 01 03 19 12 22.5  -09.11    111.79    109.0  2.7   0.0   0.0   0.624         4
 PWJI       20.40   1.000   P
 PCJI       21.10   1.000   P
 SWJI       26.20   1.000   P
 GMJI       30.70   1.000   P
 PWJI       37.30   1.000   S
 JAGI       38.80   1.000   P
 PCJI       38.80   1.000   S
 SWJI       45.50   1.000   S
 GMJI       54.80   1.000   S
 JAGI       68.00   1.000   S
# 2012 01 06 13 19 44.6  -08.65    112.31     96.0  3.8   0.0   0.0   0.651         5
 PWJI       18.60   1.000   P
 SWJI       21.20   1.000   P
 GMJI       22.80   1.000   P
 PCJI       23.20   1.000   P
 BLJI       26.80   1.000   P
 GRJI       28.30   1.000   P
 PWJI       29.80   1.000   S
 JAGI       30.90   1.000   P
 ABJI       34.30   1.000   P
 KMMI       35.30   1.000   P
 SWJI       37.50   1.000   S
 PCJI       40.80   1.000   S
 BLJI       47.90   1.000   S
 JAGI       53.10   1.000   S
 KPJI       54.00   1.000   P
 ABJI       60.00   1.000   S
# 2012 01 07 04 46 31.9  -08.94    111.09     60.0  2.7   0.0   0.0   0.923         6
 PCJI       15.10   1.000   P
 PWJI       18.10   1.000   P
 SWJI       23.00   1.000   P
 PCJI       27.30   1.000   S
 PWJI       34.00   1.000   S
 SWJI       39.40   1.000   S
# 2012 01 11 12 00 31.7  -08.94    111.18     14.0  2.9   0.0   0.0   0.524         7
 PCJI       14.60   1.000   P
 PWJI       18.70   1.000   P
 SWJI       22.70   1.000   P
 PCJI       25.40   1.000   S
 PWJI       31.50   1.000   S
 SWJI       41.80   1.000   S
# 2012 01 11 16 23 21.1  -08.85    110.81     68.0  4.1   0.0   0.0   0.551         8
 PCJI       15.60   1.000   P
 PWJI       22.40   1.000   P
 SWJI       24.50   1.000   P
 PCJI       27.80   1.000   S
 SMRI       29.60   1.000   P
 SCJI       31.70   1.000   P
 TBJI       34.90   1.000   P
 UWJI       37.00   1.000   P
 PWJI       37.10   1.000   S
 KPJI       37.70   1.000   P
 GRJI       38.80   1.000   P
 GMJI       41.30   1.000   P
 SWJI       42.80   1.000   S
 BLJI       44.40   1.000   P
 JCJI       49.10   1.000   P
 JAGI       49.90   1.000   P
 ABJI       52.20   1.000   P
 BWJI       52.40   1.000   P
 BYJI       52.80   1.000   P
 SMRI       53.60   1.000   S
 SCJI       55.40   1.000   S
 TBJI       62.60   1.000   S
 KPJI       66.00   1.000   S
 UWJI       66.50   1.000   S
 GRJI       68.50   1.000   S
 GMJI       73.10   1.000   S
 JCJI       87.60   1.000   S
 JAGI       88.40   1.000   S
 BWJI       92.70   1.000   S
 ABJI       93.80   1.000   S
 BYJI       94.50   1.000   S
# 2012 01 12 11 43 26.4  -08.68    111.80     64.0  3.1   0.0   0.0   0.387         9
 PWJI       14.00   1.000   P
 PCJI       15.70   1.000   P
 SWJI       17.90   1.000   P
 PWJI       24.10   1.000   S
 GMJI       27.50   1.000   P
 SWJI       31.10   1.000   S
 GMJI       48.30   1.000   S
# 2012 01 13 04 16 27.6  -08.49    111.53     29.0  3.8   0.0   0.0   0.852        10
 PCJI       10.30   1.000   P
 PWJI       10.30   1.000   P
 SWJI       14.90   1.000   P
 PCJI       18.00   1.000   S
 PWJI       18.10   1.000   S
 SWJI       26.40   1.000   S
 GMJI       30.50   1.000   P
# 2012 01 14 18 28 29.7  -08.95    111.17     16.0  2.5   0.0   0.0   0.562        11
 PCJI       14.80   1.000   P
 PWJI       18.40   1.000   P
 SWJI       24.80   1.000   P
 PCJI       25.80   1.000   S
 PWJI       32.00   1.000   S
 SWJI       41.10   1.000   S
# 2012 01 14 20 10 14.3  -10.26    110.47     24.0  4.6   0.0   0.0   0.826        12
 PCJI       33.20   1.000   P
 PWJI       38.90   1.000   P
 SWJI       42.50   1.000   P
 SCJI       43.60   1.000   P
 SMRI       49.80   1.000   P
 UWJI       57.40   1.000   P
 GRJI       58.20   1.000   P
 JAGI       59.90   1.000   P
 BLJI       60.00   1.000   P
 PCJI       61.30   1.000   S
 ABJI       66.80   1.000   P
 PWJI       66.90   1.000   S
 SCJI       78.20   1.000   S
 SMRI       88.80   1.000   S
# 2012 01 14 21 38 20.1  -09.65    112.79     69.0  3.8   0.0   0.0   0.947        13
 JAGI       27.70   1.000   P
 PWJI       29.10   1.000   P
 BLJI       32.90   1.000   P
 SWJI       33.20   1.000   P
 PCJI       33.40   1.000   P
 ABJI       37.10   1.000   P
 KMMI       43.10   1.000   P
 ABJI       64.90   1.000   S
# 2012 01 15 17 10 24.1  -08.65    113.08    123.0  3.1   0.0   0.0   0.612        14
 BLJI       22.90   1.000   P
 JAGI       23.80   1.000   P
 ABJI       25.80   1.000   P
 PWJI       26.40   1.000   P
 SWJI       28.60   1.000   P
 GRJI       32.00   1.000   P
 PCJI       32.90   1.000   P
 JAGI       40.60   1.000   S
 BLJI       40.70   1.000   S
 BWJI       42.70   1.000   P
 PWJI       46.60   1.000   S
 ABJI       47.90   1.000   S
 SWJI       50.60   1.000   S
 KMMI       55.80   1.000   P
 GRJI       56.30   1.000   S
 PCJI       56.50   1.000   S
 BWJI       78.20   1.000   S
# 2012 01 19 01 09 39.3  -08.99    111.13     22.0  3.0   0.0   0.0   1.225        15
 PCJI       14.50   1.000   P
 PWJI       19.60   1.000   P
 SWJI       23.10   1.000   P
 PCJI       26.80   1.000   S
 PWJI       34.80   1.000   S
 SWJI       40.50   1.000   S
# 2012 01 19 14 58 34.8  -09.13    112.69     11.0  3.0   0.0   0.0   0.651        16
 GMJI       21.20   1.000   P
 PWJI       23.80   1.000   P
 JAGI       27.40   1.000   P
 SWJI       27.80   1.000   P
 PCJI       29.60   1.000   P
 BLJI       29.90   1.000   P
 GMJI       36.00   1.000   S
 PWJI       40.20   1.000   S
 JAGI       48.80   1.000   S
 BLJI       50.60   1.000   S
# 2012 01 22 04 23 21.5  -09.27    112.94     10.0  3.0   0.0   0.0   1.039        17
 GMJI       20.40   1.000   P
 JAGI       25.00   1.000   P
 PWJI       26.40   1.000   P
 BLJI       29.80   1.000   P
 SWJI       32.00   1.000   P
 ABJI       33.70   1.000   P
 GMJI       34.20   1.000   S
 JAGI       46.50   1.000   S
 PWJI       48.80   1.000   S
# 2012 01 22 07 02 48.6  -09.19    112.94     10.0  2.9   0.0   0.0   0.320        18
 GMJI       19.80   1.000   P
 JAGI       24.50   1.000   P
 PWJI       26.50   1.000   P
 BLJI       28.30   1.000   P
 SWJI       31.70   1.000   P
 GMJI       33.90   1.000   S
 JAGI       44.30   1.000   S
 PWJI       46.00   1.000   S
# 2012 01 22 09 26 43.2  -06.06    110.87    138.0  3.7   0.0   0.0   0.482        19
 SMRI       24.50   1.000   P
 TBJI       25.30   1.000   P
 BWJI       31.60   1.000   P
 GRJI       32.80   1.000   P
 SWJI       33.00   1.000   P
 PCJI       36.40   1.000   P
 PWJI       38.30   1.000   P
 SCJI       38.90   1.000   P
 SMRI       43.40   1.000   S
 TBJI       45.60   1.000   S
 KMMI       49.00   1.000   P
 GMJI       51.90   1.000   P
 BWJI       57.10   1.000   S
 GRJI       58.60   1.000   S
# 2012 01 22 10 14 52.6  -08.82    112.52     42.0  3.7   0.0   0.0   0.546        20
 GMJI       17.10   1.000   P
 PWJI       17.40   1.000   P
 SWJI       21.00   1.000   P
 PCJI       22.80   1.000   P
 BLJI       24.30   1.000   P
 JAGI       25.40   1.000   P
 GRJI       29.50   1.000   P
 ABJI       31.10   1.000   P
 GMJI       32.10   1.000   S
 SWJI       38.10   1.000   S
# 2012 01 23 04 16 03.2  -09.66    113.32     10.0  5.0   0.0   0.0   0.826        21
 GMJI       24.10   1.000   P
 JAGI       25.10   1.000   P
 BYJI       30.70   1.000   P
 BLJI       33.60   1.000   P
 ABJI       35.70   1.000   P
 PWJI       36.40   1.000   P
 SWJI       40.20   1.000   P
 PCJI       41.20   1.000   P
 JAGI       43.20   1.000   S
 KMMI       44.30   1.000   P
 GRJI       46.40   1.000   P
 BWJI       59.70   1.000   P
 SMRI       59.80   1.000   P
 SCJI       68.60   1.000   P
 KPJI       74.00   1.000   P
 CGJI      118.30   1.000   P
# 2012 02 01 12 04 32.6  -08.81    111.16     66.0  3.4   0.0   0.0   0.928        22
 PCJI       14.00   1.000   P
 PWJI       18.20   1.000   P
 SWJI       21.20   1.000   P
 PCJI       24.70   1.000   S
 SMRI       30.20   1.000   P
 PWJI       32.60   1.000   S
 SCJI       34.20   1.000   P
 SWJI       37.50   1.000   S
 KPJI       40.40   1.000   P
 BLJI       40.90   1.000   P
 JAGI       44.80   1.000   P
 ABJI       48.60   1.000   P
 SMRI       53.40   1.000   S
 BLJI       70.40   1.000   S
 KPJI       71.90   1.000   S
 JAGI       77.90   1.000   S
 ABJI       86.30   1.000   S
# 2012 02 03 04 01 50.5  -08.81    111.47     25.0  4.8   0.0   0.0   0.570        23
 PCJI       12.90   1.000   P
 SWJI       19.40   1.000   P
 PCJI       23.20   1.000   S
 TBJI       33.20   1.000   P
 SMRI       33.70   1.000   P
 GRJI       34.60   1.000   P
 SWJI       35.40   1.000   S
 BLJI       37.40   1.000   P
 SCJI       38.70   1.000   P
 JAGI       40.70   1.000   P
 KPJI       44.60   1.000   P
 ABJI       45.00   1.000   P
 KMMI       46.00   1.000   P
 BYJI       46.20   1.000   P
 BWJI       47.60   1.000   P
 JCJI       57.40   1.000   P
 BLJI       65.80   1.000   S
 ABJI       78.90   1.000   S
 KPJI       80.10   1.000   S
 CGJI       89.10   1.000   P
 JCJI      100.30   1.000   S
# 2012 02 03 17 10 49.7  -08.69    111.29     36.0  2.9   0.0   0.0   0.790        24
 PCJI       10.90   1.000   P
 PWJI       13.70   1.000   P
 SWJI       17.60   1.000   P
 PCJI       20.90   1.000   S
 PWJI       25.80   1.000   S
 SWJI       32.50   1.000   S
# 2012 02 03 21 51 23.6  -08.81    111.45     23.0  3.6   0.0   0.0   0.790        25
 PCJI       13.00   1.000   P
 PWJI       15.80   1.000   P
 SWJI       19.70   1.000   P
 PCJI       22.80   1.000   S
 SMRI       32.90   1.000   P
 GRJI       34.60   1.000   P
 SWJI       35.50   1.000   S
 BLJI       37.30   1.000   P
 SCJI       40.70   1.000   P
 JAGI       41.50   1.000   P
 KPJI       45.00   1.000   P
 ABJI       45.60   1.000   P
# 2012 02 05 18 49 16.9  -08.64    111.18     57.0  3.3   0.0   0.0   0.660        26
 PCJI       12.30   1.000   P
 PWJI       16.30   1.000   P
 SWJI       19.70   1.000   P
 PCJI       21.90   1.000   S
 PWJI       28.20   1.000   S
# 2012 02 09 03 50 57.1  -08.91    110.60     24.0  3.3   0.0   0.0   1.207        27
 PCJI       16.50   1.000   P
 PWJI       24.00   1.000   P
 SWJI       26.70   1.000   P
 PCJI       28.90   1.000   S
 SCJI       31.20   1.000   P
 SMRI       33.00   1.000   P
 PWJI       42.80   1.000   S
 SWJI       47.50   1.000   S
 SCJI       52.00   1.000   S
 SMRI       54.70   1.000   S
# 2012 02 16 03 57 00.9  -08.92    113.05     40.0  2.9   0.0   0.0   0.498        28
 GMJI       14.70   1.000   P
 JAGI       19.80   1.000   P
 PWJI       23.90   1.000   P
 GMJI       25.80   1.000   S
 PCJI       30.00   1.000   P
 JAGI       34.80   1.000   S
 PWJI       41.90   1.000   S
# 2012 02 16 14 51 47.4  -07.96    112.04    173.0  3.3   0.0   0.0   0.618        29
 PWJI       24.00   1.000   P
 SWJI       24.40   1.000   P
 PCJI       27.20   1.000   P
 GRJI       27.70   1.000   P
 TBJI       27.90   1.000   P
 GMJI       30.70   1.000   P
 BLJI       32.40   1.000   P
 SMRI       34.90   1.000   P
 KMMI       37.80   1.000   P
 ABJI       39.50   1.000   P
 BWJI       40.00   1.000   P
 BYJI       42.00   1.000   P
 PWJI       43.30   1.000   S
 PCJI       48.50   1.000   S
 GRJI       50.60   1.000   S
 GMJI       55.30   1.000   S
 BLJI       57.00   1.000   S
 CGJI       91.40   1.000   P
# 2012 02 16 20 53 31.3  -08.65    111.71     77.0  3.0   0.0   0.0   0.681        30
 PWJI       15.10   1.000   P
 PCJI       16.30   1.000   P
 SWJI       18.60   1.000   P
 PWJI       26.00   1.000   S
 PCJI       27.90   1.000   S
 GMJI       29.20   1.000   P
 SWJI       32.50   1.000   S
 JAGI       38.30   1.000   P
 GMJI       51.80   1.000   S
 GRJI       53.90   1.000   P
 JAGI       66.70   1.000   S
# 2012 02 16 22 34 49.2  -09.44    112.97     32.0  2.6   0.0   0.0   0.223        31
 GMJI       21.40   1.000   P
 JAGI       25.00   1.000   P
 PWJI       27.10   1.000   P
 GMJI       37.10   1.000   S
 JAGI       44.60   1.000   S
 PWJI       48.70   1.000   S
# 2012 02 17 14 02 18.3  -08.10    113.63    174.0  2.5   0.0   0.0   0.378        32
 BLJI       23.30   1.000   P
 GMJI       24.00   1.000   P
 JAGI       25.10   1.000   P
 ABJI       25.40   1.000   P
 BYJI       26.30   1.000   P
 KMMI       27.90   1.000   P
 GRJI       33.10   1.000   P
 PWJI       34.60   1.000   P
 SWJI       34.90   1.000   P
 TBJI       38.30   1.000   P
 BWJI       41.30   1.000   P
 PCJI       41.70   1.000   P
 GMJI       42.10   1.000   S
 ABJI       45.80   1.000   S
# 2012 02 18 22 19 59.4  -08.06    112.74     17.0  2.2   0.0   0.0   0.407        33
 GMJI       14.20   1.000   P
 PWJI       16.50   1.000   P
 GRJI       20.20   1.000   P
 JAGI       24.20   1.000   P
 PCJI       26.20   1.000   P
 PWJI       30.10   1.000   S
# 2012 02 18 22 40 35.4  -09.02    111.16     12.0  2.7   0.0   0.0   0.581        34
 PCJI       15.00   1.000   P
 PWJI       18.50   1.000   P
 SWJI       23.00   1.000   P
 PCJI       26.70   1.000   S
 PWJI       33.00   1.000   S
# 2012 02 19 05 07 29.7  -08.99    110.62     15.0  3.1   0.0   0.0   0.638        35
 PCJI       16.70   1.000   P
 PWJI       23.90   1.000   P
 SWJI       28.20   1.000   P
 PCJI       30.10   1.000   S
 SCJI       30.80   1.000   P
 KPJI       38.70   1.000   P
 PWJI       42.10   1.000   S
 GRJI       44.60   1.000   P
# 2012 02 19 16 36 06.4  -09.74    112.00     71.0  3.9   0.0   0.0   0.491        36
 PWJI       25.00   1.000   P
 PCJI       28.90   1.000   P
 SWJI       31.50   1.000   P
 GMJI       31.60   1.000   P
 JAGI       37.80   1.000   P
 BLJI       38.00   1.000   P
 BYJI       42.90   1.000   P
 GRJI       43.30   1.000   P
 ABJI       44.60   1.000   P
 PWJI       44.70   1.000   S
 SMRI       46.40   1.000   P
 KMMI       48.70   1.000   P
 PCJI       51.20   1.000   S
 KPJI       56.20   1.000   P
 BWJI       57.20   1.000   P
 SWJI       57.50   1.000   S
 GMJI       58.10   1.000   S
 JAGI       68.40   1.000   S
 BLJI       69.40   1.000   S
  LEM       75.00   1.000   P
 BYJI       76.10   1.000   S
 GRJI       77.70   1.000   S
 TBJI       80.10   1.000   P
 ABJI       80.30   1.000   S
 SMRI       84.80   1.000   S
 KMMI       88.80   1.000   S
 SCJI       92.80   1.000   P
 KPJI      103.10   1.000   S
 BWJI      103.80   1.000   S
# 2012 02 19 23 49 07.9  -11.16    112.72    109.0  4.3   0.0   0.0   1.380        37
 GMJI       45.20   1.000   P
 JAGI       45.90   1.000   P
 PWJI       47.00   1.000   P
 PCJI       48.30   1.000   P
 SWJI       50.70   1.000   P
 ABJI       55.20   1.000   P
 CMJI       76.70   1.000   P
 GMJI       79.80   1.000   S
 JAGI       82.80   1.000   S
 PWJI       85.50   1.000   S
 PCJI       87.10   1.000   S
 SWJI       95.00   1.000   S
 BLJI       95.90   1.000   P
 ABJI       99.50   1.000   S
 KMMI      113.00   1.000   P
 GRJI      113.10   1.000   P
 CGJI      117.10   1.000   P
 KPJI      140.80   1.000   P
 CGJI      209.20   1.000   S
# 2012 02 20 19 06 26.7  -09.63    113.99     29.0  2.8   0.0   0.0   0.322        38
 JAGI       20.00   1.000   P
 GMJI       24.70   1.000   P
 JAGI       35.40   1.000   S
 GMJI       42.90   1.000   S
# 2012 02 21 11 07 49.4  -07.96    110.49     10.0  2.8   0.0   0.0   0.379        39
 PCJI       13.90   1.000   P
 SMRI       16.80   1.000   P
 PWJI       23.60   1.000   P
 SWJI       23.80   1.000   P
 PCJI       24.20   1.000   S
 SCJI       24.60   1.000   P
 CTJI       27.80   1.000   P
 KPJI       29.00   1.000   P
 SMRI       30.20   1.000   S
 TBJI       30.50   1.000   P
 SWJI       41.20   1.000   S
 PWJI       42.10   1.000   S
 SCJI       43.10   1.000   S
 CTJI       49.80   1.000   S
 KPJI       51.60   1.000   S
 TBJI       53.90   1.000   S
 GRJI       65.00   1.000   P
# 2012 02 21 11 38 18.8  -08.73    111.29     31.0  2.8   0.0   0.0   0.502        40
 PCJI       11.40   1.000   P
 PWJI       14.50   1.000   P
 SWJI       19.00   1.000   P
 PCJI       21.30   1.000   S
 PWJI       25.50   1.000   S
 SWJI       33.30   1.000   S
# 2012 02 22 02 23 46.3  -08.28    111.48     88.0  2.1   0.0   0.0   0.000        41
 PCJI       14.50   1.000   P
 PWJI       14.60   1.000   P
 SWJI       16.80   1.000   P
 SWJI       29.80   1.000   S
# 2012 02 22 08 57 47.4  -09.22    112.67     57.0  2.7   0.0   0.0   0.001        42
 GMJI       20.80   1.000   P
 PWJI       22.20   1.000   P
 JAGI       26.50   1.000   P
 GMJI       36.90   1.000   S
 JAGI       47.40   1.000   S
# 2012 02 22 09 01 29.9  -09.03    110.40     25.0  3.1   0.0   0.0   0.344        43
 PCJI       19.00   1.000   P
 PWJI       26.50   1.000   P
 SWJI       30.70   1.000   P
 PCJI       34.60   1.000   S
 CMJI       36.20   1.000   P
# 2012 02 22 16 40 53.6  -08.32    112.60    147.0  2.5   0.0   0.0   0.556        44
 GMJI       24.50   1.000   P
 PWJI       24.50   1.000   P
 SWJI       25.30   1.000   P
 PCJI       27.70   1.000   P
 GRJI       28.70   1.000   P
 JAGI       30.80   1.000   P
 TBJI       31.80   1.000   P
 PWJI       42.50   1.000   S
 GMJI       42.80   1.000   S
 JAGI       53.30   1.000   S
# 2012 02 22 20 05 22.9  -08.99    110.53     13.0  3.1   0.0   0.0   0.583        45
 PCJI       16.30   1.000   P
 PWJI       25.10   1.000   P
 SWJI       27.70   1.000   P
 SCJI       29.60   1.000   P
 PCJI       31.40   1.000   S
 SMRI       32.10   1.000   P
 KPJI       36.60   1.000   P
 CTJI       38.60   1.000   P
 PWJI       44.00   1.000   S
 GMJI       46.00   1.000   P
 SWJI       51.20   1.000   S
 KPJI       65.60   1.000   S
# 2012 02 22 20 33 39.2  -08.97    110.60     14.0  2.9   0.0   0.0   0.442        46
 PCJI       16.50   1.000   P
 PWJI       24.80   1.000   P
 SWJI       27.90   1.000   P
 PCJI       30.40   1.000   S
 KPJI       37.10   1.000   P
 CTJI       39.20   1.000   P
 GMJI       45.70   1.000   P
 CTJI       69.10   1.000   S
# 2012 02 23 12 15 42.8  -08.72    110.80     12.0  2.2   0.0   0.0   0.337        47
 PCJI       11.70   1.000   P
 PWJI       19.60   1.000   P
 PCJI       21.80   1.000   S
 SWJI       23.80   1.000   P
 PWJI       35.30   1.000   S
 SWJI       41.50   1.000   S
# 2012 02 23 13 41 13.1  -10.83    113.70     24.0  3.1   0.0   0.0   0.302        48
 JAGI       37.60   1.000   P
 GMJI       40.20   1.000   P
 PCJI       54.90   1.000   P
 JAGI       68.00   1.000   S
 GMJI       71.40   1.000   S
# 2012 02 23 15 35 24.8  -08.47    111.40    105.0  1.9   0.0   0.0   0.104        49
 PCJI       16.30   1.000   P
 PWJI       17.10   1.000   P
 SWJI       19.60   1.000   P
 PCJI       29.60   1.000   S
 PWJI       30.90   1.000   S
 SWJI       34.80   1.000   S
# 2012 02 23 20 32 28.8  -08.62    110.70     12.0  2.9   0.0   0.0   0.881        50
 PCJI       11.70   1.000   P
 PCJI       20.10   1.000   S
 PWJI       21.00   1.000   P
 SWJI       23.80   1.000   P
 SCJI       29.30   1.000   P
 PWJI       35.80   1.000   S
 CTJI       36.70   1.000   P
 SWJI       42.00   1.000   S
