# 2012 08 22 20 56 48.8  -09.36    113.49     10.0  3.3   0.0   0.0   0.321       190
 GMJI       19.60   1.000   P
 JAGI       20.70   1.000   P
 BYJI       25.90   1.000   P
 BLJI       28.60   1.000   P
 PWJI       34.30   1.000   P
 GMJI       35.30   1.000   S
 JAGI       36.00   1.000   S
 SWJI       38.40   1.000   P
 PCJI       42.00   1.000   P
 GRJI       42.80   1.000   P
 BYJI       44.80   1.000   S
 NGJI       45.10   1.000   P
 TBJI       47.70   1.000   P
 BLJI       49.80   1.000   S
 SMRI       59.30   1.000   P
 PWJI       60.20   1.000   S
# 2012 08 28 12 48 15.9  -07.81    113.95    257.0  3.6   0.0   0.0   0.562       191
 BLJI       33.50   1.000   P
 KMMI       34.70   1.000   P
 JAGI       34.80   1.000   P
 GMJI       34.80   1.000   P
 BYJI       35.40   1.000   P
 GRJI       40.60   1.000   P
 PWJI       45.40   1.000   P
 SWJI       45.80   1.000   P
 PCJI       49.90   1.000   P
 WOJI       52.70   1.000   P
 JAGI       61.60   1.000   S
 KPJI       76.30   1.000   P
 PCJI       90.30   1.000   S
# 2012 08 28 17 59 44.5  -08.19    112.04    122.0  3.1   0.0   0.0   0.406       192
 PWJI       17.80   1.000   P
 SWJI       18.60   1.000   P
 PCJI       21.80   1.000   P
 NGJI       22.10   1.000   P
 WOJI       24.10   1.000   P
 GMJI       26.20   1.000   P
 BLJI       28.90   1.000   P
 PWJI       31.10   1.000   S
 JAGI       34.80   1.000   P
 WOJI       42.80   1.000   S
# 2012 08 30 10 41 29.7  -09.15    111.21     10.0  2.8   0.0   0.0   0.653       193
 PCJI       17.90   1.000   P
 PWJI       20.70   1.000   P
 WOJI       23.50   1.000   P
 PCJI       30.60   1.000   S
 PWJI       36.40   1.000   S
 WOJI       42.50   1.000   S
# 2012 09 03 13 10 55.4  -08.78    111.36     88.0  3.8   0.0   0.0   0.560       194
 PCJI       16.40   1.000   P
 PWJI       17.80   1.000   P
 WOJI       19.50   1.000   P
 SWJI       20.70   1.000   P
 BLJI       37.50   1.000   P
 CTJI       42.10   1.000   P
 JAGI       42.20   1.000   P
 KPJI       43.00   1.000   P
# 2012 09 03 14 26 41.2  -11.05    113.80     10.0  5.0   0.0   0.0   1.327       195
 JAGI       39.90   1.000   P
 GMJI       42.70   1.000   P
 BYJI       44.90   1.000   P
 BLJI       51.20   1.000   P
 PWJI       54.80   1.000   P
 SWJI       58.50   1.000   P
 PCJI       59.40   1.000   P
 KMMI       61.10   1.000   P
 WOJI       65.40   1.000   P
 GRJI       65.50   1.000   P
 KPJI       90.70   1.000   P
 CGJI      132.10   1.000   P
# 2012 09 03 14 48 03.9  -10.87    113.87     10.0  4.6   0.0   0.0   0.837       196
 JAGI       38.00   1.000   P
 GMJI       40.90   1.000   P
 BYJI       43.30   1.000   P
 BLJI       49.40   1.000   P
 PWJI       52.80   1.000   P
 SWJI       56.90   1.000   P
 PCJI       57.90   1.000   P
 KMMI       59.60   1.000   P
 WOJI       63.20   1.000   P
 KPJI       90.10   1.000   P
 CGJI      130.20   1.000   P
# 2012 09 03 18 23 04.9  -10.90    113.85     12.0  6.5   0.0   0.0   1.723       197
 JAGI       38.40   1.000   P
 GMJI       41.00   1.000   P
 BYJI       43.70   1.000   P
 BLJI       50.00   1.000   P
 PWJI       53.50   1.000   P
 PCJI       57.20   1.000   P
 SWJI       57.50   1.000   P
 KMMI       60.00   1.000   P
 WOJI       63.60   1.000   P
 GRJI       64.50   1.000   P
 NGJI       66.60   1.000   P
 JAGI       68.50   1.000   S
 TBJI       68.70   1.000   P
 SMRI       77.60   1.000   P
 KPJI       89.70   1.000   P
 CMJI       90.20   1.000   P
 CTJI       90.50   1.000   P
 JCJI      102.10   1.000   P
  LEM      108.50   1.000   P
 SKJI      119.30   1.000   P
 CGJI      131.70   1.000   P
 SBJI      131.80   1.000   P
# 2012 09 03 18 50 06.7  -10.87    113.85     10.0  4.4   0.0   0.0   0.650       198
 JAGI       38.80   1.000   P
 GMJI       41.80   1.000   P
 BYJI       43.70   1.000   P
 BLJI       49.50   1.000   P
 PWJI       52.70   1.000   P
 SWJI       56.50   1.000   P
 PCJI       58.20   1.000   P
 KMMI       59.50   1.000   P
 WOJI       62.70   1.000   P
 NGJI       64.80   1.000   P
 KPJI       88.80   1.000   P
# 2012 09 03 18 58 54.8  -10.72    113.90     10.0  4.0   0.0   0.0   0.537       199
 JAGI       36.30   1.000   P
 BYJI       40.70   1.000   P
 PWJI       51.60   1.000   P
 WOJI       62.20   1.000   P
 PWJI       90.70   1.000   S
# 2012 09 03 19 22 59.8  -10.86    113.96     10.0  4.2   0.0   0.0   0.515       200
 JAGI       38.40   1.000   P
 GMJI       41.70   1.000   P
 BYJI       43.00   1.000   P
 BLJI       49.60   1.000   P
 PWJI       53.40   1.000   P
 KMMI       59.20   1.000   P
 WOJI       64.20   1.000   P
# 2012 09 03 23 13 15.7  -10.81    113.84     10.0  4.3   0.0   0.0   0.510       201
 JAGI       38.10   1.000   P
 GMJI       40.60   1.000   P
 BYJI       43.00   1.000   P
 BLJI       48.70   1.000   P
 PWJI       52.00   1.000   P
 SWJI       57.20   1.000   P
 KMMI       58.70   1.000   P
 WOJI       62.60   1.000   P
# 2012 09 04 00 08 25.3  -10.92    113.90     10.0  4.9   0.0   0.0   0.918       202
 JAGI       39.10   1.000   P
 GMJI       41.50   1.000   P
 BYJI       43.80   1.000   P
 BLJI       50.20   1.000   P
 PWJI       54.00   1.000   P
 PCJI       58.70   1.000   P
 KMMI       60.10   1.000   P
 WOJI       64.20   1.000   P
 GRJI       64.70   1.000   P
 CMJI       90.30   1.000   P
 KPJI       91.30   1.000   P
 CGJI      131.30   1.000   P
# 2012 09 04 01 33 00.2  -10.41    113.98     10.0  3.6   0.0   0.0   0.837       203
 JAGI       32.80   1.000   P
 PWJI       48.10   1.000   P
 JAGI       57.50   1.000   S
# 2012 09 04 02 09 22.5  -10.90    113.87     23.0  4.2   0.0   0.0   0.515       204
 JAGI       37.70   1.000   P
 GMJI       40.30   1.000   P
 BYJI       42.10   1.000   P
 BLJI       48.40   1.000   P
 PWJI       51.70   1.000   P
 PCJI       56.80   1.000   P
 SWJI       56.90   1.000   P
 WOJI       62.90   1.000   P
 JAGI       67.90   1.000   S
 GMJI       73.60   1.000   S
 PWJI       91.00   1.000   S
# 2012 09 04 04 27 14.1  -11.03    113.94     27.0  5.2   0.0   0.0   1.018       205
 JAGI       38.70   1.000   P
 GMJI       41.50   1.000   P
 BYJI       43.80   1.000   P
 BLJI       50.20   1.000   P
 PWJI       54.30   1.000   P
 PCJI       57.60   1.000   P
 SWJI       58.10   1.000   P
 KMMI       59.50   1.000   P
 WOJI       64.00   1.000   P
 GRJI       64.50   1.000   P
 NGJI       66.20   1.000   P
 TBJI       69.30   1.000   P
 SMRI       77.40   1.000   P
 KPJI       90.00   1.000   P
 CMJI       90.20   1.000   P
 CTJI       91.00   1.000   P
  LEM      108.50   1.000   P
 CGJI      130.70   1.000   P
 SBJI      131.10   1.000   P
# 2012 09 04 11 38 18.2  -10.90    113.84     37.0  4.8   0.0   0.0   0.563       206
 JAGI       36.60   1.000   P
 GMJI       38.50   1.000   P
 BYJI       41.20   1.000   P
 BLJI       47.50   1.000   P
 PWJI       50.00   1.000   P
 SWJI       54.30   1.000   P
 PCJI       55.50   1.000   P
 KMMI       57.00   1.000   P
 GRJI       61.20   1.000   P
 WOJI       61.40   1.000   P
 TBJI       65.80   1.000   P
 JAGI       66.20   1.000   S
 KPJI       85.90   1.000   P
 PWJI       89.60   1.000   S
# 2012 09 04 11 48 08.8  -10.78    113.84     10.0  4.3   0.0   0.0   0.744       207
 JAGI       37.10   1.000   P
 GMJI       39.30   1.000   P
 BYJI       42.10   1.000   P
 BLJI       48.00   1.000   P
 PWJI       50.80   1.000   P
 SWJI       54.90   1.000   P
 PCJI       55.70   1.000   P
 KMMI       58.00   1.000   P
 WOJI       61.60   1.000   P
# 2012 09 04 12 07 27.1  -11.03    113.74     28.0  5.2   0.0   0.0   1.335       208
 JAGI       38.60   1.000   P
 GMJI       41.60   1.000   P
 BYJI       43.20   1.000   P
 BLJI       49.10   1.000   P
 PWJI       52.20   1.000   P
 PCJI       56.10   1.000   P
 SWJI       56.70   1.000   P
 KMMI       59.20   1.000   P
 WOJI       62.70   1.000   P
 GRJI       63.60   1.000   P
 NGJI       66.60   1.000   P
 TBJI       67.80   1.000   P
 SMRI       74.90   1.000   P
 BLJI       86.90   1.000   S
 KPJI       87.40   1.000   P
 CTJI       87.90   1.000   P
 CMJI       88.10   1.000   P
 PWJI       91.70   1.000   S
 CGJI      128.70   1.000   P
# 2012 09 04 12 49 09.5  -10.84    113.84     30.0  5.0   0.0   0.0   0.585       209
 JAGI       36.60   1.000   P
 GMJI       39.20   1.000   P
 BYJI       41.20   1.000   P
 BLJI       47.20   1.000   P
 PWJI       50.60   1.000   P
 SWJI       55.40   1.000   P
 KMMI       57.10   1.000   P
 GRJI       61.30   1.000   P
 WOJI       61.70   1.000   P
 JAGI       64.90   1.000   S
 BLJI       83.60   1.000   S
 KPJI       87.00   1.000   P
 CMJI       88.20   1.000   P
 PWJI       89.10   1.000   S
# 2012 09 04 13 12 12.9  -10.68    113.89     10.0  4.0   0.0   0.0   0.497       210
 JAGI       36.60   1.000   P
 GMJI       39.70   1.000   P
 BLJI       46.50   1.000   P
 PWJI       50.80   1.000   P
 GMJI       70.60   1.000   S
# 2012 09 04 13 20 58.3  -10.64    113.86     10.0  3.8   0.0   0.0   0.553       211
 JAGI       36.00   1.000   P
 GMJI       38.50   1.000   P
 PWJI       50.00   1.000   P
# 2012 09 04 13 25 40.8  -10.66    113.95     10.0  3.7   0.0   0.0   1.044       212
 JAGI       36.10   1.000   P
 GMJI       38.90   1.000   P
 PWJI       50.50   1.000   P
 JAGI       66.30   1.000   S
 GMJI       69.20   1.000   S
 PWJI       89.70   1.000   S
# 2012 09 04 13 31 02.5  -10.97    113.79     10.0  5.2   0.0   0.0   0.719       213
 JAGI       40.00   1.000   P
 GMJI       43.00   1.000   P
 BYJI       45.00   1.000   P
 BLJI       50.70   1.000   P
 PWJI       53.50   1.000   P
 SWJI       58.20   1.000   P
 KMMI       60.40   1.000   P
 WOJI       64.30   1.000   P
 GRJI       65.00   1.000   P
 NGJI       65.60   1.000   P
 TBJI       69.30   1.000   P
 KPJI       89.60   1.000   P
 CMJI       91.00   1.000   P
 PWJI       93.60   1.000   S
 CGJI      130.40   1.000   P
# 2012 09 04 13 40 12.5  -10.73    113.86     25.0  4.6   0.0   0.0   0.240       214
 JAGI       35.80   1.000   P
 GMJI       38.80   1.000   P
 BLJI       45.70   1.000   P
 PWJI       48.60   1.000   P
 KMMI       55.10   1.000   P
 GRJI       60.30   1.000   P
 WOJI       61.40   1.000   P
 JAGI       63.70   1.000   S
 GMJI       68.70   1.000   S
 GRJI      107.40   1.000   S
# 2012 09 04 13 42 14.4  -10.73    113.81     17.0  4.8   0.0   0.0   0.603       215
 JAGI       36.00   1.000   P
 GMJI       38.70   1.000   P
 BYJI       40.30   1.000   P
 BLJI       45.90   1.000   P
 PWJI       50.30   1.000   P
 PCJI       53.50   1.000   P
 SWJI       55.10   1.000   P
 WOJI       59.90   1.000   P
 GRJI       60.40   1.000   P
 NGJI       61.40   1.000   P
 PWJI       88.30   1.000   S
# 2012 09 04 13 47 06.9  -10.74    113.87     19.0  4.0   0.0   0.0   0.520       216
 JAGI       36.20   1.000   P
 GMJI       38.70   1.000   P
 BLJI       46.80   1.000   P
 PWJI       50.60   1.000   P
 SWJI       54.70   1.000   P
 KMMI       56.70   1.000   P
 JAGI       65.20   1.000   S
 GMJI       70.40   1.000   S
 PWJI       88.50   1.000   S
 SWJI       98.80   1.000   S
# 2012 09 04 14 08 28.1  -10.76    113.82     33.0  4.4   0.0   0.0   0.576       217
 JAGI       34.90   1.000   P
 GMJI       37.50   1.000   P
 BLJI       46.40   1.000   P
 PWJI       49.20   1.000   P
 SWJI       54.10   1.000   P
 KMMI       55.60   1.000   P
 GRJI       59.00   1.000   P
 WOJI       60.20   1.000   P
 TBJI       64.20   1.000   P
 KPJI       85.40   1.000   P
# 2012 09 04 14 30 28.8  -10.75    113.79     27.0  3.9   0.0   0.0   0.511       218
 JAGI       35.80   1.000   P
 GMJI       37.80   1.000   P
 BLJI       46.50   1.000   P
 PWJI       49.40   1.000   P
 SWJI       54.20   1.000   P
 WOJI       59.70   1.000   P
# 2012 09 04 14 35 15.7  -10.85    113.84     26.0  4.2   0.0   0.0   0.436       219
 JAGI       36.70   1.000   P
 GMJI       40.00   1.000   P
 BYJI       41.20   1.000   P
 BLJI       47.50   1.000   P
 PWJI       50.40   1.000   P
 SWJI       56.00   1.000   P
 WOJI       61.10   1.000   P
 JAGI       66.40   1.000   S
 GMJI       71.40   1.000   S
# 2012 09 04 14 52 58.2  -10.84    113.86     10.0  3.5   0.0   0.0   0.334       220
 JAGI       39.20   1.000   P
 GMJI       41.10   1.000   P
 PWJI       52.10   1.000   P
 JAGI       69.10   1.000   S
# 2012 09 04 15 02 21.6  -10.71    113.89     79.0  3.6   0.0   0.0   0.529       221
 JAGI       34.60   1.000   P
 GMJI       37.50   1.000   P
 PWJI       48.40   1.000   P
 JAGI       62.80   1.000   S
 GMJI       67.40   1.000   S
 PWJI       86.50   1.000   S
# 2012 09 04 15 29 33.4  -10.81    113.83     50.0  4.4   0.0   0.0   0.918       222
 JAGI       35.90   1.000   P
 GMJI       38.80   1.000   P
 BYJI       40.10   1.000   P
 BLJI       46.80   1.000   P
 PWJI       49.60   1.000   P
 SWJI       53.80   1.000   P
 PCJI       54.20   1.000   P
 KMMI       55.40   1.000   P
 WOJI       60.50   1.000   P
 NGJI       63.00   1.000   P
 JAGI       64.50   1.000   S
 GMJI       69.20   1.000   S
 KPJI       85.80   1.000   P
 WOJI      105.80   1.000   S
 KPJI      152.50   1.000   S
# 2012 09 04 16 11 20.1  -10.53    113.84     18.0  3.5   0.0   0.0   0.511       223
 JAGI       33.80   1.000   P
 GMJI       36.60   1.000   P
 PWJI       47.70   1.000   P
 SWJI       52.90   1.000   P
 JAGI       59.30   1.000   S
 JAGI       68.70   1.000   S
# 2012 09 04 16 26 31.1  -10.48    113.88     55.0  3.7   0.0   0.0   0.473       224
 JAGI       31.70   1.000   P
 GMJI       34.90   1.000   P
 PWJI       45.90   1.000   P
 SWJI       51.30   1.000   P
 JAGI       56.40   1.000   S
 WOJI       57.90   1.000   P
 GMJI       61.30   1.000   S
 WOJI      102.40   1.000   S
# 2012 09 04 19 24 58.5  -10.73    113.93     14.0  3.6   0.0   0.0   0.125       225
 JAGI       36.70   1.000   P
 GMJI       39.90   1.000   P
 PWJI       50.50   1.000   P
 SWJI       56.30   1.000   P
 JAGI       65.40   1.000   S
 PWJI       90.20   1.000   S
# 2012 09 04 19 52 39.7  -10.82    113.78     38.0  4.6   0.0   0.0   0.363       226
 JAGI       36.10   1.000   P
 GMJI       38.50   1.000   P
 BYJI       41.00   1.000   P
 BLJI       46.10   1.000   P
 PWJI       48.70   1.000   P
 PCJI       53.70   1.000   P
 SWJI       54.30   1.000   P
 KMMI       55.90   1.000   P
 GRJI       59.90   1.000   P
 WOJI       60.40   1.000   P
 NGJI       60.80   1.000   P
 TBJI       64.20   1.000   P
 JAGI       65.00   1.000   S
 SMRI       72.40   1.000   P
 KPJI       85.20   1.000   P
  LEM      103.70   1.000   P
# 2012 09 04 20 00 02.7  -10.87    113.80     20.0  4.3   0.0   0.0   0.489       227
 JAGI       37.70   1.000   P
 GMJI       39.90   1.000   P
 BYJI       42.40   1.000   P
 BLJI       48.10   1.000   P
 PWJI       50.50   1.000   P
 SWJI       56.10   1.000   P
 PCJI       56.60   1.000   P
 KMMI       57.70   1.000   P
 WOJI       62.10   1.000   P
 NGJI       62.30   1.000   P
 TBJI       66.40   1.000   P
 JAGI       68.60   1.000   S
 GMJI       72.80   1.000   S
 KPJI       87.10   1.000   P
 PWJI       90.60   1.000   S
# 2012 09 04 21 19 31.6  -10.99    113.91     24.0  5.1   0.0   0.0   0.695       228
 JAGI       38.60   1.000   P
 GMJI       41.80   1.000   P
 BYJI       43.00   1.000   P
 BLJI       49.60   1.000   P
 PWJI       53.40   1.000   P
 PCJI       57.00   1.000   P
 SWJI       57.10   1.000   P
 KMMI       59.20   1.000   P
 GRJI       63.60   1.000   P
 WOJI       63.90   1.000   P
 NGJI       65.90   1.000   P
 TBJI       68.20   1.000   P
 SMRI       76.60   1.000   P
 CTJI       89.10   1.000   P
 KPJI       90.00   1.000   P
 CMJI       90.80   1.000   P
 JCJI      100.70   1.000   P
  LEM      107.60   1.000   P
 SKJI      118.00   1.000   P
 CGJI      131.30   1.000   P
# 2012 09 04 23 58 48.1  -10.79    113.98     33.0  3.6   0.0   0.0   0.656       229
 JAGI       35.40   1.000   P
 GMJI       38.20   1.000   P
 BYJI       39.30   1.000   P
 PWJI       50.30   1.000   P
 JAGI       64.20   1.000   S
 GMJI       69.20   1.000   S
 PWJI       89.90   1.000   S
# 2012 09 05 00 48 07.6  -10.85    113.85     53.0  4.9   0.0   0.0   1.415       230
 JAGI       35.80   1.000   P
 GMJI       38.90   1.000   P
 BYJI       40.70   1.000   P
 BLJI       46.90   1.000   P
 PWJI       49.30   1.000   P
 PCJI       54.10   1.000   P
 SWJI       55.50   1.000   P
 KMMI       56.50   1.000   P
 WOJI       59.60   1.000   P
 TBJI       62.60   1.000   P
 JAGI       65.50   1.000   S
 GMJI       68.80   1.000   S
 BYJI       72.50   1.000   S
 SMRI       73.10   1.000   P
 KPJI       84.90   1.000   P
 CMJI       87.00   1.000   P
 CTJI       87.20   1.000   P
 PWJI       89.00   1.000   S
 TBJI      115.20   1.000   S
# 2012 09 05 02 06 54.6  -10.79    113.82     10.0  4.4   0.0   0.0   0.557       231
 JAGI       37.30   1.000   P
 GMJI       40.60   1.000   P
 BLJI       48.50   1.000   P
 PWJI       50.70   1.000   P
 SWJI       56.40   1.000   P
 PCJI       57.40   1.000   P
 KMMI       58.40   1.000   P
 WOJI       62.50   1.000   P
# 2012 09 05 03 01 10.4  -10.90    113.76     10.0  4.6   0.0   0.0   0.684       232
 JAGI       39.20   1.000   P
 GMJI       41.40   1.000   P
 BYJI       44.30   1.000   P
 BLJI       50.10   1.000   P
 PWJI       53.00   1.000   P
 PCJI       57.20   1.000   P
 SWJI       57.20   1.000   P
 KMMI       59.80   1.000   P
 WOJI       62.00   1.000   P
# 2012 09 05 04 13 08.3  -10.92    113.67     10.0  4.3   0.0   0.0   0.546       233
 JAGI       40.30   1.000   P
 GMJI       42.50   1.000   P
# 2012 09 05 05 57 00.8  -10.67    113.96     16.0  3.6   0.0   0.0   0.332       234
 JAGI       35.50   1.000   P
 GMJI       38.80   1.000   P
 PWJI       50.40   1.000   P
 GMJI       69.10   1.000   S
# 2012 09 05 17 47 59.8  -10.81    113.83     12.0  4.5   0.0   0.0   0.956       235
 JAGI       38.00   1.000   P
 GMJI       39.10   1.000   P
 BYJI       43.10   1.000   P
 BLJI       49.30   1.000   P
 PWJI       51.50   1.000   P
 SWJI       57.60   1.000   P
 KMMI       58.40   1.000   P
 PWJI       90.90   1.000   S
# 2012 09 05 19 00 20.3  -10.37    113.81     10.0  3.5   0.0   0.0   0.454       236
 JAGI       32.60   1.000   P
 GMJI       35.50   1.000   P
 BLJI       41.80   1.000   P
 PWJI       46.70   1.000   P
# 2012 09 05 20 25 05.4  -10.79    113.89     10.0  3.5   0.0   0.0   0.496       237
 JAGI       37.70   1.000   P
 GMJI       40.40   1.000   P
 PWJI       51.80   1.000   P
# 2012 09 06 03 47 54.1  -10.60    113.90     22.0  3.8   0.0   0.0   0.508       238
 JAGI       34.10   1.000   P
 GMJI       36.90   1.000   P
 BLJI       43.90   1.000   P
 PWJI       48.50   1.000   P
 SWJI       53.90   1.000   P
 WOJI       60.70   1.000   P
 JAGI       60.90   1.000   S
 JAGI       69.50   1.000   S
 PWJI       86.30   1.000   S
# 2012 09 06 18 11 33.2  -08.23    110.17     11.0  3.2   0.0   0.0   0.855       239
 WOJI       14.50   1.000   P
 PCJI       17.00   1.000   P
 SMRI       22.00   1.000   P
 KPJI       26.30   1.000   P
 WOJI       26.60   1.000   S
 CTJI       26.80   1.000   P
 PWJI       26.90   1.000   P
 SWJI       28.70   1.000   P
 NGJI       28.70   1.000   P
 PCJI       31.00   1.000   S
 KPJI       45.60   1.000   S
 CTJI       46.10   1.000   S
 PWJI       49.00   1.000   S
 SWJI       49.50   1.000   S
# 2012 09 06 19 23 24.2  -10.77    113.82     23.0  3.9   0.0   0.0   0.554       240
 JAGI       36.20   1.000   P
 GMJI       38.80   1.000   P
 PWJI       49.80   1.000   P
 SWJI       53.90   1.000   P
 WOJI       60.60   1.000   P
 JAGI       65.40   1.000   S
 PWJI       88.70   1.000   S
 SWJI       96.80   1.000   S
