# 2012 02 23 22 53 08.8  -08.81    112.51     57.0  2.9   0.0   0.0   0.470        51
 PWJI       18.10   1.000   P
 GMJI       18.80   1.000   P
 PCJI       23.60   1.000   P
 BLJI       25.10   1.000   P
 JAGI       26.40   1.000   P
# 2012 02 26 16 16 13.6  -10.70    113.45     13.0  3.4   0.0   0.0   0.534        52
 JAGI       37.80   1.000   P
 GMJI       39.20   1.000   P
 PWJI       46.70   1.000   P
 SWJI       52.70   1.000   P
 JAGI       66.10   1.000   S
 GMJI       69.60   1.000   S
 SWJI       93.50   1.000   S
# 2012 02 29 00 03 13.4  -09.28    112.51     54.0  4.2   0.0   0.0   0.891        53
 PWJI       23.30   1.000   P
 PCJI       27.20   1.000   P
 SWJI       27.20   1.000   P
 JAGI       28.00   1.000   P
 BLJI       29.70   1.000   P
 ABJI       36.00   1.000   P
 GRJI       36.80   1.000   P
 PWJI       39.80   1.000   S
 TBJI       40.00   1.000   P
 KMMI       40.90   1.000   P
 SMRI       46.10   1.000   P
 PCJI       47.10   1.000   S
 SWJI       48.40   1.000   S
 JAGI       50.10   1.000   S
 BLJI       51.80   1.000   S
 SCJI       54.80   1.000   P
 CMJI       61.90   1.000   P
 ABJI       63.30   1.000   S
 GRJI       63.80   1.000   S
 CGJI      103.60   1.000   P
# 2012 02 29 02 30 05.4  -09.52    112.83     62.0  3.1   0.0   0.0   0.338        54
 GMJI       22.50   1.000   P
 JAGI       26.30   1.000   P
 PWJI       27.10   1.000   P
 BLJI       30.10   1.000   P
 BYJI       31.40   1.000   P
 SWJI       32.00   1.000   P
 PCJI       32.60   1.000   P
 ABJI       33.90   1.000   P
 JAGI       47.80   1.000   S
 PCJI       57.90   1.000   S
# 2012 02 29 05 59 20.3  -09.72    113.99     10.0  3.9   0.0   0.0   1.187        55
 JAGI       21.60   1.000   P
 GMJI       25.20   1.000   P
 BYJI       26.60   1.000   P
 ABJI       34.00   1.000   P
 JAGI       37.30   1.000   S
 PWJI       42.50   1.000   P
 SWJI       47.10   1.000   P
 BYJI       48.60   1.000   S
 PCJI       48.70   1.000   P
 ABJI       59.50   1.000   S
 BLJI       60.40   1.000   P
 PWJI       75.30   1.000   S
# 2012 03 01 06 46 53.1  -09.24    113.48     10.0  3.1   0.0   0.0   0.805        56
 GMJI       17.80   1.000   P
 JAGI       18.40   1.000   P
 BLJI       27.80   1.000   P
 ABJI       30.00   1.000   P
 GMJI       31.60   1.000   S
 JAGI       32.50   1.000   S
 PWJI       33.00   1.000   P
 PCJI       40.00   1.000   P
 BLJI       47.00   1.000   S
 PWJI       58.60   1.000   S
# 2012 03 04 01 47 18.2  -09.74    113.85     10.0  3.6   0.0   0.0   0.978        57
 JAGI       22.50   1.000   P
 GMJI       25.30   1.000   P
 BLJI       35.70   1.000   P
 PWJI       40.30   1.000   P
 JAGI       40.90   1.000   S
 SWJI       46.10   1.000   P
 GMJI       47.80   1.000   S
 PWJI       73.40   1.000   S
# 2012 03 06 00 50 07.4  -09.40    110.39     10.0  3.6   0.0   0.0   0.255        58
 PWJI       31.40   1.000   P
 SCJI       34.90   1.000   P
 SWJI       35.50   1.000   P
 CMJI       40.90   1.000   P
 PWJI       54.70   1.000   S
 SWJI       63.60   1.000   S
# 2012 03 06 05 48 56.1  -09.67    113.99     21.0  2.9   0.0   0.0   0.412        59
 JAGI       21.60   1.000   P
 GMJI       26.00   1.000   P
 JAGI       37.10   1.000   S
 GMJI       45.50   1.000   S
# 2012 03 07 04 40 57.4  -08.72    111.46     29.0  3.7   0.0   0.0   0.777        60
 PCJI       11.60   1.000   P
 PWJI       14.10   1.000   P
 SWJI       18.50   1.000   P
 PWJI       20.90   1.000   S
 PCJI       21.80   1.000   S
 GMJI       30.60   1.000   P
 BLJI       36.40   1.000   P
 JAGI       40.00   1.000   P
 CTJI       41.90   1.000   P
 ABJI       43.90   1.000   P
 CMJI       47.40   1.000   P
 GMJI       55.70   1.000   S
# 2012 03 07 08 08 12.2  -08.90    113.04     30.0  3.0   0.0   0.0   0.348        61
 GMJI       14.10   1.000   P
 JAGI       20.20   1.000   P
 BLJI       22.30   1.000   P
 PWJI       24.00   1.000   P
 GMJI       25.80   1.000   S
 PCJI       31.10   1.000   P
 JAGI       35.80   1.000   S
 PWJI       41.30   1.000   S
 SWJI       49.20   1.000   P
# 2012 03 07 15 16 49.8  -07.76    113.73    231.0  3.4   0.0   0.0   0.398        62
 BLJI       30.40   1.000   P
 GMJI       30.90   1.000   P
 ABJI       31.40   1.000   P
 JAGI       31.80   1.000   P
 KMMI       32.00   1.000   P
 BYJI       33.00   1.000   P
 GRJI       36.70   1.000   P
 PWJI       40.40   1.000   P
 PCJI       47.10   1.000   P
# 2012 03 08 23 43 42.5  -08.01    113.38     10.0  2.8   0.0   0.0   0.706        63
 GMJI        5.40   1.000   P
 BLJI        6.60   1.000   P
 GMJI       11.20   1.000   S
 JAGI       16.10   1.000   P
 ABJI       17.70   1.000   P
 BYJI       19.40   1.000   P
 KMMI       20.80   1.000   P
 GRJI       25.10   1.000   P
 PWJI       26.80   1.000   P
 SWJI       29.30   1.000   P
 JAGI       29.90   1.000   S
 PCJI       36.50   1.000   P
 PWJI       49.40   1.000   S
# 2012 03 09 04 03 47.7  -08.02    113.37     10.0  2.4   0.0   0.0   0.475        64
 GMJI        6.00   1.000   P
 BLJI        7.40   1.000   P
 ABJI       17.80   1.000   P
 PWJI       27.80   1.000   P
# 2012 03 09 10 59 51.1  -07.53    113.80     10.0  3.2   0.0   0.0   0.615        65
 KMMI        9.60   1.000   P
 ABJI       11.60   1.000   P
 GMJI       14.70   1.000   P
 JAGI       19.20   1.000   P
 GRJI       26.80   1.000   P
 GMJI       27.80   1.000   S
 SWJI       34.70   1.000   P
 PWJI       35.30   1.000   P
 PCJI       43.40   1.000   P
# 2012 03 09 15 45 29.5  -07.96    113.43     12.0  3.2   0.0   0.0   0.651        66
 BLJI        5.90   1.000   P
 GMJI        6.30   1.000   P
 BLJI       11.70   1.000   S
 GMJI       13.30   1.000   S
 JAGI       16.40   1.000   P
 KMMI       20.50   1.000   P
 PWJI       28.00   1.000   P
 SWJI       29.50   1.000   P
 JAGI       30.00   1.000   S
 PCJI       36.10   1.000   P
# 2012 03 09 15 50 16.8  -07.91    113.31     15.0  2.6   0.0   0.0   0.030        67
 BLJI        7.20   1.000   P
 GMJI        8.20   1.000   P
 GMJI       14.80   1.000   S
 JAGI       18.40   1.000   P
 JAGI       32.30   1.000   S
# 2012 03 09 16 41 17.1  -08.80    110.21     26.0  3.4   0.0   0.0   0.502        68
 PCJI       19.00   1.000   P
 SCJI       24.80   1.000   P
 PWJI       28.20   1.000   P
 SWJI       30.70   1.000   P
 CMJI       31.90   1.000   P
 CTJI       33.50   1.000   P
 PWJI       49.10   1.000   S
 GMJI       49.20   1.000   P
 SWJI       53.50   1.000   S
# 2012 03 09 18 37 59.6  -07.95    113.46     10.0  2.6   0.0   0.0   0.473        69
 BLJI        5.70   1.000   P
 GMJI        6.30   1.000   P
 BLJI       10.20   1.000   S
 GMJI       12.90   1.000   S
 JAGI       16.60   1.000   P
 KMMI       20.20   1.000   P
 JAGI       29.00   1.000   S
 PWJI       29.10   1.000   P
 SWJI       29.30   1.000   P
# 2012 03 09 21 27 09.4  -09.24    112.94     68.0  4.7   0.0   0.0   1.348        70
 GMJI       18.40   1.000   P
 JAGI       23.20   1.000   P
 PWJI       26.50   1.000   P
 BLJI       26.80   1.000   P
 BYJI       28.60   1.000   P
 SWJI       30.00   1.000   P
 ABJI       31.30   1.000   P
 GMJI       32.00   1.000   S
 PCJI       32.00   1.000   P
 GRJI       37.00   1.000   P
 KMMI       37.50   1.000   P
 JAGI       39.70   1.000   S
 TBJI       41.10   1.000   P
 PWJI       46.00   1.000   S
 BLJI       47.30   1.000   S
 SMRI       50.00   1.000   P
 BYJI       50.50   1.000   S
 BWJI       51.00   1.000   P
 SWJI       54.90   1.000   S
 PCJI       55.60   1.000   S
 ABJI       56.20   1.000   S
 SCJI       59.60   1.000   P
 CTJI       64.00   1.000   P
 GRJI       64.60   1.000   S
 CMJI       67.40   1.000   P
 TBJI       71.10   1.000   S
 CGJI      110.00   1.000   P
# 2012 03 10 10 33 11.1  -07.95    113.56     30.0  2.5   0.0   0.0   0.346        71
 BLJI        7.50   1.000   P
 GMJI        9.50   1.000   P
 BLJI       13.20   1.000   S
 ABJI       13.60   1.000   P
 JAGI       15.10   1.000   P
 GMJI       16.10   1.000   S
 KMMI       17.50   1.000   P
 GRJI       24.90   1.000   P
 ABJI       25.10   1.000   S
 JAGI       26.10   1.000   S
 KMMI       30.40   1.000   S
# 2012 03 10 19 19 38.9  -11.01    113.36     27.0  4.6   0.0   0.0   0.419        72
 JAGI       40.40   1.000   P
 GMJI       40.50   1.000   P
 BYJI       45.30   1.000   P
 PWJI       49.40   1.000   P
 BLJI       49.50   1.000   P
 ABJI       50.30   1.000   P
 PCJI       53.10   1.000   P
 SWJI       53.60   1.000   P
 KMMI       59.70   1.000   P
 GRJI       62.40   1.000   P
 SMRI       71.80   1.000   P
 JAGI       72.80   1.000   S
 GMJI       74.80   1.000   S
 BYJI       80.60   1.000   S
 CTJI       84.00   1.000   P
 PWJI       85.80   1.000   S
 BLJI       88.00   1.000   S
 ABJI       89.50   1.000   S
 PCJI       95.10   1.000   S
 SWJI       97.20   1.000   S
  LEM      102.00   1.000   P
 KMMI      106.40   1.000   S
 GRJI      110.30   1.000   S
 SMRI      127.90   1.000   S
 BWJI      135.10   1.000   P
 SCJI      138.00   1.000   P
 CTJI      148.80   1.000   S
 JCJI      170.10   1.000   P
  LEM      181.80   1.000   S
# 2012 03 11 14 23 36.9  -09.23    113.49     10.0  3.0   0.0   0.0   0.403        73
 GMJI       18.30   1.000   P
 JAGI       19.10   1.000   P
 GMJI       31.80   1.000   S
 JAGI       33.10   1.000   S
 PWJI       33.10   1.000   P
 PCJI       40.50   1.000   P
 PWJI       58.20   1.000   S
# 2012 03 12 02 47 11.1  -10.11    113.40     21.0  3.5   0.0   0.0   0.797        74
 JAGI       29.90   1.000   P
 GMJI       30.00   1.000   P
 BLJI       37.80   1.000   P
 ABJI       38.70   1.000   P
 PWJI       39.80   1.000   P
 PCJI       43.20   1.000   P
 SWJI       44.10   1.000   P
 JAGI       52.60   1.000   S
 GMJI       53.20   1.000   S
 PWJI       70.80   1.000   S
 SWJI       78.00   1.000   S
# 2012 03 12 14 06 52.5  -07.96    111.68     10.0  2.1   0.0   0.0   0.356        75
 SWJI        5.80   1.000   P
 PWJI        7.10   1.000   P
 PWJI       11.30   1.000   S
 PCJI       11.80   1.000   P
 PCJI       19.30   1.000   S
# 2012 03 12 16 16 42.3  -09.60    113.91     11.0  3.4   0.0   0.0   0.771        76
 JAGI       20.80   1.000   P
 GMJI       24.00   1.000   P
 BYJI       26.80   1.000   P
 ABJI       32.80   1.000   P
 BLJI       33.40   1.000   P
 JAGI       37.10   1.000   S
 PWJI       40.90   1.000   P
 KMMI       42.70   1.000   P
 GMJI       43.00   1.000   S
 SWJI       44.50   1.000   P
 GRJI       48.10   1.000   P
 PWJI       71.80   1.000   S
# 2012 03 12 16 25 38.3  -09.62    113.88     10.0  4.1   0.0   0.0   0.852        77
 JAGI       20.80   1.000   P
 BYJI       26.80   1.000   P
 BLJI       33.20   1.000   P
 ABJI       33.30   1.000   P
 JAGI       37.40   1.000   S
 PWJI       40.30   1.000   P
 KMMI       43.20   1.000   P
 GMJI       43.40   1.000   P
 SWJI       44.70   1.000   P
 PCJI       47.70   1.000   P
 GRJI       49.60   1.000   P
 BLJI       57.00   1.000   S
# 2012 03 12 22 37 57.5  -10.55    113.98     10.0  3.6   0.0   0.0   0.726        78
 JAGI       34.80   1.000   P
 GMJI       38.10   1.000   P
 ABJI       45.00   1.000   P
 PWJI       50.80   1.000   P
 JAGI       61.90   1.000   S
 GMJI       67.10   1.000   S
# 2012 03 16 14 50 39.6  -09.12    112.48     60.0  3.6   0.0   0.0   0.475        79
 PWJI       20.70   1.000   P
 GMJI       21.60   1.000   P
 SWJI       24.60   1.000   P
 PCJI       25.30   1.000   P
 BLJI       28.60   1.000   P
 JAGI       28.80   1.000   P
 GMJI       38.30   1.000   S
 BLJI       50.10   1.000   S
 JAGI       50.10   1.000   S
# 2012 03 17 19 42 04.5  -09.02    113.19     19.0  3.4   0.0   0.0   0.395        80
 GMJI       15.60   1.000   P
 JAGI       20.00   1.000   P
 GMJI       27.20   1.000   S
 PWJI       27.30   1.000   P
 ABJI       28.10   1.000   P
 SWJI       31.20   1.000   P
 JAGI       34.80   1.000   S
 PWJI       47.70   1.000   S
 SWJI       55.90   1.000   S
# 2012 03 19 02 19 37.5  -08.03    110.43     10.0  4.2   0.0   0.0   0.948        81
 PCJI       14.40   1.000   P
 SMRI       18.90   1.000   P
 SCJI       22.40   1.000   P
 PWJI       24.00   1.000   P
 SWJI       24.30   1.000   P
 PCJI       24.80   1.000   S
 CTJI       28.50   1.000   P
 TBJI       31.70   1.000   P
 CMJI       32.00   1.000   P
 SMRI       32.80   1.000   S
 GRJI       37.60   1.000   P
 PWJI       41.20   1.000   S
 GMJI       48.00   1.000   P
  LEM       49.40   1.000   P
 CTJI       50.20   1.000   S
 BLJI       50.50   1.000   P
 TBJI       55.80   1.000   S
 ABJI       58.40   1.000   P
 JAGI       58.70   1.000   P
 GRJI       67.00   1.000   S
 GMJI       86.40   1.000   S
 JAGI      101.20   1.000   S
# 2012 03 21 06 02 41.1  -09.08    112.73     10.0  3.4   0.0   0.0   0.697        82
 GMJI       19.40   1.000   P
 PWJI       23.80   1.000   P
 JAGI       25.60   1.000   P
 SWJI       28.00   1.000   P
 BLJI       28.20   1.000   P
 PCJI       30.10   1.000   P
 ABJI       34.10   1.000   P
 GMJI       35.00   1.000   S
 PWJI       41.10   1.000   S
 JAGI       47.90   1.000   S
 BLJI       48.70   1.000   S
 SWJI       51.00   1.000   S
 PCJI       53.90   1.000   S
 ABJI       58.70   1.000   S
# 2012 03 22 14 59 45.4  -09.51    112.77     21.0  3.8   0.0   0.0   0.966        83
 JAGI       28.00   1.000   P
 PWJI       28.20   1.000   P
 BLJI       31.70   1.000   P
 PCJI       32.60   1.000   P
 SWJI       32.80   1.000   P
 BYJI       33.40   1.000   P
 ABJI       35.90   1.000   P
 GRJI       42.10   1.000   P
 KMMI       42.30   1.000   P
 PWJI       49.00   1.000   S
 JAGI       49.30   1.000   S
 BLJI       54.60   1.000   S
 PCJI       58.10   1.000   S
 ABJI       66.30   1.000   S
# 2012 03 22 18 49 06.1  -07.77    112.96     11.0  2.7   0.0   0.0   0.597        84
 BLJI       12.60   1.000   P
 GRJI       18.10   1.000   P
 PWJI       21.20   1.000   P
 BLJI       21.60   1.000   S
 KMMI       21.90   1.000   P
 SWJI       22.50   1.000   P
 ABJI       23.20   1.000   P
 JAGI       24.20   1.000   P
 GRJI       32.20   1.000   S
 SWJI       38.00   1.000   S
 KMMI       39.40   1.000   S
 JAGI       43.50   1.000   S
# 2012 03 24 17 21 55.4  -08.41    111.03     15.0  3.2   0.0   0.0   0.600        85
 PCJI        6.50   1.000   P
 PCJI       11.00   1.000   S
 PWJI       15.30   1.000   P
 SWJI       18.00   1.000   P
 PWJI       26.30   1.000   S
 SWJI       31.40   1.000   S
 GRJI       34.40   1.000   P
 KPJI       37.60   1.000   P
 GMJI       38.20   1.000   P
 JAGI       48.60   1.000   P
 GRJI       61.10   1.000   S
 JAGI       84.60   1.000   S
# 2012 03 26 06 26 12.9  -09.45    113.58     60.0  3.4   0.0   0.0   0.980        86
 JAGI       19.60   1.000   P
 GMJI       20.10   1.000   P
 BLJI       28.10   1.000   P
 PWJI       34.40   1.000   P
 JAGI       35.20   1.000   S
 GMJI       35.50   1.000   S
 PCJI       40.40   1.000   P
 BLJI       48.80   1.000   S
 PWJI       60.80   1.000   S
 PCJI       69.50   1.000   S
# 2012 03 26 20 41 46.4  -10.97    111.87     10.0  4.1   0.0   0.0   0.840        87
 PCJI       44.50   1.000   P
 PWJI       45.90   1.000   P
 GMJI       49.30   1.000   P
 SWJI       50.90   1.000   P
 JAGI       52.70   1.000   P
 BLJI       57.70   1.000   P
 ABJI       61.40   1.000   P
 GRJI       63.30   1.000   P
 CMJI       68.90   1.000   P
 PCJI       80.20   1.000   S
 GMJI       86.30   1.000   S
 SWJI       90.70   1.000   S
 JAGI       92.80   1.000   S
 BLJI      100.40   1.000   S
 GRJI      111.30   1.000   S
# 2012 03 27 19 25 39.2  -08.69    112.42     51.0  3.1   0.0   0.0   0.589        88
 PWJI       15.80   1.000   P
 GMJI       18.90   1.000   P
 SWJI       19.70   1.000   P
 PCJI       21.30   1.000   P
 BLJI       24.00   1.000   P
 JAGI       27.10   1.000   P
 GRJI       27.30   1.000   P
 TBJI       29.60   1.000   P
 ABJI       31.40   1.000   P
 SWJI       35.20   1.000   S
 JAGI       48.70   1.000   S
 ABJI       57.10   1.000   S
# 2012 03 28 20 27 20.6  -09.42    110.46     25.0  3.0   0.0   0.0   0.394        89
 PCJI       22.90   1.000   P
 PWJI       29.80   1.000   P
 SWJI       34.00   1.000   P
 SCJI       34.30   1.000   P
 KPJI       40.10   1.000   P
 PCJI       41.90   1.000   S
 PWJI       52.30   1.000   S
 SWJI       60.30   1.000   S
# 2012 03 28 23 09 48.1  -09.33    113.48     50.0  4.9   0.0   0.0   0.972        90
 GMJI       16.60   1.000   P
 JAGI       17.30   1.000   P
 BYJI       23.10   1.000   P
 BLJI       26.00   1.000   P
 ABJI       28.60   1.000   P
 GMJI       29.90   1.000   S
 JAGI       31.80   1.000   S
 PWJI       31.80   1.000   P
 SWJI       35.50   1.000   P
 KMMI       36.70   1.000   P
 PCJI       37.60   1.000   P
 GRJI       40.40   1.000   P
 TBJI       45.40   1.000   P
 ABJI       48.30   1.000   S
 BWJI       52.50   1.000   P
 PWJI       55.20   1.000   S
 SCJI       66.70   1.000   P
 CTJI       70.40   1.000   P
 KPJI       72.10   1.000   P
 CMJI       74.10   1.000   P
  LEM       90.60   1.000   P
 CNJI       94.10   1.000   P
 SKJI      104.10   1.000   P
 CGJI      115.60   1.000   P
# 2012 03 29 15 57 06.5  -09.21    110.30     18.0  2.9   0.0   0.0   0.504        91
 PCJI       22.10   1.000   P
 PWJI       30.50   1.000   P
 SWJI       33.60   1.000   P
 PCJI       40.60   1.000   S
 PWJI       53.00   1.000   S
 SWJI       59.30   1.000   S
# 2012 03 31 03 06 12.5  -08.89    111.17     23.0  3.8   0.0   0.0   0.854        92
 PCJI       13.30   1.000   P
 PWJI       18.60   1.000   P
 SWJI       22.40   1.000   P
 PCJI       23.30   1.000   S
 PWJI       32.00   1.000   S
 TBJI       35.30   1.000   P
 GMJI       36.10   1.000   P
 SCJI       36.30   1.000   P
 GRJI       37.90   1.000   P
 SWJI       39.40   1.000   S
 BLJI       41.80   1.000   P
 KPJI       43.10   1.000   P
 CMJI       43.90   1.000   P
 JAGI       45.80   1.000   P
# 2012 03 31 03 46 40.5  -09.05    112.91     33.0  4.0   0.0   0.0   0.399        93
 GMJI       17.20   1.000   P
 JAGI       23.20   1.000   P
 PWJI       23.50   1.000   P
 BLJI       24.60   1.000   P
 SWJI       27.20   1.000   P
 GMJI       30.00   1.000   S
 PCJI       30.30   1.000   P
 GRJI       33.90   1.000   P
 JAGI       40.50   1.000   S
 PWJI       41.40   1.000   S
 BLJI       42.80   1.000   S
 CGJI      107.90   1.000   P
# 2012 04 02 12 48 22.4  -06.86    112.47     19.0  3.2   0.0   0.0   0.806        94
 GRJI        2.80   1.000   P
 TBJI       12.70   1.000   P
 BWJI       18.60   1.000   P
 SWJI       21.20   1.000   P
 TBJI       23.30   1.000   S
 KMMI       25.00   1.000   P
 BLJI       25.10   1.000   P
 PWJI       26.30   1.000   P
 PCJI       31.00   1.000   P
 BWJI       33.10   1.000   S
 SMRI       33.40   1.000   P
 JAGI       37.50   1.000   P
 KMMI       43.70   1.000   S
# 2012 04 06 10 25 43.5  -07.74    113.97     10.0  2.7   0.0   0.0   0.206        95
 BLJI        8.20   1.000   P
 KMMI       13.80   1.000   P
 JAGI       14.40   1.000   P
 GMJI       15.00   1.000   P
# 2012 04 07 15 53 30.4  -07.72    113.96     10.0  2.3   0.0   0.0   0.356        96
 BLJI        8.70   1.000   P
 KMMI       13.50   1.000   P
 BLJI       13.60   1.000   S
 GMJI       14.50   1.000   P
 JAGI       15.10   1.000   P
 KMMI       23.10   1.000   S
 GMJI       25.50   1.000   S
 JAGI       25.60   1.000   S
# 2012 04 07 16 58 42.6  -07.72    113.98     10.0  2.4   0.0   0.0   0.688        97
 ABJI        5.80   1.000   P
 BLJI        8.30   1.000   P
 ABJI        9.80   1.000   S
 GMJI       14.90   1.000   P
 JAGI       15.00   1.000   P
