# 2012 09 07 05 21 09.7  -10.79    113.77     18.0  4.7   0.0   0.0   0.784       241
 JAGI       36.60   1.000   P
 GMJI       38.50   1.000   P
 BYJI       41.30   1.000   P
 BLJI       47.40   1.000   P
 PWJI       50.10   1.000   P
 SWJI       53.70   1.000   P
 PCJI       54.90   1.000   P
 KMMI       57.30   1.000   P
 GRJI       60.10   1.000   P
 WOJI       60.20   1.000   P
 GMJI       70.50   1.000   S
 KPJI       85.90   1.000   P
 PWJI       89.10   1.000   S
 KMMI       99.80   1.000   S
 CGJI      126.80   1.000   P
# 2012 09 07 06 44 34.4  -10.54    113.86     10.0  3.7   0.0   0.0   1.055       242
 JAGI       35.40   1.000   P
 GMJI       37.30   1.000   P
 PWJI       48.50   1.000   P
 JAGI       60.90   1.000   S
 GMJI       65.30   1.000   S
 PWJI       86.20   1.000   S
# 2012 09 07 09 41 30.7  -10.73    113.83     24.0  4.8   0.0   0.0   0.901       243
 JAGI       35.20   1.000   P
 GMJI       38.00   1.000   P
 BYJI       40.10   1.000   P
 BLJI       45.90   1.000   P
 PWJI       49.10   1.000   P
 SWJI       53.10   1.000   P
 PCJI       54.60   1.000   P
 KMMI       56.10   1.000   P
 WOJI       59.60   1.000   P
 GRJI       60.20   1.000   P
 NGJI       62.70   1.000   P
 JAGI       64.40   1.000   S
 KPJI       84.30   1.000   P
 PWJI       88.10   1.000   S
 SWJI       97.40   1.000   S
 KMMI       99.20   1.000   S
 GRJI      106.60   1.000   S
# 2012 09 07 13 08 34.6  -10.80    113.94     37.0  3.5   0.0   0.0   0.585       244
 JAGI       35.40   1.000   P
 GMJI       38.30   1.000   P
 PWJI       50.00   1.000   P
 PWJI       89.80   1.000   S
# 2012 09 07 13 44 43.9  -10.76    113.81     60.0  4.5   0.0   0.0   0.893       245
 JAGI       34.90   1.000   P
 GMJI       37.20   1.000   P
 BYJI       39.50   1.000   P
 BLJI       45.60   1.000   P
 PWJI       48.40   1.000   P
 PCJI       53.80   1.000   P
 KMMI       54.90   1.000   P
 SWJI       55.00   1.000   P
 WOJI       59.30   1.000   P
 JAGI       65.10   1.000   S
 PWJI       86.40   1.000   S
 SWJI       96.70   1.000   S
 CGJI      125.20   1.000   P
# 2012 09 07 14 30 16.8  -10.47    113.95     36.0  4.7   0.0   0.0   1.320       246
 JAGI       30.90   1.000   P
 GMJI       33.70   1.000   P
 BLJI       41.80   1.000   P
 PWJI       45.20   1.000   P
 SWJI       50.10   1.000   P
 KMMI       51.70   1.000   P
 PCJI       53.30   1.000   P
 NGJI       57.70   1.000   P
 WOJI       59.80   1.000   P
 PWJI       83.60   1.000   S
 CTJI       85.90   1.000   P
 KPJI       88.40   1.000   P
# 2012 09 07 14 38 05.6  -10.77    113.80     35.0  4.3   0.0   0.0   0.692       247
 JAGI       35.30   1.000   P
 GMJI       37.40   1.000   P
 BYJI       40.30   1.000   P
 BLJI       46.00   1.000   P
 PWJI       48.60   1.000   P
 SWJI       52.80   1.000   P
 PCJI       53.10   1.000   P
 KMMI       55.60   1.000   P
 GRJI       60.10   1.000   P
 WOJI       61.60   1.000   P
# 2012 09 07 14 45 11.1  -10.86    113.83     10.0  4.7   0.0   0.0   1.416       248
 JAGI       38.60   1.000   P
 GMJI       41.40   1.000   P
 BYJI       43.40   1.000   P
 BLJI       49.00   1.000   P
 PWJI       52.50   1.000   P
 SWJI       57.50   1.000   P
 KMMI       59.50   1.000   P
 WOJI       62.10   1.000   P
 NGJI       67.20   1.000   P
 JAGI       67.40   1.000   S
 BLJI       87.30   1.000   S
 PWJI       91.40   1.000   S
 CGJI      129.60   1.000   P
# 2012 09 07 16 36 14.4  -10.18    113.89     32.0  3.5   0.0   0.0   0.925       249
 JAGI       27.60   1.000   P
 GMJI       30.20   1.000   P
 BLJI       39.20   1.000   P
 PWJI       42.70   1.000   P
 PWJI       79.50   1.000   S
# 2012 09 07 16 49 37.8  -10.68    113.82     20.0  3.7   0.0   0.0   0.346       250
 JAGI       35.50   1.000   P
 GMJI       38.10   1.000   P
 PWJI       49.10   1.000   P
 JAGI       63.60   1.000   S
 GMJI       68.60   1.000   S
 PWJI       87.50   1.000   S
# 2012 09 07 17 41 07.7  -10.74    113.77     41.0  5.2   0.0   0.0   1.099       251
 JAGI       33.90   1.000   P
 GMJI       36.30   1.000   P
 BYJI       39.30   1.000   P
 BLJI       45.20   1.000   P
 PWJI       47.80   1.000   P
 SWJI       52.50   1.000   P
 PCJI       53.30   1.000   P
 KMMI       55.40   1.000   P
 WOJI       58.40   1.000   P
 GRJI       59.50   1.000   P
 JAGI       63.30   1.000   S
 KPJI       84.10   1.000   P
 CMJI       85.00   1.000   P
 CTJI       86.00   1.000   P
  LEM      103.30   1.000   P
 SKJI      116.10   1.000   P
 CGJI      125.20   1.000   P
# 2012 09 07 19 48 54.3  -10.66    113.78     10.0  4.6   0.0   0.0   0.959       252
 JAGI       35.50   1.000   P
 GMJI       38.50   1.000   P
 BYJI       40.70   1.000   P
 BLJI       47.40   1.000   P
 PWJI       49.30   1.000   P
 SWJI       54.30   1.000   P
 KMMI       57.60   1.000   P
 WOJI       60.00   1.000   P
 JAGI       65.50   1.000   S
 GMJI       69.00   1.000   S
 KPJI       85.90   1.000   P
 PWJI       87.50   1.000   S
# 2012 09 08 03 03 22.9  -10.70    113.83     30.0  3.9   0.0   0.0   0.402       253
 JAGI       35.00   1.000   P
 GMJI       38.00   1.000   P
 BYJI       39.10   1.000   P
 PWJI       48.20   1.000   P
 PCJI       53.70   1.000   P
 GRJI       59.10   1.000   P
 NGJI       60.20   1.000   P
 WOJI       60.50   1.000   P
 JAGI       62.10   1.000   S
 TBJI       64.40   1.000   P
 GMJI       67.00   1.000   S
 BYJI       69.30   1.000   S
 SMRI       72.30   1.000   P
 KPJI       85.10   1.000   P
 CTJI       85.40   1.000   P
 PWJI       86.20   1.000   S
 CMJI       87.30   1.000   P
# 2012 09 08 03 41 21.7  -10.78    113.91     29.0  4.0   0.0   0.0   0.284       254
 JAGI       35.20   1.000   P
 GMJI       38.30   1.000   P
 BYJI       39.30   1.000   P
 BLJI       45.40   1.000   P
 PWJI       49.10   1.000   P
 SWJI       54.40   1.000   P
 KMMI       55.00   1.000   P
 PCJI       55.00   1.000   P
 GRJI       60.10   1.000   P
 WOJI       60.70   1.000   P
 NGJI       60.90   1.000   P
 JAGI       63.00   1.000   S
 TBJI       64.50   1.000   P
 GMJI       68.70   1.000   S
 BYJI       70.60   1.000   S
 SMRI       72.70   1.000   P
 CTJI       85.80   1.000   P
 KPJI       85.90   1.000   P
 PWJI       88.10   1.000   S
 CMJI       88.70   1.000   P
# 2012 09 08 06 42 04.4  -10.77    113.78     43.0  4.6   0.0   0.0   0.509       255
 JAGI       35.20   1.000   P
 GMJI       37.40   1.000   P
 BYJI       40.40   1.000   P
 BLJI       46.00   1.000   P
 PWJI       48.50   1.000   P
 SWJI       53.30   1.000   P
 PCJI       53.70   1.000   P
 KMMI       55.60   1.000   P
 WOJI       59.50   1.000   P
 GRJI       59.70   1.000   P
 NGJI       60.10   1.000   P
 JAGI       63.10   1.000   S
 TBJI       64.70   1.000   P
 GMJI       67.70   1.000   S
 SMRI       72.30   1.000   P
 BLJI       80.40   1.000   S
 KPJI       84.40   1.000   P
 PWJI       85.10   1.000   S
 CMJI       87.00   1.000   P
  LEM      102.00   1.000   P
 SKJI      114.70   1.000   P
 CGJI      127.70   1.000   P
# 2012 09 08 07 36 39.2  -10.85    113.89     45.0  4.8   0.0   0.0   0.546       256
 JAGI       36.50   1.000   P
 GMJI       39.00   1.000   P
 BYJI       41.10   1.000   P
 BLJI       47.40   1.000   P
 PWJI       49.40   1.000   P
 PCJI       54.40   1.000   P
 SWJI       55.10   1.000   P
 KMMI       55.50   1.000   P
 WOJI       61.20   1.000   P
 GRJI       61.90   1.000   P
 NGJI       62.20   1.000   P
 JAGI       64.90   1.000   S
 TBJI       65.40   1.000   P
 GMJI       69.30   1.000   S
 BYJI       71.70   1.000   S
 BLJI       83.20   1.000   S
 KPJI       86.10   1.000   P
 CTJI       86.80   1.000   P
 CMJI       87.50   1.000   P
 PWJI       89.10   1.000   S
 CGJI      128.80   1.000   P
# 2012 09 08 07 48 32.4  -10.06    113.89     68.0  3.4   0.0   0.0   0.790       257
 JAGI       26.60   1.000   P
 GMJI       29.60   1.000   P
 BYJI       30.60   1.000   P
 BLJI       36.40   1.000   P
 PWJI       40.90   1.000   P
 KMMI       45.20   1.000   P
 JAGI       45.40   1.000   S
 SWJI       46.90   1.000   P
 PCJI       48.70   1.000   P
 BYJI       53.30   1.000   S
# 2012 09 08 09 22 19.7  -10.86    113.81     16.0  4.7   0.0   0.0   0.653       258
 JAGI       37.70   1.000   P
 GMJI       40.30   1.000   P
 BYJI       42.50   1.000   P
 BLJI       48.90   1.000   P
 PWJI       51.20   1.000   P
 SWJI       56.00   1.000   P
 PCJI       56.60   1.000   P
 KMMI       58.60   1.000   P
 WOJI       62.60   1.000   P
 GRJI       62.70   1.000   P
 NGJI       63.70   1.000   P
 JAGI       68.90   1.000   S
 GMJI       73.50   1.000   S
 BYJI       76.00   1.000   S
 CTJI       88.30   1.000   P
 KPJI       88.30   1.000   P
 JCJI       99.60   1.000   P
  LEM      107.20   1.000   P
 SKJI      117.10   1.000   P
 CGJI      128.60   1.000   P
 SBJI      128.70   1.000   P
# 2012 09 08 09 57 07.3  -10.77    113.81     61.0  3.9   0.0   0.0   0.314       259
 JAGI       35.70   1.000   P
 GMJI       38.10   1.000   P
 BYJI       39.50   1.000   P
 BLJI       45.50   1.000   P
 PWJI       48.20   1.000   P
 SWJI       53.80   1.000   P
 PCJI       54.00   1.000   P
 NGJI       60.20   1.000   P
 WOJI       60.20   1.000   P
 JAGI       63.80   1.000   S
 GMJI       68.30   1.000   S
 BYJI       70.80   1.000   S
 SMRI       72.40   1.000   P
 KPJI       85.30   1.000   P
# 2012 09 08 10 01 15.6  -10.65    113.86     10.0  3.6   0.0   0.0   0.433       260
 JAGI       35.00   1.000   P
 GMJI       38.20   1.000   P
 BLJI       45.80   1.000   P
 PWJI       49.30   1.000   P
 SWJI       54.30   1.000   P
 KMMI       55.10   1.000   P
 GRJI       60.00   1.000   P
 WOJI       61.20   1.000   P
 GMJI       68.20   1.000   S
 PWJI       88.30   1.000   S
# 2012 09 08 11 40 55.2  -10.85    113.76     29.0  4.6   0.0   0.0   0.490       261
 JAGI       36.60   1.000   P
 GMJI       39.40   1.000   P
 BYJI       41.10   1.000   P
 BLJI       47.60   1.000   P
 PWJI       49.40   1.000   P
 PCJI       53.70   1.000   P
 SWJI       54.80   1.000   P
 KMMI       57.30   1.000   P
 WOJI       60.90   1.000   P
 GRJI       61.10   1.000   P
 TBJI       64.80   1.000   P
 JAGI       66.90   1.000   S
 GMJI       70.60   1.000   S
 SMRI       73.20   1.000   P
 BYJI       73.60   1.000   S
 KPJI       85.50   1.000   P
 CTJI       86.30   1.000   P
 PWJI       87.90   1.000   S
 CMJI       88.20   1.000   P
 SKJI      116.30   1.000   P
# 2012 09 08 12 01 31.3  -10.74    113.80     18.0  3.6   0.0   0.0   0.468       262
 JAGI       36.50   1.000   P
 GMJI       38.70   1.000   P
 PWJI       48.80   1.000   P
 JAGI       65.40   1.000   S
 PWJI       88.20   1.000   S
# 2012 09 08 12 43 33.4  -09.03    110.31     21.0  3.4   0.0   0.0   0.699       263
 PCJI       21.00   1.000   P
 WOJI       22.90   1.000   P
 PWJI       29.40   1.000   P
 SWJI       31.80   1.000   P
 CMJI       34.80   1.000   P
 PCJI       36.10   1.000   S
 KPJI       36.30   1.000   P
 CTJI       37.30   1.000   P
 GMJI       48.40   1.000   P
 PWJI       50.20   1.000   S
 JAGI       57.40   1.000   P
 CTJI       65.00   1.000   S
# 2012 09 08 12 48 01.9  -10.88    113.89     10.0  4.0   0.0   0.0   0.513       264
 JAGI       38.70   1.000   P
 GMJI       41.70   1.000   P
 BLJI       49.90   1.000   P
 PWJI       53.30   1.000   P
# 2012 09 08 13 32 49.8  -10.73    113.84     10.0  3.3   0.0   0.0   0.450       265
 JAGI       37.40   1.000   P
 GMJI       40.00   1.000   P
# 2012 09 08 13 57 30.3  -10.74    113.93     13.0  3.4   0.0   0.0   0.876       266
 JAGI       36.70   1.000   P
 GMJI       39.00   1.000   P
 BYJI       39.70   1.000   P
 PWJI       51.80   1.000   P
 JAGI       65.70   1.000   S
# 2012 09 08 14 02 27.5  -10.77    113.97     10.0  3.4   0.0   0.0   0.711       267
 JAGI       37.10   1.000   P
 GMJI       40.00   1.000   P
 PWJI       52.70   1.000   P
# 2012 09 08 14 10 58.3  -10.79    113.74     55.0  4.1   0.0   0.0   0.687       268
 JAGI       35.50   1.000   P
 GMJI       37.80   1.000   P
 BLJI       45.50   1.000   P
 PWJI       48.50   1.000   P
 KMMI       55.40   1.000   P
 WOJI       59.10   1.000   P
 CGJI      125.90   1.000   P
# 2012 09 08 14 46 00.4  -10.77    113.81     28.0  3.5   0.0   0.0   0.948       269
 JAGI       35.80   1.000   P
 GMJI       37.40   1.000   P
 PWJI       48.80   1.000   P
# 2012 09 08 17 16 06.2  -10.43    113.73     10.0  3.2   0.0   0.0   0.358       270
 JAGI       33.30   1.000   P
 GMJI       35.80   1.000   P
 PWJI       46.80   1.000   P
# 2012 09 08 17 29 12.5  -10.75    113.93     10.0  3.7   0.0   0.0   0.543       271
 JAGI       37.20   1.000   P
 GMJI       40.00   1.000   P
 BYJI       42.20   1.000   P
 PWJI       51.60   1.000   P
 JAGI       66.60   1.000   S
# 2012 09 09 00 49 18.8  -10.73    113.94     15.0  3.6   0.0   0.0   0.691       272
 JAGI       36.20   1.000   P
 GMJI       39.00   1.000   P
 BLJI       45.70   1.000   P
 PWJI       50.50   1.000   P
 GMJI       69.40   1.000   S
 PWJI       90.20   1.000   S
# 2012 09 09 01 12 51.9  -10.74    113.95     13.0  3.4   0.0   0.0   0.395       273
 JAGI       36.80   1.000   P
 GMJI       40.10   1.000   P
 PWJI       51.30   1.000   P
 PWJI       91.00   1.000   S
# 2012 09 09 03 30 28.4  -10.67    113.99     20.0  4.7   0.0   0.0   0.713       274
 JAGI       35.00   1.000   P
 GMJI       38.10   1.000   P
 BYJI       39.50   1.000   P
 BLJI       46.00   1.000   P
 PWJI       50.70   1.000   P
 PCJI       55.00   1.000   P
 SWJI       55.30   1.000   P
 GRJI       61.30   1.000   P
 WOJI       62.00   1.000   P
 JAGI       62.50   1.000   S
 NGJI       63.70   1.000   P
 GMJI       68.00   1.000   S
 KPJI       88.70   1.000   P
 PWJI       89.90   1.000   S
# 2012 09 09 06 16 25.6  -10.79    113.91     30.0  4.4   0.0   0.0   0.511       275
 JAGI       35.90   1.000   P
 GMJI       38.60   1.000   P
 BYJI       40.10   1.000   P
 BLJI       46.30   1.000   P
 PWJI       50.20   1.000   P
 PCJI       54.90   1.000   P
 SWJI       55.30   1.000   P
 KMMI       55.50   1.000   P
 WOJI       61.70   1.000   P
 JAGI       63.90   1.000   S
 GMJI       69.70   1.000   S
 BYJI       70.90   1.000   S
 BLJI       82.10   1.000   S
 KPJI       86.00   1.000   P
 PWJI       88.70   1.000   S
 KMMI       98.20   1.000   S
# 2012 09 09 06 53 14.6  -10.59    113.90     10.0  3.4   0.0   0.0   0.154       276
 JAGI       35.30   1.000   P
 GMJI       38.50   1.000   P
 PWJI       49.70   1.000   P
 JAGI       63.00   1.000   S
 GMJI       68.30   1.000   S
 PWJI       88.10   1.000   S
# 2012 09 09 08 35 54.3  -08.89    110.19     10.0  3.1   0.0   0.0   0.364       277
 PCJI       21.50   1.000   P
 WOJI       23.60   1.000   P
 PWJI       30.80   1.000   P
 SWJI       32.70   1.000   P
 KPJI       33.70   1.000   P
 CMJI       34.30   1.000   P
 WOJI       40.60   1.000   S
 PWJI       52.80   1.000   S
# 2012 09 09 08 51 46.3  -07.99    110.25    117.0  2.8   0.0   0.0   0.596       278
 PCJI       19.90   1.000   P
 WOJI       20.20   1.000   P
 SMRI       21.50   1.000   P
 PWJI       28.40   1.000   P
 CMJI       31.00   1.000   P
 PWJI       50.60   1.000   S
 CMJI       55.20   1.000   S
# 2012 09 09 09 39 17.8  -10.89    113.81     65.0  4.8   0.0   0.0   0.680       279
 JAGI       37.00   1.000   P
 GMJI       39.80   1.000   P
 BYJI       41.60   1.000   P
 BLJI       48.00   1.000   P
 PWJI       50.60   1.000   P
 PCJI       55.20   1.000   P
 KMMI       56.90   1.000   P
 GRJI       60.20   1.000   P
 WOJI       61.30   1.000   P
 JAGI       66.60   1.000   S
 BYJI       74.10   1.000   S
 KPJI       86.50   1.000   P
 CMJI       87.60   1.000   P
# 2012 09 09 10 56 21.6  -10.72    113.98     34.0  3.8   0.0   0.0   0.202       280
 JAGI       35.00   1.000   P
 GMJI       37.90   1.000   P
 BYJI       38.70   1.000   P
 BLJI       45.10   1.000   P
 PWJI       49.40   1.000   P
 SWJI       54.30   1.000   P
 PCJI       55.40   1.000   P
 WOJI       61.40   1.000   P
 JAGI       62.10   1.000   S
 GMJI       68.20   1.000   S
 BLJI       80.60   1.000   S
# 2012 09 09 20 01 56.5  -10.63    113.88     20.0  3.5   0.0   0.0   0.133       281
 JAGI       34.20   1.000   P
 GMJI       37.60   1.000   P
 BYJI       38.40   1.000   P
 PWJI       48.10   1.000   P
 JAGI       61.70   1.000   S
 GMJI       67.10   1.000   S
# 2012 09 10 00 38 26.6  -10.94    113.91     27.0  5.0   0.0   0.0   0.873       282
 JAGI       37.20   1.000   P
 GMJI       39.50   1.000   P
 BYJI       42.00   1.000   P
 BLJI       48.60   1.000   P
 PWJI       51.80   1.000   P
 PCJI       56.30   1.000   P
 SWJI       56.90   1.000   P
 KMMI       58.10   1.000   P
 GRJI       62.60   1.000   P
 WOJI       63.30   1.000   P
 NGJI       63.40   1.000   P
 SMRI       77.20   1.000   P
 KPJI       88.90   1.000   P
 CMJI       90.10   1.000   P
 NGJI      114.10   1.000   S
 CGJI      131.20   1.000   P
 NGJI      142.80   1.000   S
# 2012 09 10 01 07 51.9  -10.84    113.80     21.0  3.7   0.0   0.0   0.293       283
 JAGI       37.30   1.000   P
 GMJI       39.90   1.000   P
 BYJI       41.80   1.000   P
 PWJI       50.00   1.000   P
 PCJI       55.80   1.000   P
 JAGI       66.60   1.000   S
 JAGI       79.00   1.000   S
 PWJI       89.20   1.000   S
# 2012 09 10 08 13 42.4  -08.98    110.49     10.0  3.4   0.0   0.0   1.205       284
 PCJI       19.40   1.000   P
 WOJI       22.70   1.000   P
 PWJI       28.20   1.000   P
 SWJI       29.00   1.000   P
 PCJI       33.10   1.000   S
 SMRI       34.70   1.000   P
 CMJI       36.30   1.000   P
 KPJI       37.80   1.000   P
 CTJI       39.80   1.000   P
# 2012 09 10 13 28 10.4  -10.85    113.79     20.0  3.8   0.0   0.0   0.621       285
 JAGI       37.50   1.000   P
 GMJI       39.70   1.000   P
 PWJI       51.30   1.000   P
 SWJI       56.00   1.000   P
 JAGI       68.10   1.000   S
 GMJI       72.10   1.000   S
# 2012 09 10 15 47 03.9  -10.78    113.81     22.0  3.4   0.0   0.0   0.745       286
 JAGI       36.30   1.000   P
 GMJI       38.90   1.000   P
 PWJI       49.00   1.000   P
 JAGI       65.00   1.000   S
 GMJI       70.40   1.000   S
 PWJI       88.70   1.000   S
# 2012 09 10 19 57 18.2  -09.50    112.99     17.0  3.7   0.0   0.0   0.933       287
 GMJI       22.70   1.000   P
 JAGI       26.10   1.000   P
 PWJI       29.50   1.000   P
 BYJI       31.00   1.000   P
 BLJI       31.90   1.000   P
 SWJI       33.70   1.000   P
 PCJI       34.50   1.000   P
 GMJI       39.90   1.000   S
 WOJI       40.30   1.000   P
 KMMI       42.00   1.000   P
 GRJI       43.00   1.000   P
 NGJI       43.50   1.000   P
 JAGI       45.10   1.000   S
 PWJI       52.30   1.000   S
 BLJI       54.60   1.000   S
 SWJI       61.70   1.000   S
 PCJI       63.20   1.000   S
 KPJI       69.30   1.000   P
# 2012 09 10 23 20 04.5  -08.95    113.82     21.0  3.4   0.0   0.0   0.849       288
 JAGI       12.20   1.000   P
 GMJI       14.50   1.000   P
 BYJI       17.50   1.000   P
 JAGI       20.70   1.000   S
 BLJI       22.80   1.000   P
 GMJI       24.80   1.000   S
 BYJI       31.60   1.000   S
 PWJI       35.10   1.000   P
 BLJI       38.40   1.000   S
 SWJI       38.40   1.000   P
 PCJI       41.90   1.000   P
 WOJI       46.80   1.000   P
 PWJI       61.90   1.000   S
# 2012 09 10 23 27 17.4  -10.80    113.81     64.0  3.5   0.0   0.0   0.553       289
 JAGI       36.20   1.000   P
 GMJI       37.90   1.000   P
 PWJI       48.70   1.000   P
 JAGI       64.70   1.000   S
 GMJI       68.50   1.000   S
 PWJI       86.80   1.000   S
# 2012 09 10 23 57 31.1  -10.77    113.83     10.0  3.6   0.0   0.0   0.808       290
 JAGI       37.80   1.000   P
 GMJI       40.60   1.000   P
 PWJI       51.20   1.000   P
 JAGI       67.00   1.000   S
 GMJI       72.10   1.000   S
 PWJI       90.10   1.000   S
