# 2012 04 07 20 32 28.3  -09.11    110.52     43.0  4.4   0.0   0.0   0.662        98
 PCJI       19.20   1.000   P
 WOJI       22.10   1.000   P
 SWJI       29.30   1.000   P
 SCJI       30.50   1.000   P
 PCJI       33.20   1.000   S
 KPJI       36.90   1.000   P
 WOJI       37.80   1.000   S
 CTJI       37.90   1.000   P
 TBJI       40.50   1.000   P
 GRJI       44.20   1.000   P
 GMJI       45.10   1.000   P
 BLJI       50.20   1.000   P
 SWJI       51.60   1.000   S
 SCJI       53.40   1.000   S
 JAGI       53.90   1.000   P
 KMMI       58.30   1.000   P
 KPJI       65.40   1.000   S
 SKJI       65.80   1.000   P
 CTJI       68.00   1.000   S
 CGJI       77.80   1.000   P
 JAGI       94.80   1.000   S
# 2012 04 11 06 17 54.6  -09.24    113.15     10.0  2.9   0.0   0.0   0.432        99
 GMJI       17.70   1.000   P
 JAGI       21.30   1.000   P
 BLJI       27.20   1.000   P
 GMJI       31.70   1.000   S
 JAGI       39.50   1.000   S
# 2012 04 11 16 21 48.2  -10.76    113.72     38.0  5.1   0.0   0.0   0.921       100
 JAGI       34.40   1.000   P
 GMJI       36.30   1.000   P
 BYJI       40.50   1.000   P
 BLJI       45.40   1.000   P
 PWJI       47.60   1.000   P
 SWJI       52.90   1.000   P
 PCJI       55.00   1.000   P
 KMMI       55.60   1.000   P
 GRJI       58.70   1.000   P
 WOJI       59.30   1.000   P
 BWJI       72.90   1.000   P
 SCJI       79.50   1.000   P
 CTJI       83.90   1.000   P
 CMJI       84.40   1.000   P
 KPJI       84.60   1.000   P
 CGJI      125.30   1.000   P
# 2012 04 11 20 51 20.5  -08.63    110.76     10.0  2.6   0.0   0.0   0.230       101
 PCJI       11.20   1.000   P
 PWJI       19.40   1.000   P
 SWJI       23.60   1.000   P
 PWJI       35.30   1.000   S
 SWJI       41.50   1.000   S
# 2012 04 12 12 41 36.3  -10.07    112.97    114.0  3.6   0.0   0.0   0.174       102
 GMJI       31.20   1.000   P
 JAGI       32.70   1.000   P
 PWJI       35.50   1.000   P
 BYJI       37.20   1.000   P
 BLJI       38.30   1.000   P
 PCJI       40.60   1.000   P
 SWJI       41.10   1.000   P
 GMJI       56.30   1.000   S
 KPJI       70.10   1.000   P
 PCJI       73.20   1.000   S
 WOJI       83.20   1.000   P
# 2012 04 13 10 22 45.7  -07.97    113.43     10.0  3.3   0.0   0.0   0.733       103
 GMJI        6.20   1.000   P
 ABJI       14.70   1.000   P
 JAGI       14.80   1.000   P
 KMMI       18.50   1.000   P
 GRJI       24.00   1.000   P
 SWJI       29.50   1.000   P
 PCJI       36.80   1.000   P
 GRJI       43.30   1.000   S
# 2012 04 13 14 47 22.9  -09.01    112.15     58.0  3.5   0.0   0.0   0.949       104
 PWJI       17.90   1.000   P
 PCJI       20.60   1.000   P
 SWJI       22.40   1.000   P
 GMJI       23.00   1.000   P
 WOJI       27.20   1.000   P
 BLJI       30.90   1.000   P
 PWJI       31.40   1.000   S
 JAGI       31.60   1.000   P
 GRJI       34.10   1.000   P
 PCJI       36.70   1.000   S
 WOJI       47.80   1.000   S
# 2012 04 14 17 11 44.5  -10.59    112.49     15.0  4.5   0.0   0.0   1.131       105
 GMJI       40.40   1.000   P
 PWJI       41.40   1.000   P
 PCJI       41.80   1.000   P
 JAGI       43.20   1.000   P
 SWJI       45.30   1.000   P
 WOJI       48.40   1.000   P
 BLJI       49.50   1.000   P
 GMJI       69.90   1.000   S
 KPJI       71.70   1.000   P
 PCJI       74.70   1.000   S
 JAGI       74.80   1.000   S
 BLJI       84.90   1.000   S
 WOJI       86.40   1.000   S
 CBJI       99.70   1.000   P
 GRJI      101.40   1.000   P
 CTJI      127.00   1.000   P
 KPJI      127.50   1.000   S
# 2012 04 14 21 24 18.7  -07.13    113.65     11.0  3.4   0.0   0.0   0.886       106
 KMMI        5.70   1.000   P
 BLJI       11.50   1.000   P
 KMMI       12.00   1.000   S
 GMJI       20.40   1.000   P
 GRJI       20.80   1.000   P
 BLJI       21.60   1.000   S
 BYJI       24.20   1.000   P
 JAGI       24.90   1.000   P
 BWJI       28.20   1.000   P
 TBJI       31.20   1.000   P
 SWJI       32.70   1.000   P
 PWJI       33.60   1.000   P
 GMJI       37.20   1.000   S
 GRJI       37.90   1.000   S
 PCJI       42.80   1.000   P
 JAGI       44.50   1.000   S
 BWJI       50.20   1.000   S
 TBJI       56.10   1.000   S
 SWJI       60.30   1.000   S
 PCJI       77.10   1.000   S
# 2012 04 14 22 37 25.5  -07.11    113.62     10.0  3.5   0.0   0.0   1.275       107
 KMMI        5.20   1.000   P
 BLJI       11.10   1.000   P
 GMJI       20.10   1.000   P
 GRJI       20.10   1.000   P
 BLJI       21.40   1.000   S
 BYJI       23.60   1.000   P
 JAGI       24.10   1.000   P
 BWJI       28.00   1.000   P
 SWJI       30.50   1.000   P
 PWJI       33.20   1.000   P
 GMJI       36.60   1.000   S
 GRJI       37.90   1.000   S
 BYJI       43.20   1.000   S
 JAGI       44.20   1.000   S
 BWJI       49.50   1.000   S
# 2012 04 15 00 48 26.7  -09.00    111.72     59.0  3.1   0.0   0.0   0.942       108
 PCJI       16.70   1.000   P
 PWJI       17.00   1.000   P
 SWJI       21.50   1.000   P
 WOJI       23.70   1.000   P
 PCJI       29.10   1.000   S
 PWJI       29.30   1.000   S
 GMJI       30.40   1.000   P
 JAGI       37.40   1.000   P
 SWJI       38.80   1.000   S
 WOJI       41.60   1.000   S
 GMJI       51.30   1.000   S
# 2012 04 17 15 08 37.6  -08.77    112.83    118.0  4.1   0.0   0.0   0.473       109
 GMJI       20.60   1.000   P
 PWJI       24.70   1.000   P
 JAGI       26.10   1.000   P
 SWJI       27.20   1.000   P
 PCJI       30.40   1.000   P
 GRJI       31.50   1.000   P
 KMMI       34.30   1.000   P
 WOJI       35.00   1.000   P
 TBJI       35.60   1.000   P
 GMJI       35.80   1.000   S
 SMRI       45.20   1.000   P
 SCJI       56.60   1.000   P
 KPJI       60.90   1.000   P
# 2012 04 17 18 45 19.2  -10.75    113.64     10.0  3.8   0.0   0.0   0.292       110
 JAGI       38.10   1.000   P
 GMJI       40.50   1.000   P
 PWJI       49.50   1.000   P
 SWJI       54.40   1.000   P
 JAGI       67.70   1.000   S
# 2012 04 18 20 02 27.1  -08.96    110.00     10.0  3.3   0.0   0.0   0.572       111
 WOJI       25.50   1.000   P
 SMRI       32.50   1.000   P
 PWJI       33.20   1.000   P
 SWJI       36.20   1.000   P
 WOJI       44.00   1.000   S
 PWJI       58.10   1.000   S
 SMRI       59.40   1.000   S
 SWJI       63.40   1.000   S
# 2012 04 18 20 23 58.8  -08.07    112.26    167.0  3.6   0.0   0.0   0.625       112
 PWJI       23.90   1.000   P
 SWJI       24.70   1.000   P
 PCJI       28.00   1.000   P
 GRJI       28.10   1.000   P
 GMJI       28.70   1.000   P
 TBJI       29.00   1.000   P
 WOJI       29.90   1.000   P
 JAGI       35.50   1.000   P
 KMMI       36.30   1.000   P
 SMRI       37.10   1.000   P
 PWJI       42.00   1.000   S
 SWJI       44.00   1.000   S
 SCJI       48.90   1.000   P
 PCJI       49.20   1.000   S
 GRJI       49.80   1.000   S
 CTJI       50.80   1.000   P
 TBJI       51.80   1.000   S
 KPJI       53.00   1.000   P
# 2012 04 20 21 45 21.8  -10.45    113.59     10.0  4.7   0.0   0.0   0.948       113
 JAGI       33.70   1.000   P
 GMJI       34.80   1.000   P
 ABJI       45.10   1.000   P
 PWJI       46.10   1.000   P
 PCJI       49.40   1.000   P
 SWJI       50.70   1.000   P
 WOJI       56.20   1.000   P
 GRJI       57.30   1.000   P
 TBJI       61.60   1.000   P
 SMRI       70.50   1.000   P
 BWJI       70.50   1.000   P
 CTJI       84.00   1.000   P
  LEM      103.00   1.000   P
 CGJI      125.80   1.000   P
# 2012 04 22 22 55 14.7  -09.50    112.95     12.0  3.7   0.0   0.0   0.472       114
 GMJI       23.30   1.000   P
 JAGI       26.50   1.000   P
 PWJI       29.10   1.000   P
 BLJI       31.30   1.000   P
 BYJI       31.30   1.000   P
 SWJI       34.30   1.000   P
 PCJI       35.50   1.000   P
 WOJI       40.70   1.000   P
 NGJI       41.10   1.000   P
 GRJI       41.80   1.000   P
 BLJI       54.80   1.000   S
# 2012 04 26 16 57 08.1  -09.46    112.88     10.0  3.4   0.0   0.0   1.085       115
 GMJI       23.10   1.000   P
 JAGI       27.50   1.000   P
 PWJI       29.20   1.000   P
 BLJI       33.00   1.000   P
 PCJI       33.60   1.000   P
 SWJI       34.30   1.000   P
 NGJI       43.20   1.000   P
 GRJI       43.30   1.000   P
 JAGI       48.30   1.000   S
 PWJI       50.90   1.000   S
# 2012 04 27 04 02 37.3  -07.87    110.59     11.0  2.0   0.0   0.0   0.389       116
 WOJI        8.20   1.000   P
 WOJI       12.80   1.000   S
 PCJI       13.70   1.000   P
 PWJI       23.10   1.000   P
 PCJI       23.60   1.000   S
 PWJI       39.40   1.000   S
# 2012 05 01 06 36 43.7  -08.36    111.90    113.0  2.8   0.0   0.0   0.830       117
 PWJI       17.70   1.000   P
 SWJI       18.50   1.000   P
 PCJI       20.60   1.000   P
 WOJI       23.60   1.000   P
 PWJI       29.70   1.000   S
 SWJI       33.50   1.000   S
 PCJI       34.10   1.000   S
 JAGI       35.90   1.000   P
 WOJI       39.50   1.000   S
 JAGI       63.20   1.000   S
# 2012 05 02 19 56 26.1  -09.25    113.51     12.0  3.2   0.0   0.0   0.301       118
 GMJI       18.70   1.000   P
 JAGI       19.10   1.000   P
 BLJI       27.10   1.000   P
 GMJI       32.40   1.000   S
 JAGI       33.10   1.000   S
 PWJI       33.50   1.000   P
 SWJI       37.20   1.000   P
 PCJI       41.10   1.000   P
 WOJI       45.90   1.000   P
 TBJI       46.80   1.000   P
 PWJI       59.00   1.000   S
# 2012 05 07 05 07 36.4  -08.37    112.21     94.0  2.5   0.0   0.0   0.591       119
 PWJI       16.30   1.000   P
 SWJI       19.00   1.000   P
 PCJI       21.10   1.000   P
 PWJI       29.00   1.000   S
 PCJI       35.30   1.000   S
# 2012 05 07 09 39 18.8  -08.35    112.66     93.0  3.5   0.0   0.0   0.503       120
 GMJI       17.90   1.000   P
 PWJI       19.20   1.000   P
 SWJI       21.20   1.000   P
 BLJI       21.60   1.000   P
 GRJI       24.70   1.000   P
 PCJI       25.90   1.000   P
 JAGI       26.20   1.000   P
 NGJI       26.70   1.000   P
 ABJI       28.00   1.000   P
 BYJI       29.20   1.000   P
 WOJI       29.80   1.000   P
 CTJI       55.00   1.000   P
 KPJI       56.90   1.000   P
# 2012 05 08 02 44 24.9  -10.25    113.06    143.0  3.5   0.0   0.0   1.148       121
 GMJI       34.00   1.000   P
 JAGI       34.90   1.000   P
 PWJI       40.40   1.000   P
 PCJI       42.10   1.000   P
 BLJI       43.10   1.000   P
 WOJI       49.00   1.000   P
 GMJI       62.00   1.000   S
 JAGI       62.60   1.000   S
 PWJI       72.60   1.000   S
 WOJI       87.00   1.000   S
# 2012 05 08 06 22 32.9  -09.21    112.39     61.0  3.7   0.0   0.0   0.954       122
 PWJI       21.80   1.000   P
 GMJI       22.60   1.000   P
 PCJI       25.20   1.000   P
 SWJI       27.70   1.000   P
 JAGI       29.20   1.000   P
 BLJI       30.60   1.000   P
 WOJI       30.90   1.000   P
 PWJI       38.30   1.000   S
 GMJI       39.70   1.000   S
 PCJI       44.20   1.000   S
 SWJI       46.30   1.000   S
 BLJI       53.60   1.000   S
 WOJI       55.50   1.000   S
 CMJI       60.20   1.000   P
# 2012 05 08 09 05 55.5  -08.17    111.46     10.0  3.0   0.0   0.0   0.644       123
 PCJI        6.10   1.000   P
 PWJI        7.30   1.000   P
 PCJI       10.20   1.000   S
 SWJI       10.30   1.000   P
 PWJI       12.00   1.000   S
 WOJI       20.90   1.000   P
 GMJI       34.00   1.000   P
 GMJI       59.70   1.000   S
# 2012 05 08 16 23 43.4  -07.46    111.81    224.0  3.6   0.0   0.0   0.706       124
 SWJI       30.00   1.000   P
 TBJI       30.30   1.000   P
 PWJI       30.40   1.000   P
 NGJI       30.80   1.000   P
 GRJI       31.40   1.000   P
 WOJI       32.20   1.000   P
 PCJI       32.70   1.000   P
 SMRI       34.80   1.000   P
 BLJI       39.00   1.000   P
 GMJI       39.20   1.000   P
 JAGI       46.10   1.000   P
 BYJI       46.80   1.000   P
 SCJI       47.30   1.000   P
 KPJI       50.50   1.000   P
 SWJI       52.70   1.000   S
 NGJI       53.80   1.000   S
 CMJI       54.00   1.000   P
 PWJI       55.40   1.000   S
 TBJI       56.20   1.000   S
 GRJI       57.50   1.000   S
 PCJI       58.90   1.000   S
 JAGI       83.10   1.000   S
 CGJI       88.80   1.000   P
# 2012 05 10 23 15 12.3  -10.92    113.83     14.0  4.0   0.0   0.0   0.912       125
 JAGI       40.00   1.000   P
 GMJI       42.20   1.000   P
 BYJI       44.10   1.000   P
 PWJI       52.20   1.000   P
 SWJI       58.10   1.000   P
 JAGI       70.00   1.000   S
 GMJI       74.30   1.000   S
 PWJI       92.60   1.000   S
 SWJI      103.10   1.000   S
# 2012 05 11 08 01 09.9  -08.35    113.29     10.0  3.0   0.0   0.0   0.613       126
 GMJI        4.30   1.000   P
 GMJI        7.50   1.000   S
 BLJI       13.50   1.000   P
 JAGI       16.60   1.000   P
 BYJI       19.80   1.000   P
 BLJI       22.80   1.000   S
 PWJI       26.50   1.000   P
 JAGI       28.30   1.000   S
 SWJI       29.00   1.000   P
 GRJI       29.10   1.000   P
 PCJI       35.30   1.000   P
 PWJI       45.20   1.000   S
 GRJI       50.80   1.000   S
 PCJI       62.10   1.000   S
# 2012 05 13 13 42 27.8  -10.49    113.52     10.0  3.9   0.0   0.0   0.876       127
 GMJI       35.20   1.000   P
 JAGI       35.20   1.000   P
 BLJI       44.60   1.000   P
 JAGI       63.30   1.000   S
 GMJI       64.60   1.000   S
# 2012 05 15 05 31 04.9  -08.73    110.32     25.0  2.9   0.0   0.0   0.689       128
 PCJI       17.70   1.000   P
 WOJI       19.40   1.000   P
 SCJI       25.50   1.000   P
 PWJI       26.90   1.000   P
 PCJI       30.70   1.000   S
 WOJI       33.80   1.000   S
 PWJI       46.80   1.000   S
# 2012 05 18 21 41 56.9  -09.30    112.89     10.0  4.0   0.0   0.0   1.124       129
 GMJI       20.60   1.000   P
 JAGI       24.50   1.000   P
 PWJI       26.70   1.000   P
 BLJI       29.20   1.000   P
 SWJI       31.80   1.000   P
 BYJI       32.30   1.000   P
 PCJI       34.30   1.000   P
 GMJI       37.50   1.000   S
 WOJI       37.70   1.000   P
 NGJI       42.00   1.000   P
 JAGI       47.30   1.000   S
 PWJI       47.80   1.000   S
 BLJI       52.00   1.000   S
 BYJI       54.20   1.000   S
# 2012 05 22 11 24 28.2  -08.95    110.16     24.0  4.4   0.0   0.0   0.646       130
 PCJI       21.60   1.000   P
 WOJI       22.30   1.000   P
 SCJI       25.90   1.000   P
 PWJI       29.40   1.000   P
 SWJI       31.80   1.000   P
 SMRI       32.00   1.000   P
 CMJI       32.20   1.000   P
 KPJI       33.00   1.000   P
 NGJI       34.00   1.000   P
 CTJI       35.20   1.000   P
 UWJI       41.60   1.000   P
 TBJI       42.50   1.000   P
 JCJI       44.60   1.000   P
 GRJI       47.30   1.000   P
  LEM       50.40   1.000   P
 GMJI       50.60   1.000   P
 BLJI       54.20   1.000   P
 KPJI       58.10   1.000   S
 CBJI       59.20   1.000   P
 BWJI       59.30   1.000   P
 JAGI       59.70   1.000   P
 SKJI       61.10   1.000   P
 DBJI       61.70   1.000   P
 BYJI       63.30   1.000   P
 CGJI       72.50   1.000   P
# 2012 05 22 15 13 06.3  -08.86    110.14     10.0  4.0   0.0   0.0   0.709       131
 PCJI       21.40   1.000   P
 WOJI       23.20   1.000   P
 SCJI       26.70   1.000   P
 PWJI       30.70   1.000   P
 SMRI       32.70   1.000   P
 CMJI       32.80   1.000   P
 SWJI       33.30   1.000   P
 KPJI       33.90   1.000   P
 NGJI       34.90   1.000   P
 CTJI       36.40   1.000   P
 WOJI       40.60   1.000   S
 SCJI       45.90   1.000   S
 GRJI       47.90   1.000   P
 PWJI       53.30   1.000   S
 SMRI       55.30   1.000   S
 KPJI       58.00   1.000   S
 SWJI       58.50   1.000   S
 CBJI       58.70   1.000   P
 JAGI       60.60   1.000   P
 CTJI       61.20   1.000   S
# 2012 05 26 11 30 01.9  -09.75    113.14     22.0  3.7   0.0   0.0   1.037       132
 GMJI       25.60   1.000   P
 JAGI       26.70   1.000   P
 BLJI       31.60   1.000   P
 PWJI       34.80   1.000   P
 PCJI       38.20   1.000   P
 SWJI       39.00   1.000   P
 WOJI       43.90   1.000   P
 PCJI       69.40   1.000   S
# 2012 05 29 22 30 33.2  -09.57    112.94     10.0  3.3   0.0   0.0   0.699       133
 GMJI       24.40   1.000   P
 JAGI       27.50   1.000   P
 PWJI       31.20   1.000   P
 BLJI       33.30   1.000   P
 PCJI       37.00   1.000   P
# 2012 06 01 17 28 33.4  -09.34    113.50     18.0  3.1   0.0   0.0   0.343       134
 GMJI       18.40   1.000   P
 JAGI       19.10   1.000   P
 JAGI       33.10   1.000   S
 SWJI       36.90   1.000   P
 PCJI       40.20   1.000   P
 PWJI       59.10   1.000   P
 SWJI       67.10   1.000   S
# 2012 06 02 01 48 03.5  -09.47    112.97     24.0  3.5   0.0   0.0   1.098       135
 GMJI       21.10   1.000   P
 JAGI       26.20   1.000   P
 BYJI       28.10   1.000   P
 PWJI       28.20   1.000   P
 BLJI       30.20   1.000   P
 PCJI       33.10   1.000   P
 SWJI       34.50   1.000   P
 GMJI       36.90   1.000   S
 NGJI       38.90   1.000   P
 JAGI       46.70   1.000   S
 PWJI       51.10   1.000   S
 BLJI       52.80   1.000   S
 BYJI       54.20   1.000   S
 SWJI       60.30   1.000   S
 NGJI       72.00   1.000   S
# 2012 06 02 18 54 53.5  -10.30    113.37     10.0  3.4   0.0   0.0   0.328       136
 JAGI       33.30   1.000   P
 GMJI       33.80   1.000   P
 BYJI       37.50   1.000   P
 BLJI       40.70   1.000   P
 PWJI       41.20   1.000   P
 SWJI       47.90   1.000   P
 PCJI       47.90   1.000   P
 PWJI       74.80   1.000   S
# 2012 06 03 14 25 00.9  -09.98    112.86     10.0  3.2   0.0   0.0   1.005       137
 GMJI       31.80   1.000   P
 JAGI       32.30   1.000   P
 BLJI       37.40   1.000   P
# 2012 06 03 16 43 41.2  -09.13    112.66     49.0  2.8   0.0   0.0   0.476       138
 GMJI       19.90   1.000   P
 JAGI       26.20   1.000   P
 SWJI       26.30   1.000   P
 BLJI       26.50   1.000   P
 GMJI       34.50   1.000   S
 JAGI       45.40   1.000   S
 SWJI       46.70   1.000   S
 BLJI       48.10   1.000   S
# 2012 06 06 14 54 22.5  -09.06    111.22     13.0  3.1   0.0   0.0   0.219       139
 PCJI       16.80   1.000   P
 PWJI       19.30   1.000   P
 SWJI       25.10   1.000   P
 PCJI       29.00   1.000   S
 NGJI       29.50   1.000   P
 GMJI       38.50   1.000   P
# 2012 06 07 23 17 19.7  -08.53    112.72    138.0  3.6   0.0   0.0   0.467       140
 GMJI       23.20   1.000   P
 PWJI       23.20   1.000   P
 SWJI       25.90   1.000   P
 BLJI       26.20   1.000   P
 JAGI       27.60   1.000   P
 GRJI       29.90   1.000   P
 NGJI       30.90   1.000   P
 GMJI       39.00   1.000   S
 PWJI       42.00   1.000   S
# 2012 06 09 04 56 09.8  -08.70    111.38     83.0  4.1   0.0   0.0   0.696       141
 PCJI       16.00   1.000   P
 PWJI       17.40   1.000   P
 SWJI       19.70   1.000   P
 NGJI       23.90   1.000   P
 PCJI       27.20   1.000   S
 PWJI       28.20   1.000   S
 TBJI       29.90   1.000   P
 GRJI       32.00   1.000   P
 GMJI       33.70   1.000   P
 SWJI       35.30   1.000   S
 SCJI       37.10   1.000   P
 BLJI       37.10   1.000   P
 JAGI       42.40   1.000   P
 KPJI       42.60   1.000   P
 CMJI       45.20   1.000   P
# 2012 06 09 20 42 08.6  -08.66    111.26     67.0  2.9   0.0   0.0   0.267       142
 PCJI       13.90   1.000   P
 PWJI       15.50   1.000   P
 SWJI       18.70   1.000   P
 NGJI       21.90   1.000   P
 PCJI       23.90   1.000   S
 PWJI       28.00   1.000   S
 SWJI       33.70   1.000   S
# 2012 06 10 15 31 33.8  -09.02    110.45     10.0  2.5   0.0   0.0   0.758       143
 PCJI       19.40   1.000   P
 WOJI       24.40   1.000   P
 PWJI       27.30   1.000   P
 SWJI       31.90   1.000   P
 WOJI       39.60   1.000   S
 SWJI       55.50   1.000   S
# 2012 06 11 12 55 15.5  -05.99    110.61     10.0  3.4   0.0   0.0   0.435       144
 SMRI       20.50   1.000   P
 TBJI       26.20   1.000   P
 NGJI       28.70   1.000   P
 CTJI       29.70   1.000   P
 WOJI       31.20   1.000   P
 SWJI       34.40   1.000   P
 BWJI       34.70   1.000   P
 SMRI       35.30   1.000   S
 GRJI       35.30   1.000   P
 KPJI       35.70   1.000   P
 PCJI       36.60   1.000   P
 NGJI       50.00   1.000   S
 NGJI       53.10   1.000   S
 SWJI       68.70   1.000   S
